{
  "type": "FeatureCollection",
  "features": [
    {
      "type": "Feature",
      "geometry": {
        "type": "LineString",
        "coordinates": [
          [
            74.257688,
            14.505596
          ],
          [
            74.303596,
            14.452841
          ],
          [
            74.25108,
            14.513351
          ],
          [
            74.33496,
            14.416191
          ],
          [
            74.342229,
            14.407823
          ],
          [
            74.305463,
            14.45043
          ],
          [
            74.291489,
            14.466646
          ],
          [
            74.308454,
            14.446808
          ],
          [
            74.295925,
            14.461304
          ],
          [
            74.371391,
            14.37425
          ],
          [
            74.324431,
            14.428617
          ],
          [
            74.320316,
            14.433255
          ],
          [
            74.339372,
            14.4114
          ],
          [
            74.365199,
            14.381113
          ],
          [
            74.397289,
            14.343757
          ],
          [
            74.404296,
            14.33565
          ],
          [
            74.384981,
            14.358191
          ],
          [
            74.420592,
            14.317128
          ],
          [
            74.39999,
            14.340796
          ],
          [
            74.40307,
            14.337143
          ],
          [
            74.395744,
            14.34591
          ],
          [
            74.421974,
            14.315681
          ],
          [
            74.455386,
            14.276406
          ],
          [
            74.460788,
            14.270505
          ],
          [
            74.435829,
            14.29935
          ],
          [
            74.468694,
            14.261395
          ],
          [
            74.482749,
            14.24488
          ],
          [
            74.490306,
            14.23641
          ],
          [
            74.491341,
            14.23511
          ],
          [
            74.493592,
            14.232008
          ],
          [
            74.518785,
            14.203359
          ],
          [
            74.51278,
            14.209906
          ],
          [
            74.497843,
            14.227683
          ],
          [
            74.511412,
            14.211629
          ],
          [
            74.52604,
            14.194668
          ],
          [
            74.535529,
            14.183574
          ],
          [
            74.549831,
            14.167534
          ],
          [
            74.563156,
            14.15158
          ],
          [
            74.551219,
            14.165623
          ],
          [
            74.567235,
            14.146883
          ],
          [
            74.572157,
            14.141438
          ],
          [
            74.585868,
            14.125115
          ],
          [
            74.605661,
            14.102796
          ],
          [
            74.594808,
            14.11475
          ],
          [
            74.635189,
            14.0682
          ],
          [
            74.64816,
            14.053123
          ],
          [
            74.648356,
            14.052787
          ],
          [
            74.65712,
            14.042865
          ],
          [
            74.663698,
            14.035063
          ],
          [
            74.664888,
            14.033574
          ],
          [
            74.667645,
            14.030615
          ],
          [
            74.677276,
            14.019138
          ],
          [
            74.683448,
            14.012172
          ],
          [
            74.68888,
            14.005853
          ],
          [
            74.693435,
            14.001011
          ],
          [
            74.698128,
            13.995215
          ],
          [
            74.70248,
            13.99025
          ],
          [
            74.707492,
            13.984505
          ],
          [
            74.713071,
            13.977606
          ],
          [
            74.716816,
            13.973528
          ],
          [
            74.723833,
            13.965733
          ],
          [
            74.7237,
            13.965479
          ],
          [
            74.735496,
            13.951672
          ],
          [
            74.736308,
            13.950841
          ],
          [
            74.738617,
            13.948441
          ],
          [
            74.752092,
            13.932486
          ],
          [
            74.76029,
            13.923523
          ],
          [
            74.764424,
            13.918363
          ],
          [
            74.761442,
            13.921675
          ],
          [
            74.793224,
            13.885163
          ],
          [
            74.804767,
            13.871696
          ],
          [
            74.816213,
            13.858746
          ],
          [
            74.826965,
            13.845794
          ],
          [
            74.827661,
            13.845284
          ],
          [
            74.842122,
            13.828187
          ],
          [
            74.851535,
            13.817544
          ],
          [
            74.844977,
            13.824974
          ],
          [
            74.853341,
            13.815405
          ],
          [
            74.86241,
            13.8048
          ],
          [
            74.869991,
            13.796076
          ],
          [
            74.884099,
            13.77967
          ],
          [
            74.913035,
            13.746058
          ],
          [
            74.891554,
            13.77102
          ],
          [
            74.901596,
            13.759382
          ],
          [
            74.898553,
            13.763081
          ],
          [
            74.949477,
            13.703522
          ],
          [
            74.922056,
            13.735968
          ],
          [
            74.960528,
            13.690803
          ],
          [
            74.966637,
            13.684063
          ],
          [
            74.98302,
            13.664769
          ],
          [
            74.982241,
            13.665834
          ],
          [
            74.997296,
            13.648059
          ],
          [
            74.956327,
            13.695799
          ],
          [
            74.993779,
            13.652411
          ],
          [
            75.00362,
            13.640952
          ],
          [
            75.028854,
            13.611745
          ],
          [
            75.005367,
            13.638707
          ],
          [
            75.036587,
            13.602774
          ],
          [
            75.042735,
            13.595688
          ],
          [
            74.999067,
            13.646338
          ],
          [
            75.070934,
            13.563181
          ],
          [
            75.055137,
            13.581009
          ],
          [
            75.042412,
            13.596373
          ],
          [
            75.092453,
            13.538083
          ],
          [
            75.052532,
            13.584315
          ],
          [
            75.111121,
            13.516433
          ],
          [
            75.05931,
            13.576826
          ],
          [
            75.135665,
            13.488259
          ],
          [
            75.062226,
            13.57312
          ],
          [
            75.148673,
            13.473166
          ],
          [
            75.146353,
            13.475606
          ],
          [
            75.090773,
            13.540321
          ],
          [
            75.10825,
            13.519852
          ]
        ]
      },
      "properties": {
        "mmsi": 419002001,
        "name": "SEA CHAMPION",
        "ship_type": "Oil Tanker",
        "closest_distance_km": 2.85,
        "passes_all_default_filters": true
      }
    },
    {
      "type": "Feature",
      "geometry": {
        "type": "LineString",
        "coordinates": [
          [
            75.356944,
            15.567063
          ],
          [
            75.332562,
            15.501545
          ],
          [
            75.361872,
            15.58025
          ],
          [
            75.340466,
            15.522057
          ],
          [
            75.3242,
            15.47972
          ],
          [
            75.332982,
            15.501983
          ],
          [
            75.290396,
            15.388692
          ],
          [
            75.299627,
            15.413264
          ],
          [
            75.27927,
            15.358911
          ],
          [
            75.257442,
            15.301311
          ],
          [
            75.274079,
            15.344945
          ],
          [
            75.255316,
            15.295225
          ],
          [
            75.21812,
            15.195838
          ],
          [
            75.216887,
            15.192199
          ],
          [
            75.205438,
            15.161717
          ],
          [
            75.198194,
            15.142649
          ],
          [
            75.188149,
            15.115469
          ],
          [
            75.193616,
            15.130353
          ],
          [
            75.17042,
            15.068121
          ],
          [
            75.155701,
            15.028617
          ],
          [
            75.145711,
            15.002332
          ],
          [
            75.135242,
            14.97391
          ],
          [
            75.115099,
            14.920044
          ],
          [
            75.11796,
            14.927467
          ],
          [
            75.109945,
            14.906812
          ],
          [
            75.083708,
            14.836403
          ],
          [
            75.080195,
            14.827528
          ],
          [
            75.067733,
            14.794001
          ],
          [
            75.06378,
            14.783327
          ],
          [
            75.051869,
            14.750752
          ],
          [
            75.04322,
            14.728024
          ],
          [
            75.018981,
            14.663476
          ],
          [
            75.005762,
            14.627506
          ],
          [
            75.003311,
            14.621369
          ],
          [
            75.002752,
            14.61949
          ],
          [
            74.989465,
            14.584229
          ],
          [
            74.971271,
            14.535869
          ],
          [
            74.966805,
            14.523975
          ],
          [
            74.945443,
            14.466504
          ],
          [
            74.942234,
            14.458047
          ],
          [
            74.923972,
            14.409421
          ],
          [
            74.913248,
            14.380583
          ],
          [
            74.900884,
            14.347336
          ],
          [
            74.896592,
            14.336102
          ],
          [
            74.808038,
            14.099762
          ],
          [
            74.802281,
            14.084165
          ],
          [
            74.800157,
            14.078274
          ],
          [
            74.79264,
            14.058284
          ],
          [
            74.790921,
            14.053387
          ],
          [
            74.783791,
            14.034721
          ],
          [
            74.780016,
            14.024769
          ],
          [
            74.774549,
            14.009956
          ],
          [
            74.770705,
            14.000015
          ],
          [
            74.765485,
            13.985463
          ],
          [
            74.76003,
            13.971049
          ],
          [
            74.755587,
            13.959732
          ],
          [
            74.751413,
            13.948077
          ],
          [
            74.747132,
            13.936337
          ],
          [
            74.742432,
            13.92387
          ],
          [
            74.737861,
            13.912251
          ],
          [
            74.732514,
            13.897974
          ],
          [
            74.727427,
            13.883966
          ],
          [
            74.721878,
            13.869685
          ],
          [
            74.721453,
            13.868308
          ],
          [
            74.712661,
            13.844873
          ],
          [
            74.707567,
            13.831394
          ],
          [
            74.703494,
            13.820556
          ],
          [
            74.69666,
            13.802383
          ],
          [
            74.70029,
            13.811215
          ],
          [
            74.603503,
            13.552509
          ],
          [
            74.602934,
            13.551199
          ],
          [
            74.592069,
            13.521952
          ],
          [
            74.574478,
            13.474528
          ],
          [
            74.560459,
            13.437743
          ],
          [
            74.555709,
            13.425203
          ],
          [
            74.536745,
            13.374892
          ],
          [
            74.523787,
            13.339408
          ],
          [
            74.517037,
            13.321387
          ],
          [
            74.500908,
            13.27813
          ],
          [
            74.498001,
            13.270845
          ],
          [
            74.483081,
            13.230434
          ],
          [
            74.469714,
            13.194601
          ],
          [
            74.471739,
            13.200455
          ],
          [
            74.457869,
            13.162949
          ],
          [
            74.45182,
            13.146911
          ],
          [
            74.437036,
            13.107766
          ],
          [
            74.427979,
            13.082945
          ],
          [
            74.422201,
            13.068275
          ],
          [
            74.392729,
            12.98932
          ],
          [
            74.389049,
            12.980115
          ],
          [
            74.386201,
            12.972236
          ],
          [
            74.364478,
            12.913845
          ],
          [
            74.358278,
            12.897596
          ],
          [
            74.338308,
            12.844113
          ],
          [
            74.346535,
            12.866211
          ],
          [
            74.321678,
            12.799929
          ],
          [
            74.322108,
            12.80039
          ],
          [
            74.283803,
            12.698492
          ],
          [
            74.304713,
            12.754311
          ],
          [
            74.291219,
            12.717844
          ],
          [
            74.276855,
            12.679812
          ],
          [
            74.249461,
            12.605916
          ],
          [
            74.246534,
            12.598705
          ],
          [
            74.236288,
            12.571563
          ],
          [
            74.243081,
            12.589605
          ],
          [
            74.199138,
            12.472367
          ],
          [
            74.196366,
            12.464738
          ],
          [
            74.18859,
            12.44315
          ],
          [
            74.197703,
            12.468106
          ],
          [
            74.155706,
            12.355725
          ],
          [
            74.160746,
            12.368923
          ],
          [
            74.12363,
            12.269918
          ],
          [
            74.131066,
            12.289618
          ]
        ]
      },
      "properties": {
        "mmsi": 419002002,
        "name": "INDUS GLORY",
        "ship_type": "Product Tanker",
        "closest_distance_km": 7.79,
        "passes_all_default_filters": true
      }
    },
    {
      "type": "Feature",
      "geometry": {
        "type": "LineString",
        "coordinates": [
          [
            72.153526,
            12.506561
          ],
          [
            72.203356,
            12.534666
          ],
          [
            72.265857,
            12.569766
          ],
          [
            72.275266,
            12.574937
          ],
          [
            72.271656,
            12.573003
          ],
          [
            72.291516,
            12.584306
          ],
          [
            72.366116,
            12.626311
          ],
          [
            72.42389,
            12.658538
          ],
          [
            72.438069,
            12.666438
          ],
          [
            72.537745,
            12.722605
          ],
          [
            72.583815,
            12.748205
          ],
          [
            72.586606,
            12.750142
          ],
          [
            72.651536,
            12.78637
          ],
          [
            72.702022,
            12.814776
          ],
          [
            72.778452,
            12.85783
          ],
          [
            72.777967,
            12.857517
          ],
          [
            72.813615,
            12.877482
          ],
          [
            72.851459,
            12.898682
          ],
          [
            72.882995,
            12.916294
          ],
          [
            72.951389,
            12.954944
          ],
          [
            73.019403,
            12.992953
          ],
          [
            73.023876,
            12.995459
          ],
          [
            73.112314,
            13.045352
          ],
          [
            73.136918,
            13.059088
          ],
          [
            73.197722,
            13.093426
          ],
          [
            73.228738,
            13.110797
          ],
          [
            73.271219,
            13.134533
          ],
          [
            73.327662,
            13.166276
          ],
          [
            73.347018,
            13.176943
          ],
          [
            73.382087,
            13.196701
          ],
          [
            73.474155,
            13.248648
          ],
          [
            73.511237,
            13.269163
          ],
          [
            73.538625,
            13.284422
          ],
          [
            73.564437,
            13.299263
          ],
          [
            73.614056,
            13.327013
          ],
          [
            73.674454,
            13.360821
          ],
          [
            73.697888,
            13.374035
          ],
          [
            73.768671,
            13.414074
          ],
          [
            73.792968,
            13.42775
          ],
          [
            73.841959,
            13.45494
          ],
          [
            73.8969,
            13.486107
          ],
          [
            73.948691,
            13.514943
          ],
          [
            73.986611,
            13.53617
          ],
          [
            74.035276,
            13.563664
          ],
          [
            74.076351,
            13.586723
          ],
          [
            74.114848,
            13.608436
          ],
          [
            74.15826,
            13.632494
          ],
          [
            74.204644,
            13.658934
          ],
          [
            74.250583,
            13.684607
          ],
          [
            74.297884,
            13.710969
          ],
          [
            74.341261,
            13.735583
          ],
          [
            74.387468,
            13.761492
          ],
          [
            74.429408,
            13.784959
          ],
          [
            74.478327,
            13.812388
          ],
          [
            74.521115,
            13.836583
          ],
          [
            74.564203,
            13.860801
          ],
          [
            74.609435,
            13.886024
          ],
          [
            74.654244,
            13.911569
          ],
          [
            74.696606,
            13.935067
          ],
          [
            74.746158,
            13.963055
          ],
          [
            74.783944,
            13.984135
          ],
          [
            74.831409,
            14.010812
          ],
          [
            74.870235,
            14.032798
          ],
          [
            74.918948,
            14.059845
          ],
          [
            74.966432,
            14.086856
          ],
          [
            75.001511,
            14.10649
          ],
          [
            75.048491,
            14.133001
          ],
          [
            75.097858,
            14.16044
          ],
          [
            75.130472,
            14.178834
          ],
          [
            75.193032,
            14.213818
          ],
          [
            75.227667,
            14.233399
          ],
          [
            75.274539,
            14.259545
          ],
          [
            75.310717,
            14.28
          ],
          [
            75.356027,
            14.305504
          ],
          [
            75.43037,
            14.34706
          ],
          [
            75.461665,
            14.364722
          ],
          [
            75.507543,
            14.390795
          ],
          [
            75.549094,
            14.413842
          ],
          [
            75.578041,
            14.430289
          ],
          [
            75.625461,
            14.456855
          ],
          [
            75.687033,
            14.491464
          ],
          [
            75.740965,
            14.521665
          ],
          [
            75.77493,
            14.540718
          ],
          [
            75.815609,
            14.563815
          ],
          [
            75.842601,
            14.578963
          ],
          [
            75.876453,
            14.597715
          ],
          [
            75.9467,
            14.637352
          ],
          [
            75.972241,
            14.651741
          ],
          [
            76.055279,
            14.698383
          ],
          [
            76.049621,
            14.695336
          ],
          [
            76.157914,
            14.75599
          ],
          [
            76.204537,
            14.782201
          ],
          [
            76.200593,
            14.780093
          ],
          [
            76.259126,
            14.812688
          ],
          [
            76.315253,
            14.844231
          ],
          [
            76.383161,
            14.882316
          ],
          [
            76.347308,
            14.862415
          ],
          [
            76.471778,
            14.932174
          ],
          [
            76.508761,
            14.953168
          ],
          [
            76.514481,
            14.955928
          ],
          [
            76.548267,
            14.975237
          ],
          [
            76.650849,
            15.032632
          ],
          [
            76.674223,
            15.045893
          ],
          [
            76.692502,
            15.056338
          ],
          [
            76.736509,
            15.080723
          ],
          [
            76.779904,
            15.105541
          ],
          [
            76.82039,
            15.127871
          ],
          [
            76.919534,
            15.183481
          ],
          [
            76.928714,
            15.189062
          ],
          [
            76.955967,
            15.204107
          ],
          [
            77.054523,
            15.259448
          ],
          [
            77.074293,
            15.270754
          ],
          [
            77.137236,
            15.305943
          ]
        ]
      },
      "properties": {
        "mmsi": 419002003,
        "name": "LACCADIVE MONARCH",
        "ship_type": "Cargo",
        "closest_distance_km": 4.37,
        "passes_all_default_filters": false
      }
    },
    {
      "type": "Feature",
      "geometry": {
        "type": "LineString",
        "coordinates": [
          [
            76.779196,
            11.455501
          ],
          [
            76.706747,
            11.539605
          ],
          [
            76.678156,
            11.572741
          ],
          [
            76.609709,
            11.652033
          ],
          [
            76.581548,
            11.684454
          ],
          [
            76.586914,
            11.678068
          ],
          [
            76.557504,
            11.712395
          ],
          [
            76.467445,
            11.81693
          ],
          [
            76.455855,
            11.830521
          ],
          [
            76.435307,
            11.854081
          ],
          [
            76.374076,
            11.925215
          ],
          [
            76.355111,
            11.947394
          ],
          [
            76.290912,
            12.021652
          ],
          [
            76.252804,
            12.0659
          ],
          [
            76.213461,
            12.111433
          ],
          [
            76.14583,
            12.18972
          ],
          [
            76.119633,
            12.220328
          ],
          [
            76.083314,
            12.262573
          ],
          [
            76.051582,
            12.299007
          ],
          [
            76.027123,
            12.327719
          ],
          [
            75.990696,
            12.369699
          ],
          [
            75.932037,
            12.437568
          ],
          [
            75.892214,
            12.483702
          ],
          [
            75.85103,
            12.531679
          ],
          [
            75.796625,
            12.594718
          ],
          [
            75.792068,
            12.599683
          ],
          [
            75.747182,
            12.652225
          ],
          [
            75.699486,
            12.707319
          ],
          [
            75.638093,
            12.778571
          ],
          [
            75.626832,
            12.791858
          ],
          [
            75.595723,
            12.827649
          ],
          [
            75.539033,
            12.893362
          ],
          [
            75.485045,
            12.956001
          ],
          [
            75.450921,
            12.9957
          ],
          [
            75.427361,
            13.023235
          ],
          [
            75.387194,
            13.069558
          ],
          [
            75.32066,
            13.146911
          ],
          [
            75.289046,
            13.183206
          ],
          [
            75.250471,
            13.227671
          ],
          [
            75.226778,
            13.255414
          ],
          [
            75.166866,
            13.324732
          ],
          [
            75.142668,
            13.3528
          ],
          [
            75.093097,
            13.410475
          ],
          [
            75.062551,
            13.445675
          ],
          [
            75.008038,
            13.508961
          ],
          [
            74.980168,
            13.541339
          ],
          [
            74.9367,
            13.591624
          ],
          [
            74.900875,
            13.633102
          ],
          [
            74.854329,
            13.68732
          ],
          [
            74.819173,
            13.727783
          ],
          [
            74.778273,
            13.775145
          ],
          [
            74.734971,
            13.82538
          ],
          [
            74.696501,
            13.870158
          ],
          [
            74.656098,
            13.917131
          ],
          [
            74.617831,
            13.961726
          ],
          [
            74.576903,
            14.008836
          ],
          [
            74.538023,
            14.054318
          ],
          [
            74.497922,
            14.100601
          ],
          [
            74.458128,
            14.146235
          ],
          [
            74.419049,
            14.192096
          ],
          [
            74.37586,
            14.241971
          ],
          [
            74.335494,
            14.288733
          ],
          [
            74.298075,
            14.332049
          ],
          [
            74.260196,
            14.375875
          ],
          [
            74.218424,
            14.424377
          ],
          [
            74.1727,
            14.477584
          ],
          [
            74.133355,
            14.52316
          ],
          [
            74.105278,
            14.555635
          ],
          [
            74.053612,
            14.615523
          ],
          [
            74.013227,
            14.662549
          ],
          [
            73.973229,
            14.708983
          ],
          [
            73.937606,
            14.750221
          ],
          [
            73.889473,
            14.805803
          ],
          [
            73.871366,
            14.826793
          ],
          [
            73.82611,
            14.879203
          ],
          [
            73.785266,
            14.926508
          ],
          [
            73.728767,
            14.992237
          ],
          [
            73.687343,
            15.040314
          ],
          [
            73.66122,
            15.070709
          ],
          [
            73.604919,
            15.135952
          ],
          [
            73.57389,
            15.17172
          ],
          [
            73.554262,
            15.194202
          ],
          [
            73.483035,
            15.277178
          ],
          [
            73.45987,
            15.303751
          ],
          [
            73.423146,
            15.346563
          ],
          [
            73.396602,
            15.3772
          ],
          [
            73.344989,
            15.437174
          ],
          [
            73.285532,
            15.505986
          ],
          [
            73.281944,
            15.510259
          ],
          [
            73.208652,
            15.595514
          ],
          [
            73.15984,
            15.651827
          ],
          [
            73.161769,
            15.649776
          ],
          [
            73.089176,
            15.733785
          ],
          [
            73.034208,
            15.797381
          ],
          [
            73.002872,
            15.83405
          ],
          [
            72.960079,
            15.883642
          ],
          [
            72.939505,
            15.907337
          ],
          [
            72.910593,
            15.940631
          ],
          [
            72.88127,
            15.975004
          ],
          [
            72.840786,
            16.021428
          ],
          [
            72.756697,
            16.119228
          ],
          [
            72.716612,
            16.165677
          ],
          [
            72.714044,
            16.16865
          ],
          [
            72.671577,
            16.21797
          ],
          [
            72.600333,
            16.30052
          ],
          [
            72.587159,
            16.315872
          ],
          [
            72.563719,
            16.34288
          ],
          [
            72.481293,
            16.438563
          ],
          [
            72.478651,
            16.44174
          ],
          [
            72.393228,
            16.540825
          ],
          [
            72.339175,
            16.603223
          ],
          [
            72.353472,
            16.586991
          ],
          [
            72.273185,
            16.679802
          ]
        ]
      },
      "properties": {
        "mmsi": 419002004,
        "name": "MALABAR NAVIGATOR",
        "ship_type": "Cargo",
        "closest_distance_km": 6.81,
        "passes_all_default_filters": false
      }
    },
    {
      "type": "Feature",
      "geometry": {
        "type": "LineString",
        "coordinates": [
          [
            73.850838,
            13.999717
          ],
          [
            73.824679,
            14.003986
          ],
          [
            73.801121,
            14.008095
          ],
          [
            73.896203,
            13.99199
          ],
          [
            73.890858,
            13.992929
          ],
          [
            73.905729,
            13.990126
          ],
          [
            73.972899,
            13.978679
          ],
          [
            73.871844,
            13.995949
          ],
          [
            73.897951,
            13.991698
          ],
          [
            73.932351,
            13.985492
          ],
          [
            73.945431,
            13.983461
          ],
          [
            73.977228,
            13.977899
          ],
          [
            74.064684,
            13.962876
          ],
          [
            74.029271,
            13.969119
          ],
          [
            74.092684,
            13.958049
          ],
          [
            74.115348,
            13.954248
          ],
          [
            74.089683,
            13.958535
          ],
          [
            74.092509,
            13.957986
          ],
          [
            74.143706,
            13.949248
          ],
          [
            74.125007,
            13.952494
          ],
          [
            74.137875,
            13.950262
          ],
          [
            74.207821,
            13.938408
          ],
          [
            74.144341,
            13.949301
          ],
          [
            74.205955,
            13.938804
          ],
          [
            74.240202,
            13.932669
          ],
          [
            74.249234,
            13.931395
          ],
          [
            74.233201,
            13.934126
          ],
          [
            74.304312,
            13.921885
          ],
          [
            74.310625,
            13.920871
          ],
          [
            74.291263,
            13.924157
          ],
          [
            74.350086,
            13.9141
          ],
          [
            74.351175,
            13.913603
          ],
          [
            74.382925,
            13.908534
          ],
          [
            74.343401,
            13.91514
          ],
          [
            74.374679,
            13.909641
          ],
          [
            74.390716,
            13.907158
          ],
          [
            74.441738,
            13.898245
          ],
          [
            74.427704,
            13.900828
          ],
          [
            74.434738,
            13.89947
          ],
          [
            74.455054,
            13.896015
          ],
          [
            74.480904,
            13.891391
          ],
          [
            74.49462,
            13.889205
          ],
          [
            74.538596,
            13.881707
          ],
          [
            74.537366,
            13.88185
          ],
          [
            74.612802,
            13.868769
          ],
          [
            74.624812,
            13.86705
          ],
          [
            74.621134,
            13.867647
          ],
          [
            74.643092,
            13.863696
          ],
          [
            74.65498,
            13.861847
          ],
          [
            74.669316,
            13.859312
          ],
          [
            74.690577,
            13.855687
          ],
          [
            74.698237,
            13.854305
          ],
          [
            74.707501,
            13.852852
          ],
          [
            74.720032,
            13.850563
          ],
          [
            74.735086,
            13.847992
          ],
          [
            74.7483,
            13.845777
          ],
          [
            74.759879,
            13.843705
          ],
          [
            74.772219,
            13.841592
          ],
          [
            74.784191,
            13.839692
          ],
          [
            74.795048,
            13.837801
          ],
          [
            74.814455,
            13.834284
          ],
          [
            74.825466,
            13.832571
          ],
          [
            74.833589,
            13.830881
          ],
          [
            74.855558,
            13.827439
          ],
          [
            74.869962,
            13.824888
          ],
          [
            74.873926,
            13.823961
          ],
          [
            74.877171,
            13.82366
          ],
          [
            74.900776,
            13.819495
          ],
          [
            74.913206,
            13.817411
          ],
          [
            74.973097,
            13.807336
          ],
          [
            74.997192,
            13.803117
          ],
          [
            74.9969,
            13.803236
          ],
          [
            75.027805,
            13.797798
          ],
          [
            75.063077,
            13.791807
          ],
          [
            75.049119,
            13.794262
          ],
          [
            75.100098,
            13.785131
          ],
          [
            75.07974,
            13.788681
          ],
          [
            75.125542,
            13.780939
          ],
          [
            75.152998,
            13.776382
          ],
          [
            75.155692,
            13.775793
          ],
          [
            75.152878,
            13.776295
          ],
          [
            75.16062,
            13.775106
          ],
          [
            75.209077,
            13.766736
          ],
          [
            75.238994,
            13.761556
          ],
          [
            75.198971,
            13.768202
          ],
          [
            75.254941,
            13.758852
          ],
          [
            75.259738,
            13.758006
          ],
          [
            75.293099,
            13.752175
          ],
          [
            75.298503,
            13.751435
          ],
          [
            75.299589,
            13.750913
          ],
          [
            75.328236,
            13.746173
          ],
          [
            75.359954,
            13.740699
          ],
          [
            75.388815,
            13.735985
          ],
          [
            75.349614,
            13.742485
          ],
          [
            75.383543,
            13.736683
          ],
          [
            75.392938,
            13.734925
          ],
          [
            75.422942,
            13.729983
          ],
          [
            75.489471,
            13.718394
          ],
          [
            75.476871,
            13.720646
          ],
          [
            75.48519,
            13.719282
          ],
          [
            75.48111,
            13.719816
          ],
          [
            75.519625,
            13.713536
          ],
          [
            75.518863,
            13.713319
          ],
          [
            75.598319,
            13.699929
          ],
          [
            75.574157,
            13.704148
          ],
          [
            75.634126,
            13.693836
          ],
          [
            75.586534,
            13.701856
          ],
          [
            75.580761,
            13.702873
          ],
          [
            75.63768,
            13.693208
          ],
          [
            75.71952,
            13.679125
          ],
          [
            75.735984,
            13.676232
          ],
          [
            75.665524,
            13.688534
          ],
          [
            75.662042,
            13.688942
          ]
        ]
      },
      "properties": {
        "mmsi": 419002005,
        "name": "BLUE FIN 3",
        "ship_type": "Fishing",
        "closest_distance_km": 12.65,
        "passes_all_default_filters": false
      }
    },
    {
      "type": "Feature",
      "geometry": {
        "type": "LineString",
        "coordinates": [
          [
            75.098064,
            17.585718
          ],
          [
            75.096992,
            17.579328
          ],
          [
            75.086114,
            17.519244
          ],
          [
            75.065911,
            17.407765
          ],
          [
            75.057371,
            17.36019
          ],
          [
            75.050655,
            17.324452
          ],
          [
            75.045215,
            17.293473
          ],
          [
            75.036814,
            17.246935
          ],
          [
            75.018941,
            17.150065
          ],
          [
            75.001986,
            17.054963
          ],
          [
            74.996264,
            17.023373
          ],
          [
            74.980337,
            16.935541
          ],
          [
            74.96892,
            16.873879
          ],
          [
            74.958459,
            16.814068
          ],
          [
            74.935528,
            16.688949
          ],
          [
            74.924603,
            16.628723
          ],
          [
            74.924173,
            16.625426
          ],
          [
            74.911177,
            16.555
          ],
          [
            74.890422,
            16.439437
          ],
          [
            74.883711,
            16.403483
          ],
          [
            74.878084,
            16.37205
          ],
          [
            74.863929,
            16.293465
          ],
          [
            74.850535,
            16.220518
          ],
          [
            74.831985,
            16.118076
          ],
          [
            74.830597,
            16.110171
          ],
          [
            74.807908,
            15.985092
          ],
          [
            74.798226,
            15.930708
          ],
          [
            74.785373,
            15.859729
          ],
          [
            74.774959,
            15.802305
          ],
          [
            74.76983,
            15.775096
          ],
          [
            74.750013,
            15.665602
          ],
          [
            74.739989,
            15.609818
          ],
          [
            74.725724,
            15.530226
          ],
          [
            74.718902,
            15.493128
          ],
          [
            74.705865,
            15.421117
          ],
          [
            74.693158,
            15.35253
          ],
          [
            74.680214,
            15.28104
          ],
          [
            74.671565,
            15.232041
          ],
          [
            74.660971,
            15.172903
          ],
          [
            74.648202,
            15.104105
          ],
          [
            74.636924,
            15.040832
          ],
          [
            74.624415,
            14.971882
          ],
          [
            74.610151,
            14.892635
          ],
          [
            74.600408,
            14.838781
          ],
          [
            74.584423,
            14.750628
          ],
          [
            74.57373,
            14.691599
          ],
          [
            74.564376,
            14.64029
          ],
          [
            74.548137,
            14.552249
          ],
          [
            74.540286,
            14.506873
          ],
          [
            74.526778,
            14.432542
          ],
          [
            74.515386,
            14.371323
          ],
          [
            74.50179,
            14.2956
          ],
          [
            74.490434,
            14.232339
          ],
          [
            74.479366,
            14.171381
          ],
          [
            74.466845,
            14.102104
          ],
          [
            74.455057,
            14.038722
          ],
          [
            74.443035,
            13.972137
          ],
          [
            74.431263,
            13.906949
          ],
          [
            74.419799,
            13.842371
          ],
          [
            74.407553,
            13.776871
          ],
          [
            74.395135,
            13.708235
          ],
          [
            74.3845,
            13.648645
          ],
          [
            74.371862,
            13.578496
          ],
          [
            74.360646,
            13.515832
          ],
          [
            74.34861,
            13.451162
          ],
          [
            74.337663,
            13.389412
          ],
          [
            74.323742,
            13.313147
          ],
          [
            74.312504,
            13.250941
          ],
          [
            74.302007,
            13.192705
          ],
          [
            74.286313,
            13.106731
          ],
          [
            74.275353,
            13.046
          ],
          [
            74.267637,
            13.003746
          ],
          [
            74.252215,
            12.918892
          ],
          [
            74.240633,
            12.855243
          ],
          [
            74.228343,
            12.786752
          ],
          [
            74.214496,
            12.710495
          ],
          [
            74.20558,
            12.661254
          ],
          [
            74.190393,
            12.577879
          ],
          [
            74.178337,
            12.510968
          ],
          [
            74.174006,
            12.488044
          ],
          [
            74.152152,
            12.367692
          ],
          [
            74.140842,
            12.30418
          ],
          [
            74.13089,
            12.248307
          ],
          [
            74.12036,
            12.19004
          ],
          [
            74.111653,
            12.142369
          ],
          [
            74.099797,
            12.077424
          ],
          [
            74.085638,
            11.999984
          ],
          [
            74.078785,
            11.961729
          ],
          [
            74.058976,
            11.853468
          ],
          [
            74.057626,
            11.844573
          ],
          [
            74.038086,
            11.736526
          ],
          [
            74.030586,
            11.696279
          ],
          [
            74.007653,
            11.570262
          ],
          [
            73.997933,
            11.515068
          ],
          [
            73.984413,
            11.441548
          ],
          [
            73.986123,
            11.450125
          ],
          [
            73.963708,
            11.326147
          ],
          [
            73.957017,
            11.290456
          ],
          [
            73.936629,
            11.177264
          ],
          [
            73.935681,
            11.171836
          ],
          [
            73.923271,
            11.103409
          ],
          [
            73.911206,
            11.037893
          ],
          [
            73.892481,
            10.934203
          ],
          [
            73.89331,
            10.937788
          ],
          [
            73.863209,
            10.772578
          ],
          [
            73.860427,
            10.756231
          ],
          [
            73.844361,
            10.66889
          ],
          [
            73.838212,
            10.634583
          ],
          [
            73.818696,
            10.525991
          ],
          [
            73.817395,
            10.519004
          ],
          [
            73.790856,
            10.372165
          ],
          [
            73.787255,
            10.353723
          ],
          [
            73.784447,
            10.336935
          ]
        ]
      },
      "properties": {
        "mmsi": 419002006,
        "name": "ORIENT RUNNER",
        "ship_type": "Cargo",
        "closest_distance_km": 25.75,
        "passes_all_default_filters": false
      }
    },
    {
      "type": "Feature",
      "geometry": {
        "type": "LineString",
        "coordinates": [
          [
            73.933104,
            12.625882
          ],
          [
            73.993848,
            12.728342
          ],
          [
            73.97856,
            12.703152
          ],
          [
            73.981948,
            12.70855
          ],
          [
            74.014971,
            12.764407
          ],
          [
            73.99781,
            12.73474
          ],
          [
            74.012015,
            12.758675
          ],
          [
            74.056785,
            12.834431
          ],
          [
            74.087578,
            12.886622
          ],
          [
            74.06663,
            12.851122
          ],
          [
            74.105494,
            12.916576
          ],
          [
            74.111439,
            12.926213
          ],
          [
            74.126898,
            12.952603
          ],
          [
            74.146094,
            12.985016
          ],
          [
            74.167788,
            13.021668
          ],
          [
            74.143828,
            12.981362
          ],
          [
            74.198495,
            13.073404
          ],
          [
            74.177957,
            13.038679
          ],
          [
            74.199621,
            13.074974
          ],
          [
            74.200255,
            13.07642
          ],
          [
            74.251566,
            13.163158
          ],
          [
            74.240531,
            13.143938
          ],
          [
            74.262173,
            13.181044
          ],
          [
            74.29805,
            13.240984
          ],
          [
            74.285075,
            13.219447
          ],
          [
            74.292384,
            13.231351
          ],
          [
            74.338731,
            13.309781
          ],
          [
            74.329437,
            13.294021
          ],
          [
            74.348106,
            13.325819
          ],
          [
            74.359838,
            13.345044
          ],
          [
            74.382867,
            13.384581
          ],
          [
            74.379518,
            13.378285
          ],
          [
            74.390575,
            13.397169
          ],
          [
            74.427676,
            13.459428
          ],
          [
            74.422258,
            13.450416
          ],
          [
            74.448578,
            13.494708
          ],
          [
            74.446522,
            13.491092
          ],
          [
            74.464615,
            13.521633
          ],
          [
            74.48083,
            13.549055
          ],
          [
            74.499452,
            13.580668
          ],
          [
            74.521446,
            13.617621
          ],
          [
            74.523299,
            13.620483
          ],
          [
            74.549649,
            13.665419
          ],
          [
            74.561447,
            13.684865
          ],
          [
            74.663101,
            13.856375
          ],
          [
            74.663114,
            13.856408
          ],
          [
            74.681239,
            13.88713
          ],
          [
            74.676287,
            13.878354
          ],
          [
            74.685376,
            13.894049
          ],
          [
            74.697111,
            13.913249
          ],
          [
            74.700938,
            13.920299
          ],
          [
            74.704914,
            13.926254
          ],
          [
            74.711608,
            13.937687
          ],
          [
            74.720636,
            13.952965
          ],
          [
            74.725581,
            13.961353
          ],
          [
            74.731144,
            13.971352
          ],
          [
            74.737405,
            13.981679
          ],
          [
            74.743406,
            13.99181
          ],
          [
            74.750124,
            14.003252
          ],
          [
            74.756581,
            14.013762
          ],
          [
            74.760185,
            14.019579
          ],
          [
            74.769244,
            14.035345
          ],
          [
            74.771558,
            14.038955
          ],
          [
            74.77947,
            14.052512
          ],
          [
            74.783895,
            14.059756
          ],
          [
            74.792174,
            14.073673
          ],
          [
            74.794207,
            14.077347
          ],
          [
            74.804049,
            14.093765
          ],
          [
            74.805684,
            14.096416
          ],
          [
            74.9262,
            14.299854
          ],
          [
            74.930039,
            14.306061
          ],
          [
            74.946024,
            14.332875
          ],
          [
            74.95831,
            14.353987
          ],
          [
            74.968646,
            14.370939
          ],
          [
            74.989949,
            14.407165
          ],
          [
            74.99702,
            14.419229
          ],
          [
            75.018794,
            14.455863
          ],
          [
            75.025377,
            14.466603
          ],
          [
            75.056942,
            14.519883
          ],
          [
            75.070671,
            14.543047
          ],
          [
            75.085688,
            14.568673
          ],
          [
            75.091657,
            14.578349
          ],
          [
            75.090805,
            14.576706
          ],
          [
            75.109513,
            14.608294
          ],
          [
            75.13051,
            14.643768
          ],
          [
            75.142889,
            14.664938
          ],
          [
            75.162903,
            14.698572
          ],
          [
            75.176672,
            14.721586
          ],
          [
            75.17911,
            14.725675
          ],
          [
            75.185859,
            14.737056
          ],
          [
            75.223452,
            14.799983
          ],
          [
            75.223616,
            14.800715
          ],
          [
            75.257926,
            14.858621
          ],
          [
            75.266361,
            14.872464
          ],
          [
            75.267937,
            14.875778
          ],
          [
            75.293638,
            14.91891
          ],
          [
            75.301886,
            14.932139
          ],
          [
            75.317506,
            14.958757
          ],
          [
            75.346909,
            15.008815
          ],
          [
            75.322572,
            14.967496
          ],
          [
            75.354341,
            15.021103
          ],
          [
            75.35747,
            15.026359
          ],
          [
            75.377485,
            15.060293
          ],
          [
            75.367871,
            15.043491
          ],
          [
            75.381664,
            15.067494
          ],
          [
            75.407443,
            15.110694
          ],
          [
            75.432199,
            15.152262
          ],
          [
            75.460051,
            15.199224
          ],
          [
            75.482019,
            15.235789
          ],
          [
            75.485016,
            15.241526
          ],
          [
            75.522434,
            15.304397
          ],
          [
            75.479079,
            15.23094
          ],
          [
            75.497411,
            15.26229
          ]
        ]
      },
      "properties": {
        "mmsi": 419002007,
        "name": "PETRO CHEVRON",
        "ship_type": "Oil Tanker",
        "closest_distance_km": 4.53,
        "passes_all_default_filters": true
      }
    },
    {
      "type": "Feature",
      "geometry": {
        "type": "LineString",
        "coordinates": [
          [
            78.732446,
            14.859991
          ],
          [
            78.65484,
            14.846545
          ],
          [
            78.549808,
            14.828758
          ],
          [
            78.524976,
            14.824549
          ],
          [
            78.364976,
            14.79712
          ],
          [
            78.321147,
            14.78943
          ],
          [
            78.315831,
            14.78852
          ],
          [
            78.208146,
            14.770085
          ],
          [
            78.103857,
            14.752287
          ],
          [
            78.085709,
            14.74914
          ],
          [
            77.98785,
            14.732116
          ],
          [
            77.857223,
            14.709793
          ],
          [
            77.848564,
            14.708373
          ],
          [
            77.713724,
            14.685208
          ],
          [
            77.693907,
            14.681901
          ],
          [
            77.657502,
            14.675611
          ],
          [
            77.495408,
            14.647712
          ],
          [
            77.413781,
            14.633758
          ],
          [
            77.34946,
            14.622841
          ],
          [
            77.311002,
            14.616135
          ],
          [
            77.228923,
            14.602206
          ],
          [
            77.125951,
            14.5842
          ],
          [
            77.07113,
            14.574909
          ],
          [
            76.987587,
            14.560637
          ],
          [
            76.962769,
            14.55646
          ],
          [
            76.837451,
            14.535004
          ],
          [
            76.783489,
            14.52582
          ],
          [
            76.736239,
            14.517539
          ],
          [
            76.618099,
            14.497403
          ],
          [
            76.558521,
            14.487271
          ],
          [
            76.48857,
            14.475199
          ],
          [
            76.455895,
            14.469592
          ],
          [
            76.369755,
            14.454732
          ],
          [
            76.289272,
            14.440957
          ],
          [
            76.183133,
            14.422576
          ],
          [
            76.106025,
            14.409402
          ],
          [
            76.057766,
            14.401084
          ],
          [
            75.971931,
            14.386326
          ],
          [
            75.930063,
            14.379361
          ],
          [
            75.854381,
            14.366365
          ],
          [
            75.78029,
            14.353742
          ],
          [
            75.700674,
            14.339797
          ],
          [
            75.624596,
            14.326954
          ],
          [
            75.538644,
            14.312164
          ],
          [
            75.462726,
            14.299066
          ],
          [
            75.402059,
            14.288523
          ],
          [
            75.312001,
            14.273422
          ],
          [
            75.253915,
            14.26324
          ],
          [
            75.175696,
            14.249934
          ],
          [
            75.095456,
            14.236168
          ],
          [
            75.0157,
            14.222444
          ],
          [
            74.947655,
            14.210639
          ],
          [
            74.878186,
            14.198751
          ],
          [
            74.801466,
            14.185666
          ],
          [
            74.727984,
            14.172903
          ],
          [
            74.653983,
            14.160371
          ],
          [
            74.579409,
            14.14758
          ],
          [
            74.50472,
            14.134625
          ],
          [
            74.433724,
            14.122661
          ],
          [
            74.354969,
            14.108967
          ],
          [
            74.287074,
            14.097343
          ],
          [
            74.214735,
            14.084984
          ],
          [
            74.133809,
            14.071013
          ],
          [
            74.059352,
            14.05816
          ],
          [
            73.996671,
            14.047484
          ],
          [
            73.92666,
            14.035652
          ],
          [
            73.829052,
            14.018846
          ],
          [
            73.779785,
            14.010338
          ],
          [
            73.706166,
            13.997671
          ],
          [
            73.632173,
            13.985171
          ],
          [
            73.559183,
            13.97278
          ],
          [
            73.471426,
            13.957297
          ],
          [
            73.401194,
            13.945537
          ],
          [
            73.339984,
            13.934909
          ],
          [
            73.234551,
            13.916733
          ],
          [
            73.165117,
            13.905004
          ],
          [
            73.079906,
            13.890293
          ],
          [
            73.041563,
            13.883595
          ],
          [
            72.950428,
            13.868156
          ],
          [
            72.871055,
            13.854645
          ],
          [
            72.820322,
            13.84582
          ],
          [
            72.718609,
            13.828314
          ],
          [
            72.634479,
            13.814116
          ],
          [
            72.613351,
            13.810303
          ],
          [
            72.51124,
            13.792951
          ],
          [
            72.407545,
            13.774833
          ],
          [
            72.36032,
            13.766838
          ],
          [
            72.271131,
            13.751768
          ],
          [
            72.256868,
            13.749001
          ],
          [
            72.182564,
            13.736216
          ],
          [
            72.069647,
            13.717093
          ],
          [
            72.003733,
            13.705844
          ],
          [
            71.919184,
            13.691293
          ],
          [
            71.866478,
            13.682215
          ],
          [
            71.745326,
            13.66143
          ],
          [
            71.688006,
            13.651696
          ],
          [
            71.671391,
            13.648788
          ],
          [
            71.517464,
            13.622171
          ],
          [
            71.486777,
            13.617029
          ],
          [
            71.426812,
            13.606849
          ],
          [
            71.374611,
            13.597884
          ],
          [
            71.296642,
            13.584619
          ],
          [
            71.151474,
            13.559649
          ],
          [
            71.155019,
            13.560274
          ],
          [
            70.989812,
            13.531947
          ],
          [
            70.924876,
            13.520605
          ],
          [
            70.862291,
            13.50999
          ],
          [
            70.8213,
            13.502843
          ],
          [
            70.732814,
            13.487684
          ],
          [
            70.721253,
            13.485751
          ],
          [
            70.631032,
            13.470295
          ],
          [
            70.469774,
            13.442498
          ],
          [
            70.463245,
            13.441308
          ]
        ]
      },
      "properties": {
        "mmsi": 419002008,
        "name": "ISLAND QUEEN",
        "ship_type": "Passenger",
        "closest_distance_km": 21.16,
        "passes_all_default_filters": false
      }
    }
  ]
}