{
  "type": "FeatureCollection",
  "features": [
    {
      "type": "Feature",
      "geometry": {
        "type": "LineString",
        "coordinates": [
          [
            72.5882,
            8.934873
          ],
          [
            72.633237,
            8.882118
          ],
          [
            72.581719,
            8.942628
          ],
          [
            72.664001,
            8.845468
          ],
          [
            72.671133,
            8.8371
          ],
          [
            72.635067,
            8.879707
          ],
          [
            72.621361,
            8.895923
          ],
          [
            72.637998,
            8.876085
          ],
          [
            72.625707,
            8.890581
          ],
          [
            72.699739,
            8.803527
          ],
          [
            72.653674,
            8.857894
          ],
          [
            72.649636,
            8.862532
          ],
          [
            72.668333,
            8.840677
          ],
          [
            72.693661,
            8.81039
          ],
          [
            72.72514,
            8.773034
          ],
          [
            72.732014,
            8.764927
          ],
          [
            72.713068,
            8.787468
          ],
          [
            72.748004,
            8.746405
          ],
          [
            72.72779,
            8.770073
          ],
          [
            72.730812,
            8.76642
          ],
          [
            72.723627,
            8.775187
          ],
          [
            72.749359,
            8.744958
          ],
          [
            72.78213,
            8.705683
          ],
          [
            72.787434,
            8.699782
          ],
          [
            72.762949,
            8.728627
          ],
          [
            72.795186,
            8.690672
          ],
          [
            72.808974,
            8.674157
          ],
          [
            72.816389,
            8.665687
          ],
          [
            72.817406,
            8.664387
          ],
          [
            72.819606,
            8.661285
          ],
          [
            72.844325,
            8.632636
          ],
          [
            72.838431,
            8.639183
          ],
          [
            72.823784,
            8.65696
          ],
          [
            72.837091,
            8.640906
          ],
          [
            72.851438,
            8.623945
          ],
          [
            72.860747,
            8.612851
          ],
          [
            72.87478,
            8.596811
          ],
          [
            72.887846,
            8.580857
          ],
          [
            72.876137,
            8.5949
          ],
          [
            72.891846,
            8.57616
          ],
          [
            72.896679,
            8.570715
          ],
          [
            72.910126,
            8.554392
          ],
          [
            72.929545,
            8.532073
          ],
          [
            72.918893,
            8.544027
          ],
          [
            72.958505,
            8.497477
          ],
          [
            72.971234,
            8.4824
          ],
          [
            72.971424,
            8.482064
          ],
          [
            72.980024,
            8.472142
          ],
          [
            72.986474,
            8.46434
          ],
          [
            72.987639,
            8.462851
          ],
          [
            72.990345,
            8.459892
          ],
          [
            72.999791,
            8.448415
          ],
          [
            73.005845,
            8.441449
          ],
          [
            73.011177,
            8.43513
          ],
          [
            73.015647,
            8.430288
          ],
          [
            73.020248,
            8.424492
          ],
          [
            73.02452,
            8.419527
          ],
          [
            73.029435,
            8.413782
          ],
          [
            73.034902,
            8.406883
          ],
          [
            73.038579,
            8.402805
          ],
          [
            73.045466,
            8.39501
          ],
          [
            73.045331,
            8.394756
          ],
          [
            73.056901,
            8.380949
          ],
          [
            73.057698,
            8.380118
          ],
          [
            73.059964,
            8.377718
          ],
          [
            73.07318,
            8.361763
          ],
          [
            73.081228,
            8.3528
          ],
          [
            73.085277,
            8.34764
          ],
          [
            73.082353,
            8.350952
          ],
          [
            73.113534,
            8.31444
          ],
          [
            73.124853,
            8.300973
          ],
          [
            73.136085,
            8.288023
          ],
          [
            73.146626,
            8.275071
          ],
          [
            73.147312,
            8.274561
          ],
          [
            73.161494,
            8.257464
          ],
          [
            73.170734,
            8.246821
          ],
          [
            73.164294,
            8.254251
          ],
          [
            73.172504,
            8.244682
          ],
          [
            73.181401,
            8.234077
          ],
          [
            73.188835,
            8.225353
          ],
          [
            73.202673,
            8.208947
          ],
          [
            73.23106,
            8.175335
          ],
          [
            73.209988,
            8.200297
          ],
          [
            73.219839,
            8.188659
          ],
          [
            73.216856,
            8.192358
          ],
          [
            73.266804,
            8.132799
          ],
          [
            73.23991,
            8.165245
          ],
          [
            73.277643,
            8.12008
          ],
          [
            73.28364,
            8.11334
          ],
          [
            73.299706,
            8.094046
          ],
          [
            73.298947,
            8.095111
          ],
          [
            73.31371,
            8.077336
          ],
          [
            73.273524,
            8.125076
          ],
          [
            73.310261,
            8.081688
          ],
          [
            73.319917,
            8.070229
          ],
          [
            73.344666,
            8.041022
          ],
          [
            73.321627,
            8.067984
          ],
          [
            73.352253,
            8.032051
          ],
          [
            73.358286,
            8.024965
          ],
          [
            73.315454,
            8.075615
          ],
          [
            73.38595,
            7.992458
          ],
          [
            73.370449,
            8.010286
          ],
          [
            73.357971,
            8.02565
          ],
          [
            73.407055,
            7.96736
          ],
          [
            73.367898,
            8.013592
          ],
          [
            73.42537,
            7.94571
          ],
          [
            73.374548,
            8.006103
          ],
          [
            73.449448,
            7.917536
          ],
          [
            73.377404,
            8.002397
          ],
          [
            73.462208,
            7.902443
          ],
          [
            73.459932,
            7.904883
          ],
          [
            73.405411,
            7.969598
          ],
          [
            73.422552,
            7.949129
          ]
        ]
      },
      "properties": {
        "mmsi": 419002001,
        "name": "SEA CHAMPION",
        "ship_type": "Oil Tanker",
        "closest_distance_km": 2.85,
        "passes_all_default_filters": true
      }
    },
    {
      "type": "Feature",
      "geometry": {
        "type": "LineString",
        "coordinates": [
          [
            73.666504,
            9.99634
          ],
          [
            73.642588,
            9.930822
          ],
          [
            73.671339,
            10.009527
          ],
          [
            73.650346,
            9.951334
          ],
          [
            73.634383,
            9.908997
          ],
          [
            73.643004,
            9.93126
          ],
          [
            73.601226,
            9.817969
          ],
          [
            73.610282,
            9.842541
          ],
          [
            73.590313,
            9.788188
          ],
          [
            73.568896,
            9.730588
          ],
          [
            73.585222,
            9.774222
          ],
          [
            73.566814,
            9.724502
          ],
          [
            73.530327,
            9.625115
          ],
          [
            73.52912,
            9.621476
          ],
          [
            73.517888,
            9.590994
          ],
          [
            73.510779,
            9.571926
          ],
          [
            73.50093,
            9.544746
          ],
          [
            73.506289,
            9.55963
          ],
          [
            73.483535,
            9.497398
          ],
          [
            73.4691,
            9.457894
          ],
          [
            73.459297,
            9.431609
          ],
          [
            73.449032,
            9.403187
          ],
          [
            73.429271,
            9.349321
          ],
          [
            73.43208,
            9.356744
          ],
          [
            73.424212,
            9.336089
          ],
          [
            73.398476,
            9.26568
          ],
          [
            73.395029,
            9.256805
          ],
          [
            73.382806,
            9.223278
          ],
          [
            73.378928,
            9.212604
          ],
          [
            73.367248,
            9.180029
          ],
          [
            73.358762,
            9.157301
          ],
          [
            73.334985,
            9.092753
          ],
          [
            73.32202,
            9.056783
          ],
          [
            73.319615,
            9.050646
          ],
          [
            73.319068,
            9.048767
          ],
          [
            73.306033,
            9.013506
          ],
          [
            73.288185,
            8.965146
          ],
          [
            73.283803,
            8.953252
          ],
          [
            73.26285,
            8.895781
          ],
          [
            73.259702,
            8.887324
          ],
          [
            73.241785,
            8.838698
          ],
          [
            73.231267,
            8.80986
          ],
          [
            73.219141,
            8.776613
          ],
          [
            73.214928,
            8.765379
          ],
          [
            73.128061,
            8.529039
          ],
          [
            73.122416,
            8.513442
          ],
          [
            73.120333,
            8.507551
          ],
          [
            73.112956,
            8.487561
          ],
          [
            73.111276,
            8.482664
          ],
          [
            73.104278,
            8.463998
          ],
          [
            73.100572,
            8.454046
          ],
          [
            73.095211,
            8.439233
          ],
          [
            73.091439,
            8.429292
          ],
          [
            73.086322,
            8.41474
          ],
          [
            73.08097,
            8.400326
          ],
          [
            73.076608,
            8.389009
          ],
          [
            73.072516,
            8.377354
          ],
          [
            73.068319,
            8.365614
          ],
          [
            73.06371,
            8.353147
          ],
          [
            73.059219,
            8.341528
          ],
          [
            73.053977,
            8.327251
          ],
          [
            73.048989,
            8.313243
          ],
          [
            73.043542,
            8.298962
          ],
          [
            73.043125,
            8.297585
          ],
          [
            73.034501,
            8.27415
          ],
          [
            73.029504,
            8.260671
          ],
          [
            73.025508,
            8.249833
          ],
          [
            73.018804,
            8.23166
          ],
          [
            73.022369,
            8.240492
          ],
          [
            72.927428,
            7.981786
          ],
          [
            72.926869,
            7.980476
          ],
          [
            72.916213,
            7.951229
          ],
          [
            72.898957,
            7.903805
          ],
          [
            72.885202,
            7.86702
          ],
          [
            72.880542,
            7.85448
          ],
          [
            72.861937,
            7.804169
          ],
          [
            72.849232,
            7.768685
          ],
          [
            72.84261,
            7.750664
          ],
          [
            72.826788,
            7.707407
          ],
          [
            72.823935,
            7.700122
          ],
          [
            72.809302,
            7.659711
          ],
          [
            72.79619,
            7.623878
          ],
          [
            72.798175,
            7.629732
          ],
          [
            72.78457,
            7.592226
          ],
          [
            72.778636,
            7.576188
          ],
          [
            72.764134,
            7.537043
          ],
          [
            72.755251,
            7.512222
          ],
          [
            72.749579,
            7.497552
          ],
          [
            72.72067,
            7.418597
          ],
          [
            72.717056,
            7.409392
          ],
          [
            72.714264,
            7.401513
          ],
          [
            72.692957,
            7.343122
          ],
          [
            72.686874,
            7.326873
          ],
          [
            72.667284,
            7.27339
          ],
          [
            72.675353,
            7.295488
          ],
          [
            72.65097,
            7.229206
          ],
          [
            72.651396,
            7.229667
          ],
          [
            72.613818,
            7.127769
          ],
          [
            72.634329,
            7.183588
          ],
          [
            72.621095,
            7.147121
          ],
          [
            72.607004,
            7.109089
          ],
          [
            72.580135,
            7.035193
          ],
          [
            72.577262,
            7.027982
          ],
          [
            72.567208,
            7.00084
          ],
          [
            72.573873,
            7.018882
          ],
          [
            72.530765,
            6.901644
          ],
          [
            72.528047,
            6.894015
          ],
          [
            72.520425,
            6.872427
          ],
          [
            72.529361,
            6.897383
          ],
          [
            72.488164,
            6.785002
          ],
          [
            72.49311,
            6.7982
          ],
          [
            72.456701,
            6.699195
          ],
          [
            72.463997,
            6.718895
          ]
        ]
      },
      "properties": {
        "mmsi": 419002002,
        "name": "INDUS GLORY",
        "ship_type": "Product Tanker",
        "closest_distance_km": 7.79,
        "passes_all_default_filters": true
      }
    },
    {
      "type": "Feature",
      "geometry": {
        "type": "LineString",
        "coordinates": [
          [
            70.524147,
            6.935838
          ],
          [
            70.573023,
            6.963943
          ],
          [
            70.634337,
            6.999043
          ],
          [
            70.643567,
            7.004214
          ],
          [
            70.640026,
            7.00228
          ],
          [
            70.659507,
            7.013583
          ],
          [
            70.732684,
            7.055588
          ],
          [
            70.78936,
            7.087815
          ],
          [
            70.803263,
            7.095715
          ],
          [
            70.901042,
            7.151882
          ],
          [
            70.946235,
            7.177482
          ],
          [
            70.948972,
            7.179419
          ],
          [
            71.01266,
            7.215647
          ],
          [
            71.062185,
            7.244053
          ],
          [
            71.137164,
            7.287107
          ],
          [
            71.136689,
            7.286794
          ],
          [
            71.17165,
            7.306759
          ],
          [
            71.208778,
            7.327959
          ],
          [
            71.239712,
            7.345571
          ],
          [
            71.306798,
            7.384221
          ],
          [
            71.37352,
            7.42223
          ],
          [
            71.377908,
            7.424736
          ],
          [
            71.464662,
            7.474629
          ],
          [
            71.488793,
            7.488365
          ],
          [
            71.548439,
            7.522703
          ],
          [
            71.578865,
            7.540074
          ],
          [
            71.620533,
            7.56381
          ],
          [
            71.675904,
            7.595553
          ],
          [
            71.69489,
            7.60622
          ],
          [
            71.729292,
            7.625978
          ],
          [
            71.819605,
            7.677925
          ],
          [
            71.85598,
            7.69844
          ],
          [
            71.882849,
            7.713699
          ],
          [
            71.908162,
            7.72854
          ],
          [
            71.95684,
            7.75629
          ],
          [
            72.016088,
            7.790098
          ],
          [
            72.039072,
            7.803312
          ],
          [
            72.108506,
            7.843351
          ],
          [
            72.132338,
            7.857027
          ],
          [
            72.180401,
            7.884217
          ],
          [
            72.234289,
            7.915384
          ],
          [
            72.285098,
            7.94422
          ],
          [
            72.322292,
            7.965447
          ],
          [
            72.370029,
            7.992941
          ],
          [
            72.410319,
            8.016
          ],
          [
            72.448083,
            8.037713
          ],
          [
            72.490672,
            8.061771
          ],
          [
            72.536168,
            8.088211
          ],
          [
            72.581236,
            8.113884
          ],
          [
            72.627632,
            8.140246
          ],
          [
            72.670185,
            8.16486
          ],
          [
            72.715508,
            8.190769
          ],
          [
            72.75665,
            8.214236
          ],
          [
            72.804639,
            8.241665
          ],
          [
            72.84661,
            8.26586
          ],
          [
            72.888878,
            8.290078
          ],
          [
            72.933247,
            8.315301
          ],
          [
            72.977197,
            8.340846
          ],
          [
            73.018757,
            8.364344
          ],
          [
            73.067361,
            8.392332
          ],
          [
            73.10443,
            8.413412
          ],
          [
            73.150991,
            8.440089
          ],
          [
            73.189073,
            8.462075
          ],
          [
            73.236859,
            8.489122
          ],
          [
            73.283435,
            8.516133
          ],
          [
            73.317849,
            8.535767
          ],
          [
            73.36393,
            8.562278
          ],
          [
            73.412356,
            8.589717
          ],
          [
            73.444353,
            8.608111
          ],
          [
            73.505718,
            8.643095
          ],
          [
            73.539694,
            8.662676
          ],
          [
            73.585675,
            8.688822
          ],
          [
            73.62116,
            8.709277
          ],
          [
            73.665607,
            8.734781
          ],
          [
            73.738536,
            8.776337
          ],
          [
            73.769232,
            8.793999
          ],
          [
            73.814231,
            8.820072
          ],
          [
            73.854997,
            8.843119
          ],
          [
            73.88339,
            8.859566
          ],
          [
            73.929906,
            8.886132
          ],
          [
            73.990305,
            8.920741
          ],
          [
            74.043211,
            8.950942
          ],
          [
            74.076525,
            8.969995
          ],
          [
            74.116426,
            8.993092
          ],
          [
            74.142904,
            9.00824
          ],
          [
            74.176117,
            9.026992
          ],
          [
            74.245024,
            9.066629
          ],
          [
            74.270075,
            9.081018
          ],
          [
            74.351529,
            9.12766
          ],
          [
            74.345978,
            9.124613
          ],
          [
            74.452211,
            9.185267
          ],
          [
            74.497946,
            9.211478
          ],
          [
            74.494071,
            9.20937
          ],
          [
            74.551493,
            9.241965
          ],
          [
            74.606552,
            9.273508
          ],
          [
            74.673161,
            9.311593
          ],
          [
            74.637994,
            9.291692
          ],
          [
            74.760088,
            9.361451
          ],
          [
            74.796368,
            9.382445
          ],
          [
            74.801984,
            9.385205
          ],
          [
            74.835119,
            9.404514
          ],
          [
            74.935748,
            9.461909
          ],
          [
            74.958681,
            9.47517
          ],
          [
            74.976606,
            9.485615
          ],
          [
            75.019776,
            9.51
          ],
          [
            75.062341,
            9.534818
          ],
          [
            75.102062,
            9.557148
          ],
          [
            75.199314,
            9.612758
          ],
          [
            75.208317,
            9.618339
          ],
          [
            75.235048,
            9.633384
          ],
          [
            75.33173,
            9.688725
          ],
          [
            75.351119,
            9.700031
          ],
          [
            75.412863,
            9.73522
          ]
        ]
      },
      "properties": {
        "mmsi": 419002003,
        "name": "LACCADIVE MONARCH",
        "ship_type": "Cargo",
        "closest_distance_km": 4.37,
        "passes_all_default_filters": false
      }
    },
    {
      "type": "Feature",
      "geometry": {
        "type": "LineString",
        "coordinates": [
          [
            75.061651,
            5.884778
          ],
          [
            74.990585,
            5.968882
          ],
          [
            74.962539,
            6.002018
          ],
          [
            74.89539,
            6.08131
          ],
          [
            74.867766,
            6.113731
          ],
          [
            74.873029,
            6.107345
          ],
          [
            74.844182,
            6.141672
          ],
          [
            74.755842,
            6.246207
          ],
          [
            74.744472,
            6.259798
          ],
          [
            74.724313,
            6.283358
          ],
          [
            74.664248,
            6.354492
          ],
          [
            74.645648,
            6.376671
          ],
          [
            74.582669,
            6.450929
          ],
          [
            74.545292,
            6.495177
          ],
          [
            74.506695,
            6.54071
          ],
          [
            74.440353,
            6.618997
          ],
          [
            74.414658,
            6.649605
          ],
          [
            74.379031,
            6.69185
          ],
          [
            74.347901,
            6.728284
          ],
          [
            74.323913,
            6.756996
          ],
          [
            74.288176,
            6.798976
          ],
          [
            74.230637,
            6.866845
          ],
          [
            74.191571,
            6.912979
          ],
          [
            74.151174,
            6.960956
          ],
          [
            74.097804,
            7.023995
          ],
          [
            74.093334,
            7.02896
          ],
          [
            74.049307,
            7.081502
          ],
          [
            74.002518,
            7.136596
          ],
          [
            73.942298,
            7.207848
          ],
          [
            73.931252,
            7.221135
          ],
          [
            73.900732,
            7.256926
          ],
          [
            73.845125,
            7.322639
          ],
          [
            73.792168,
            7.385278
          ],
          [
            73.758693,
            7.424977
          ],
          [
            73.735584,
            7.452512
          ],
          [
            73.696181,
            7.498835
          ],
          [
            73.630916,
            7.576188
          ],
          [
            73.599904,
            7.612483
          ],
          [
            73.562059,
            7.656948
          ],
          [
            73.53882,
            7.684691
          ],
          [
            73.480047,
            7.754009
          ],
          [
            73.456314,
            7.782077
          ],
          [
            73.40769,
            7.839752
          ],
          [
            73.377721,
            7.874952
          ],
          [
            73.324251,
            7.938238
          ],
          [
            73.296913,
            7.970616
          ],
          [
            73.254271,
            8.020901
          ],
          [
            73.219129,
            8.062379
          ],
          [
            73.173471,
            8.116597
          ],
          [
            73.138985,
            8.15706
          ],
          [
            73.098863,
            8.204422
          ],
          [
            73.056386,
            8.254657
          ],
          [
            73.018654,
            8.299435
          ],
          [
            72.97902,
            8.346408
          ],
          [
            72.941484,
            8.391003
          ],
          [
            72.90133,
            8.438113
          ],
          [
            72.863197,
            8.483595
          ],
          [
            72.823859,
            8.529878
          ],
          [
            72.784819,
            8.575512
          ],
          [
            72.746488,
            8.621373
          ],
          [
            72.704119,
            8.671248
          ],
          [
            72.664526,
            8.71801
          ],
          [
            72.627818,
            8.761326
          ],
          [
            72.59066,
            8.805152
          ],
          [
            72.549687,
            8.853654
          ],
          [
            72.504836,
            8.906861
          ],
          [
            72.466237,
            8.952437
          ],
          [
            72.438698,
            8.984912
          ],
          [
            72.388013,
            9.0448
          ],
          [
            72.348402,
            9.091826
          ],
          [
            72.309168,
            9.13826
          ],
          [
            72.274222,
            9.179498
          ],
          [
            72.227003,
            9.23508
          ],
          [
            72.209243,
            9.25607
          ],
          [
            72.164851,
            9.30848
          ],
          [
            72.124781,
            9.355785
          ],
          [
            72.069366,
            9.421514
          ],
          [
            72.028728,
            9.469591
          ],
          [
            72.003106,
            9.499986
          ],
          [
            71.947878,
            9.565229
          ],
          [
            71.917438,
            9.600997
          ],
          [
            71.89818,
            9.623479
          ],
          [
            71.828316,
            9.706455
          ],
          [
            71.805589,
            9.733028
          ],
          [
            71.769567,
            9.77584
          ],
          [
            71.743528,
            9.806477
          ],
          [
            71.6929,
            9.866451
          ],
          [
            71.634572,
            9.935263
          ],
          [
            71.631055,
            9.939536
          ],
          [
            71.559164,
            10.024791
          ],
          [
            71.51128,
            10.081104
          ],
          [
            71.513176,
            10.079053
          ],
          [
            71.441963,
            10.163062
          ],
          [
            71.388041,
            10.226658
          ],
          [
            71.357304,
            10.263327
          ],
          [
            71.315327,
            10.312919
          ],
          [
            71.295143,
            10.336614
          ],
          [
            71.266781,
            10.369908
          ],
          [
            71.238019,
            10.404281
          ],
          [
            71.198304,
            10.450705
          ],
          [
            71.115823,
            10.548505
          ],
          [
            71.076496,
            10.594954
          ],
          [
            71.073977,
            10.597927
          ],
          [
            71.032325,
            10.647247
          ],
          [
            70.962434,
            10.729797
          ],
          [
            70.949515,
            10.745149
          ],
          [
            70.926519,
            10.772157
          ],
          [
            70.845666,
            10.86784
          ],
          [
            70.843074,
            10.871017
          ],
          [
            70.759283,
            10.970102
          ],
          [
            70.706255,
            11.0325
          ],
          [
            70.720285,
            11.016268
          ],
          [
            70.641522,
            11.109079
          ]
        ]
      },
      "properties": {
        "mmsi": 419002004,
        "name": "MALABAR NAVIGATOR",
        "ship_type": "Cargo",
        "closest_distance_km": 6.81,
        "passes_all_default_filters": false
      }
    },
    {
      "type": "Feature",
      "geometry": {
        "type": "LineString",
        "coordinates": [
          [
            72.189109,
            8.428994
          ],
          [
            72.163449,
            8.433263
          ],
          [
            72.14034,
            8.437372
          ],
          [
            72.233604,
            8.421267
          ],
          [
            72.228362,
            8.422206
          ],
          [
            72.242948,
            8.419403
          ],
          [
            72.308839,
            8.407956
          ],
          [
            72.209709,
            8.425226
          ],
          [
            72.235323,
            8.420975
          ],
          [
            72.269064,
            8.414769
          ],
          [
            72.281894,
            8.412738
          ],
          [
            72.313084,
            8.407176
          ],
          [
            72.398879,
            8.392153
          ],
          [
            72.364139,
            8.398396
          ],
          [
            72.426341,
            8.387326
          ],
          [
            72.448578,
            8.383525
          ],
          [
            72.423402,
            8.387812
          ],
          [
            72.426171,
            8.387263
          ],
          [
            72.476392,
            8.378525
          ],
          [
            72.458049,
            8.381771
          ],
          [
            72.470677,
            8.379539
          ],
          [
            72.539286,
            8.367685
          ],
          [
            72.477015,
            8.378578
          ],
          [
            72.537459,
            8.368081
          ],
          [
            72.571052,
            8.361946
          ],
          [
            72.579911,
            8.360672
          ],
          [
            72.56418,
            8.363403
          ],
          [
            72.63394,
            8.351162
          ],
          [
            72.64013,
            8.350148
          ],
          [
            72.62114,
            8.353434
          ],
          [
            72.678838,
            8.343377
          ],
          [
            72.679905,
            8.34288
          ],
          [
            72.711052,
            8.337811
          ],
          [
            72.67228,
            8.344417
          ],
          [
            72.702963,
            8.338918
          ],
          [
            72.718693,
            8.336435
          ],
          [
            72.768747,
            8.327522
          ],
          [
            72.754976,
            8.330105
          ],
          [
            72.761878,
            8.328747
          ],
          [
            72.781809,
            8.325292
          ],
          [
            72.807164,
            8.320668
          ],
          [
            72.820617,
            8.318482
          ],
          [
            72.863754,
            8.310984
          ],
          [
            72.862551,
            8.311127
          ],
          [
            72.93655,
            8.298046
          ],
          [
            72.948327,
            8.296327
          ],
          [
            72.944717,
            8.296924
          ],
          [
            72.966262,
            8.292973
          ],
          [
            72.97792,
            8.291124
          ],
          [
            72.991981,
            8.288589
          ],
          [
            73.01284,
            8.284964
          ],
          [
            73.020355,
            8.283582
          ],
          [
            73.029441,
            8.282129
          ],
          [
            73.041734,
            8.27984
          ],
          [
            73.056499,
            8.277269
          ],
          [
            73.069463,
            8.275054
          ],
          [
            73.08082,
            8.272982
          ],
          [
            73.09293,
            8.270869
          ],
          [
            73.10467,
            8.268969
          ],
          [
            73.11532,
            8.267078
          ],
          [
            73.134354,
            8.263561
          ],
          [
            73.145157,
            8.261848
          ],
          [
            73.153127,
            8.260158
          ],
          [
            73.174678,
            8.256716
          ],
          [
            73.188808,
            8.254165
          ],
          [
            73.192692,
            8.253238
          ],
          [
            73.195874,
            8.252937
          ],
          [
            73.219035,
            8.248772
          ],
          [
            73.231223,
            8.246688
          ],
          [
            73.289977,
            8.236613
          ],
          [
            73.313614,
            8.232394
          ],
          [
            73.313326,
            8.232513
          ],
          [
            73.343639,
            8.227075
          ],
          [
            73.378242,
            8.221084
          ],
          [
            73.364548,
            8.223539
          ],
          [
            73.414553,
            8.214408
          ],
          [
            73.394585,
            8.217958
          ],
          [
            73.439518,
            8.210216
          ],
          [
            73.466445,
            8.205659
          ],
          [
            73.469087,
            8.20507
          ],
          [
            73.466329,
            8.205572
          ],
          [
            73.473922,
            8.204383
          ],
          [
            73.521458,
            8.196013
          ],
          [
            73.550807,
            8.190833
          ],
          [
            73.511545,
            8.197479
          ],
          [
            73.56645,
            8.188129
          ],
          [
            73.571153,
            8.187283
          ],
          [
            73.603881,
            8.181452
          ],
          [
            73.609181,
            8.180712
          ],
          [
            73.610241,
            8.18019
          ],
          [
            73.638343,
            8.17545
          ],
          [
            73.66946,
            8.169976
          ],
          [
            73.697773,
            8.165262
          ],
          [
            73.659316,
            8.171762
          ],
          [
            73.692597,
            8.16596
          ],
          [
            73.701813,
            8.164202
          ],
          [
            73.731245,
            8.15926
          ],
          [
            73.796506,
            8.147671
          ],
          [
            73.784149,
            8.149923
          ],
          [
            73.792308,
            8.148559
          ],
          [
            73.788309,
            8.149093
          ],
          [
            73.826084,
            8.142813
          ],
          [
            73.825339,
            8.142596
          ],
          [
            73.903281,
            8.129206
          ],
          [
            73.879579,
            8.133425
          ],
          [
            73.938407,
            8.123113
          ],
          [
            73.891721,
            8.131133
          ],
          [
            73.886054,
            8.13215
          ],
          [
            73.941889,
            8.122485
          ],
          [
            74.022168,
            8.108402
          ],
          [
            74.038324,
            8.105509
          ],
          [
            73.969206,
            8.117811
          ],
          [
            73.965789,
            8.118219
          ]
        ]
      },
      "properties": {
        "mmsi": 419002005,
        "name": "BLUE FIN 3",
        "ship_type": "Fishing",
        "closest_distance_km": 12.65,
        "passes_all_default_filters": false
      }
    },
    {
      "type": "Feature",
      "geometry": {
        "type": "LineString",
        "coordinates": [
          [
            73.412559,
            12.014995
          ],
          [
            73.411509,
            12.008605
          ],
          [
            73.400839,
            11.948521
          ],
          [
            73.381022,
            11.837042
          ],
          [
            73.372646,
            11.789467
          ],
          [
            73.366054,
            11.753729
          ],
          [
            73.36072,
            11.72275
          ],
          [
            73.35248,
            11.676212
          ],
          [
            73.334942,
            11.579342
          ],
          [
            73.318316,
            11.48424
          ],
          [
            73.312703,
            11.45265
          ],
          [
            73.297079,
            11.364818
          ],
          [
            73.285876,
            11.303156
          ],
          [
            73.275619,
            11.243345
          ],
          [
            73.253121,
            11.118226
          ],
          [
            73.242405,
            11.058
          ],
          [
            73.241987,
            11.054703
          ],
          [
            73.229233,
            10.984277
          ],
          [
            73.208878,
            10.868714
          ],
          [
            73.202291,
            10.83276
          ],
          [
            73.196773,
            10.801327
          ],
          [
            73.182889,
            10.722742
          ],
          [
            73.169748,
            10.649795
          ],
          [
            73.151551,
            10.547353
          ],
          [
            73.15019,
            10.539448
          ],
          [
            73.127934,
            10.414369
          ],
          [
            73.11844,
            10.359985
          ],
          [
            73.105831,
            10.289006
          ],
          [
            73.095617,
            10.231582
          ],
          [
            73.090581,
            10.204373
          ],
          [
            73.071142,
            10.094879
          ],
          [
            73.06131,
            10.039095
          ],
          [
            73.047321,
            9.959503
          ],
          [
            73.040627,
            9.922405
          ],
          [
            73.027838,
            9.850394
          ],
          [
            73.015368,
            9.781807
          ],
          [
            73.002672,
            9.710317
          ],
          [
            72.994191,
            9.661318
          ],
          [
            72.983802,
            9.60218
          ],
          [
            72.971271,
            9.533382
          ],
          [
            72.960211,
            9.470109
          ],
          [
            72.94794,
            9.401159
          ],
          [
            72.933951,
            9.321912
          ],
          [
            72.924393,
            9.268058
          ],
          [
            72.908713,
            9.179905
          ],
          [
            72.898224,
            9.120876
          ],
          [
            72.889047,
            9.069567
          ],
          [
            72.873112,
            8.981526
          ],
          [
            72.865417,
            8.93615
          ],
          [
            72.852167,
            8.861819
          ],
          [
            72.840986,
            8.8006
          ],
          [
            72.827651,
            8.724877
          ],
          [
            72.816513,
            8.661616
          ],
          [
            72.805657,
            8.600658
          ],
          [
            72.793375,
            8.531381
          ],
          [
            72.781807,
            8.467999
          ],
          [
            72.770013,
            8.401414
          ],
          [
            72.758467,
            8.336226
          ],
          [
            72.747227,
            8.271648
          ],
          [
            72.735207,
            8.206148
          ],
          [
            72.723026,
            8.137512
          ],
          [
            72.712596,
            8.077922
          ],
          [
            72.700202,
            8.007773
          ],
          [
            72.689201,
            7.945109
          ],
          [
            72.677389,
            7.880439
          ],
          [
            72.666655,
            7.818689
          ],
          [
            72.652997,
            7.742424
          ],
          [
            72.641975,
            7.680218
          ],
          [
            72.631678,
            7.621982
          ],
          [
            72.616281,
            7.536008
          ],
          [
            72.605531,
            7.475277
          ],
          [
            72.597962,
            7.433023
          ],
          [
            72.582833,
            7.348169
          ],
          [
            72.57147,
            7.28452
          ],
          [
            72.559416,
            7.216029
          ],
          [
            72.545834,
            7.139772
          ],
          [
            72.537087,
            7.090531
          ],
          [
            72.52219,
            7.007156
          ],
          [
            72.510365,
            6.940245
          ],
          [
            72.506112,
            6.917321
          ],
          [
            72.484674,
            6.796969
          ],
          [
            72.473583,
            6.733457
          ],
          [
            72.463824,
            6.677584
          ],
          [
            72.453495,
            6.619317
          ],
          [
            72.444953,
            6.571646
          ],
          [
            72.433322,
            6.506701
          ],
          [
            72.41943,
            6.429261
          ],
          [
            72.41271,
            6.391006
          ],
          [
            72.393274,
            6.282745
          ],
          [
            72.391955,
            6.27385
          ],
          [
            72.372788,
            6.165803
          ],
          [
            72.365427,
            6.125556
          ],
          [
            72.34293,
            5.999539
          ],
          [
            72.3334,
            5.944345
          ],
          [
            72.320134,
            5.870825
          ],
          [
            72.321814,
            5.879402
          ],
          [
            72.299828,
            5.755424
          ],
          [
            72.29326,
            5.719733
          ],
          [
            72.273262,
            5.606541
          ],
          [
            72.272334,
            5.601113
          ],
          [
            72.26016,
            5.532686
          ],
          [
            72.248322,
            5.46717
          ],
          [
            72.229955,
            5.36348
          ],
          [
            72.230772,
            5.367065
          ],
          [
            72.201241,
            5.201855
          ],
          [
            72.198516,
            5.185508
          ],
          [
            72.182752,
            5.098167
          ],
          [
            72.176721,
            5.06386
          ],
          [
            72.15758,
            4.955268
          ],
          [
            72.156304,
            4.948281
          ],
          [
            72.130272,
            4.801442
          ],
          [
            72.126734,
            4.783
          ],
          [
            72.123984,
            4.766212
          ]
        ]
      },
      "properties": {
        "mmsi": 419002006,
        "name": "ORIENT RUNNER",
        "ship_type": "Cargo",
        "closest_distance_km": 25.75,
        "passes_all_default_filters": false
      }
    },
    {
      "type": "Feature",
      "geometry": {
        "type": "LineString",
        "coordinates": [
          [
            72.269806,
            7.055159
          ],
          [
            72.329392,
            7.157619
          ],
          [
            72.314392,
            7.132429
          ],
          [
            72.317718,
            7.137827
          ],
          [
            72.350111,
            7.193684
          ],
          [
            72.333281,
            7.164017
          ],
          [
            72.347216,
            7.187952
          ],
          [
            72.391129,
            7.263708
          ],
          [
            72.421335,
            7.315899
          ],
          [
            72.400786,
            7.280399
          ],
          [
            72.438909,
            7.345853
          ],
          [
            72.444745,
            7.35549
          ],
          [
            72.459908,
            7.38188
          ],
          [
            72.478735,
            7.414293
          ],
          [
            72.500014,
            7.450945
          ],
          [
            72.476512,
            7.410639
          ],
          [
            72.530137,
            7.502681
          ],
          [
            72.509992,
            7.467956
          ],
          [
            72.531244,
            7.504251
          ],
          [
            72.531864,
            7.505697
          ],
          [
            72.582194,
            7.592435
          ],
          [
            72.571376,
            7.573215
          ],
          [
            72.592598,
            7.610321
          ],
          [
            72.627799,
            7.670261
          ],
          [
            72.615067,
            7.648724
          ],
          [
            72.622239,
            7.660628
          ],
          [
            72.667699,
            7.739058
          ],
          [
            72.658585,
            7.723298
          ],
          [
            72.676893,
            7.755096
          ],
          [
            72.688405,
            7.774321
          ],
          [
            72.710991,
            7.813858
          ],
          [
            72.707712,
            7.807562
          ],
          [
            72.718554,
            7.826446
          ],
          [
            72.75495,
            7.888705
          ],
          [
            72.749634,
            7.879693
          ],
          [
            72.775454,
            7.923985
          ],
          [
            72.773438,
            7.920369
          ],
          [
            72.791188,
            7.95091
          ],
          [
            72.80709,
            7.978332
          ],
          [
            72.825355,
            8.009945
          ],
          [
            72.846933,
            8.046898
          ],
          [
            72.848753,
            8.04976
          ],
          [
            72.874595,
            8.094696
          ],
          [
            72.886175,
            8.114142
          ],
          [
            72.985884,
            8.285652
          ],
          [
            72.985901,
            8.285685
          ],
          [
            73.003679,
            8.316407
          ],
          [
            72.998825,
            8.307631
          ],
          [
            73.007735,
            8.323326
          ],
          [
            73.019252,
            8.342526
          ],
          [
            73.023003,
            8.349576
          ],
          [
            73.026908,
            8.355531
          ],
          [
            73.033474,
            8.366964
          ],
          [
            73.042329,
            8.382242
          ],
          [
            73.047181,
            8.39063
          ],
          [
            73.05263,
            8.400629
          ],
          [
            73.058776,
            8.410956
          ],
          [
            73.064662,
            8.421087
          ],
          [
            73.07125,
            8.432529
          ],
          [
            73.077587,
            8.443039
          ],
          [
            73.081123,
            8.448856
          ],
          [
            73.090007,
            8.464622
          ],
          [
            73.092276,
            8.468232
          ],
          [
            73.100036,
            8.481789
          ],
          [
            73.10438,
            8.489033
          ],
          [
            73.1125,
            8.50295
          ],
          [
            73.114494,
            8.506624
          ],
          [
            73.124148,
            8.523042
          ],
          [
            73.125757,
            8.525693
          ],
          [
            73.24397,
            8.729131
          ],
          [
            73.247737,
            8.735338
          ],
          [
            73.263418,
            8.762152
          ],
          [
            73.275467,
            8.783264
          ],
          [
            73.28561,
            8.800216
          ],
          [
            73.306503,
            8.836442
          ],
          [
            73.313441,
            8.848506
          ],
          [
            73.3348,
            8.88514
          ],
          [
            73.341261,
            8.89588
          ],
          [
            73.372221,
            8.94916
          ],
          [
            73.385688,
            8.972324
          ],
          [
            73.400419,
            8.99795
          ],
          [
            73.406276,
            9.007626
          ],
          [
            73.405443,
            9.005983
          ],
          [
            73.423791,
            9.037571
          ],
          [
            73.444389,
            9.073045
          ],
          [
            73.456531,
            9.094215
          ],
          [
            73.476162,
            9.127849
          ],
          [
            73.489673,
            9.150863
          ],
          [
            73.492063,
            9.154952
          ],
          [
            73.498684,
            9.166333
          ],
          [
            73.535563,
            9.22926
          ],
          [
            73.535719,
            9.229992
          ],
          [
            73.569376,
            9.287898
          ],
          [
            73.577653,
            9.301741
          ],
          [
            73.579193,
            9.305055
          ],
          [
            73.604405,
            9.348187
          ],
          [
            73.612501,
            9.361416
          ],
          [
            73.627821,
            9.388034
          ],
          [
            73.656658,
            9.438092
          ],
          [
            73.632789,
            9.396773
          ],
          [
            73.663952,
            9.45038
          ],
          [
            73.667023,
            9.455636
          ],
          [
            73.686652,
            9.48957
          ],
          [
            73.677229,
            9.472768
          ],
          [
            73.690752,
            9.496771
          ],
          [
            73.71604,
            9.539971
          ],
          [
            73.740326,
            9.581539
          ],
          [
            73.767646,
            9.628501
          ],
          [
            73.7892,
            9.665066
          ],
          [
            73.792135,
            9.670803
          ],
          [
            73.82884,
            9.733674
          ],
          [
            73.786317,
            9.660217
          ],
          [
            73.804294,
            9.691567
          ]
        ]
      },
      "properties": {
        "mmsi": 419002007,
        "name": "PETRO CHEVRON",
        "ship_type": "Oil Tanker",
        "closest_distance_km": 4.53,
        "passes_all_default_filters": true
      }
    },
    {
      "type": "Feature",
      "geometry": {
        "type": "LineString",
        "coordinates": [
          [
            76.977667,
            9.289268
          ],
          [
            76.901544,
            9.275822
          ],
          [
            76.798511,
            9.258035
          ],
          [
            76.774152,
            9.253826
          ],
          [
            76.617202,
            9.226397
          ],
          [
            76.574209,
            9.218707
          ],
          [
            76.568997,
            9.217797
          ],
          [
            76.463364,
            9.199362
          ],
          [
            76.361064,
            9.181564
          ],
          [
            76.343259,
            9.178417
          ],
          [
            76.247264,
            9.161393
          ],
          [
            76.119127,
            9.13907
          ],
          [
            76.110635,
            9.13765
          ],
          [
            75.978363,
            9.114485
          ],
          [
            75.958927,
            9.111178
          ],
          [
            75.923215,
            9.104888
          ],
          [
            75.76421,
            9.076989
          ],
          [
            75.684136,
            9.063035
          ],
          [
            75.621048,
            9.052118
          ],
          [
            75.583321,
            9.045412
          ],
          [
            75.502805,
            9.031483
          ],
          [
            75.401797,
            9.013477
          ],
          [
            75.348019,
            9.004186
          ],
          [
            75.266071,
            8.989914
          ],
          [
            75.241721,
            8.985737
          ],
          [
            75.118797,
            8.964281
          ],
          [
            75.065857,
            8.955097
          ],
          [
            75.019516,
            8.946816
          ],
          [
            74.903625,
            8.92668
          ],
          [
            74.845181,
            8.916548
          ],
          [
            74.776563,
            8.904476
          ],
          [
            74.744509,
            8.898869
          ],
          [
            74.660012,
            8.884009
          ],
          [
            74.581061,
            8.870234
          ],
          [
            74.476945,
            8.851853
          ],
          [
            74.401308,
            8.838679
          ],
          [
            74.353972,
            8.830361
          ],
          [
            74.269775,
            8.815603
          ],
          [
            74.228698,
            8.808638
          ],
          [
            74.154465,
            8.795642
          ],
          [
            74.081781,
            8.783019
          ],
          [
            74.003686,
            8.769074
          ],
          [
            73.929058,
            8.756231
          ],
          [
            73.844741,
            8.741441
          ],
          [
            73.770273,
            8.728343
          ],
          [
            73.710761,
            8.7178
          ],
          [
            73.622419,
            8.702699
          ],
          [
            73.565437,
            8.692517
          ],
          [
            73.488715,
            8.679211
          ],
          [
            73.410001,
            8.665445
          ],
          [
            73.331764,
            8.651721
          ],
          [
            73.265016,
            8.639916
          ],
          [
            73.196874,
            8.628028
          ],
          [
            73.121614,
            8.614943
          ],
          [
            73.049531,
            8.60218
          ],
          [
            72.976941,
            8.589648
          ],
          [
            72.903787,
            8.576857
          ],
          [
            72.830527,
            8.563902
          ],
          [
            72.76088,
            8.551938
          ],
          [
            72.68363,
            8.538244
          ],
          [
            72.617031,
            8.52662
          ],
          [
            72.546066,
            8.514261
          ],
          [
            72.466685,
            8.50029
          ],
          [
            72.393646,
            8.487437
          ],
          [
            72.332162,
            8.476761
          ],
          [
            72.263486,
            8.464929
          ],
          [
            72.167734,
            8.448123
          ],
          [
            72.11941,
            8.439615
          ],
          [
            72.047195,
            8.426948
          ],
          [
            71.974612,
            8.414448
          ],
          [
            71.903008,
            8.402057
          ],
          [
            71.816927,
            8.386574
          ],
          [
            71.748034,
            8.374814
          ],
          [
            71.687991,
            8.364186
          ],
          [
            71.584563,
            8.34601
          ],
          [
            71.516455,
            8.334281
          ],
          [
            71.432866,
            8.31957
          ],
          [
            71.395257,
            8.312872
          ],
          [
            71.305861,
            8.297433
          ],
          [
            71.228,
            8.283922
          ],
          [
            71.178233,
            8.275097
          ],
          [
            71.078455,
            8.257591
          ],
          [
            70.995932,
            8.243393
          ],
          [
            70.975208,
            8.23958
          ],
          [
            70.875046,
            8.222228
          ],
          [
            70.773326,
            8.20411
          ],
          [
            70.727,
            8.196115
          ],
          [
            70.639512,
            8.181045
          ],
          [
            70.625516,
            8.178278
          ],
          [
            70.552633,
            8.165493
          ],
          [
            70.441866,
            8.14637
          ],
          [
            70.377205,
            8.135121
          ],
          [
            70.294269,
            8.12057
          ],
          [
            70.242567,
            8.111492
          ],
          [
            70.123726,
            8.090707
          ],
          [
            70.0675,
            8.080973
          ],
          [
            70.051202,
            8.078065
          ],
          [
            69.900204,
            8.051448
          ],
          [
            69.870106,
            8.046306
          ],
          [
            69.811285,
            8.036126
          ],
          [
            69.760079,
            8.027161
          ],
          [
            69.683595,
            8.013896
          ],
          [
            69.54119,
            7.988926
          ],
          [
            69.544669,
            7.989551
          ],
          [
            69.382609,
            7.961224
          ],
          [
            69.318911,
            7.949882
          ],
          [
            69.257519,
            7.939267
          ],
          [
            69.217313,
            7.93212
          ],
          [
            69.130511,
            7.916961
          ],
          [
            69.119174,
            7.915028
          ],
          [
            69.030667,
            7.899572
          ],
          [
            68.872486,
            7.871775
          ],
          [
            68.866086,
            7.870585
          ]
        ]
      },
      "properties": {
        "mmsi": 419002008,
        "name": "ISLAND QUEEN",
        "ship_type": "Passenger",
        "closest_distance_km": 21.16,
        "passes_all_default_filters": false
      }
    }
  ]
}