{
  "type": "FeatureCollection",
  "features": [
    {
      "type": "Feature",
      "geometry": {
        "type": "LineString",
        "coordinates": [
          [
            73.052474,
            8.293506
          ],
          [
            73.039641,
            8.323647
          ],
          [
            73.027902,
            8.351387
          ],
          [
            73.016823,
            8.376504
          ],
          [
            73.006061,
            8.40154
          ],
          [
            72.995434,
            8.42654
          ],
          [
            72.984808,
            8.451541
          ],
          [
            72.975311,
            8.476645
          ],
          [
            72.968921,
            8.502032
          ]
        ]
      },
      "properties": {
        "case_id": "CASE a2",
        "duration_hours": 48,
        "confidence": 0.9793,
        "type": "advection_trajectory"
      }
    },
    {
      "type": "Feature",
      "geometry": {
        "type": "Point",
        "coordinates": [
          73.052474,
          8.293506
        ]
      },
      "properties": {
        "name": "Detection Point (CASE a2)",
        "detection_time": "2026-08-14T00:57:00Z",
        "type": "detection_point"
      }
    },
    {
      "type": "Feature",
      "geometry": {
        "type": "Point",
        "coordinates": [
          72.968921,
          8.502032
        ]
      },
      "properties": {
        "name": "Estimated Origin (48h)",
        "duration_hours": 48,
        "confidence": 0.9793,
        "type": "estimated_origin"
      }
    }
  ]
}