{
  "type": "FeatureCollection",
  "features": [
    {
      "type": "Feature",
      "geometry": {
        "type": "LineString",
        "coordinates": [
          [
            72.461242,
            7.44055
          ],
          [
            72.506121,
            7.387795
          ],
          [
            72.454784,
            7.448305
          ],
          [
            72.536778,
            7.351145
          ],
          [
            72.543885,
            7.342777
          ],
          [
            72.507945,
            7.385384
          ],
          [
            72.494288,
            7.4016
          ],
          [
            72.510866,
            7.381762
          ],
          [
            72.498618,
            7.396258
          ],
          [
            72.572391,
            7.309204
          ],
          [
            72.526487,
            7.363571
          ],
          [
            72.522464,
            7.368209
          ],
          [
            72.541095,
            7.346354
          ],
          [
            72.566333,
            7.316067
          ],
          [
            72.597702,
            7.278711
          ],
          [
            72.604552,
            7.270604
          ],
          [
            72.585673,
            7.293145
          ],
          [
            72.620488,
            7.252082
          ],
          [
            72.600343,
            7.27575
          ],
          [
            72.603355,
            7.272097
          ],
          [
            72.596196,
            7.280864
          ],
          [
            72.621838,
            7.250635
          ],
          [
            72.654494,
            7.21136
          ],
          [
            72.65978,
            7.205459
          ],
          [
            72.63538,
            7.234304
          ],
          [
            72.667504,
            7.196349
          ],
          [
            72.681244,
            7.179834
          ],
          [
            72.688633,
            7.171364
          ],
          [
            72.689647,
            7.170064
          ],
          [
            72.691838,
            7.166962
          ],
          [
            72.716471,
            7.138313
          ],
          [
            72.710598,
            7.14486
          ],
          [
            72.696002,
            7.162637
          ],
          [
            72.709263,
            7.146583
          ],
          [
            72.723559,
            7.129622
          ],
          [
            72.732835,
            7.118528
          ],
          [
            72.746819,
            7.102488
          ],
          [
            72.759839,
            7.086534
          ],
          [
            72.748172,
            7.100577
          ],
          [
            72.763825,
            7.081837
          ],
          [
            72.768643,
            7.076392
          ],
          [
            72.782041,
            7.060069
          ],
          [
            72.801394,
            7.03775
          ],
          [
            72.790777,
            7.049704
          ],
          [
            72.83025,
            7.003154
          ],
          [
            72.842936,
            6.988077
          ],
          [
            72.843125,
            6.987741
          ],
          [
            72.851696,
            6.977819
          ],
          [
            72.858122,
            6.970017
          ],
          [
            72.859283,
            6.968528
          ],
          [
            72.86198,
            6.965569
          ],
          [
            72.871392,
            6.954092
          ],
          [
            72.877426,
            6.947126
          ],
          [
            72.882739,
            6.940807
          ],
          [
            72.887194,
            6.935965
          ],
          [
            72.891779,
            6.930169
          ],
          [
            72.896036,
            6.925204
          ],
          [
            72.900934,
            6.919459
          ],
          [
            72.906381,
            6.91256
          ],
          [
            72.910045,
            6.908482
          ],
          [
            72.916909,
            6.900687
          ],
          [
            72.916773,
            6.900433
          ],
          [
            72.928303,
            6.886626
          ],
          [
            72.929097,
            6.885795
          ],
          [
            72.931356,
            6.883395
          ],
          [
            72.944524,
            6.86744
          ],
          [
            72.952546,
            6.858477
          ],
          [
            72.956579,
            6.853317
          ],
          [
            72.953666,
            6.856629
          ],
          [
            72.984739,
            6.820117
          ],
          [
            72.996018,
            6.80665
          ],
          [
            73.007211,
            6.7937
          ],
          [
            73.017714,
            6.780748
          ],
          [
            73.018398,
            6.780238
          ],
          [
            73.032529,
            6.763141
          ],
          [
            73.041738,
            6.752498
          ],
          [
            73.035319,
            6.759928
          ],
          [
            73.043501,
            6.750359
          ],
          [
            73.052368,
            6.739754
          ],
          [
            73.059776,
            6.73103
          ],
          [
            73.073566,
            6.714624
          ],
          [
            73.101853,
            6.681012
          ],
          [
            73.080854,
            6.705974
          ],
          [
            73.090672,
            6.694336
          ],
          [
            73.087699,
            6.698035
          ],
          [
            73.137471,
            6.638476
          ],
          [
            73.110672,
            6.670922
          ],
          [
            73.148272,
            6.625757
          ],
          [
            73.154248,
            6.619017
          ],
          [
            73.170258,
            6.599723
          ],
          [
            73.169502,
            6.600788
          ],
          [
            73.184213,
            6.583013
          ],
          [
            73.144168,
            6.630753
          ],
          [
            73.180776,
            6.587365
          ],
          [
            73.190398,
            6.575906
          ],
          [
            73.215061,
            6.546699
          ],
          [
            73.192102,
            6.573661
          ],
          [
            73.222622,
            6.537728
          ],
          [
            73.228633,
            6.530642
          ],
          [
            73.185952,
            6.581292
          ],
          [
            73.256202,
            6.498135
          ],
          [
            73.240753,
            6.515963
          ],
          [
            73.22832,
            6.531327
          ],
          [
            73.277231,
            6.473037
          ],
          [
            73.238212,
            6.519269
          ],
          [
            73.295483,
            6.451387
          ],
          [
            73.244839,
            6.51178
          ],
          [
            73.319477,
            6.423213
          ],
          [
            73.247685,
            6.508074
          ],
          [
            73.332192,
            6.40812
          ],
          [
            73.329924,
            6.41056
          ],
          [
            73.275594,
            6.475275
          ],
          [
            73.292674,
            6.454806
          ]
        ]
      },
      "properties": {
        "mmsi": 419002001,
        "name": "SEA CHAMPION",
        "ship_type": "Oil Tanker",
        "closest_distance_km": 2.85,
        "passes_all_default_filters": true
      }
    },
    {
      "type": "Feature",
      "geometry": {
        "type": "LineString",
        "coordinates": [
          [
            73.535772,
            8.502017
          ],
          [
            73.51194,
            8.436499
          ],
          [
            73.54059,
            8.515204
          ],
          [
            73.519673,
            8.457011
          ],
          [
            73.503764,
            8.414674
          ],
          [
            73.512356,
            8.436937
          ],
          [
            73.470724,
            8.323646
          ],
          [
            73.479748,
            8.348218
          ],
          [
            73.459849,
            8.293865
          ],
          [
            73.438506,
            8.236265
          ],
          [
            73.454776,
            8.279899
          ],
          [
            73.436431,
            8.230179
          ],
          [
            73.400072,
            8.130792
          ],
          [
            73.39887,
            8.127153
          ],
          [
            73.387677,
            8.096671
          ],
          [
            73.380593,
            8.077603
          ],
          [
            73.370778,
            8.050423
          ],
          [
            73.376119,
            8.065307
          ],
          [
            73.353444,
            8.003075
          ],
          [
            73.33906,
            7.963571
          ],
          [
            73.329291,
            7.937286
          ],
          [
            73.319062,
            7.908864
          ],
          [
            73.29937,
            7.854998
          ],
          [
            73.30217,
            7.862421
          ],
          [
            73.294329,
            7.841766
          ],
          [
            73.268683,
            7.771357
          ],
          [
            73.265247,
            7.762482
          ],
          [
            73.253067,
            7.728955
          ],
          [
            73.249203,
            7.718281
          ],
          [
            73.237564,
            7.685706
          ],
          [
            73.229107,
            7.662978
          ],
          [
            73.205414,
            7.59843
          ],
          [
            73.192495,
            7.56246
          ],
          [
            73.190098,
            7.556323
          ],
          [
            73.189554,
            7.554444
          ],
          [
            73.176564,
            7.519183
          ],
          [
            73.158778,
            7.470823
          ],
          [
            73.154411,
            7.458929
          ],
          [
            73.133531,
            7.401458
          ],
          [
            73.130394,
            7.393001
          ],
          [
            73.112539,
            7.344375
          ],
          [
            73.102059,
            7.315537
          ],
          [
            73.089975,
            7.28229
          ],
          [
            73.085777,
            7.271056
          ],
          [
            72.999213,
            7.034716
          ],
          [
            72.993589,
            7.019119
          ],
          [
            72.991514,
            7.013228
          ],
          [
            72.984162,
            6.993238
          ],
          [
            72.982488,
            6.988341
          ],
          [
            72.975514,
            6.969675
          ],
          [
            72.971821,
            6.959723
          ],
          [
            72.966479,
            6.94491
          ],
          [
            72.96272,
            6.934969
          ],
          [
            72.957621,
            6.920417
          ],
          [
            72.952288,
            6.906003
          ],
          [
            72.947941,
            6.894686
          ],
          [
            72.943863,
            6.883031
          ],
          [
            72.939682,
            6.871291
          ],
          [
            72.935089,
            6.858824
          ],
          [
            72.930613,
            6.847205
          ],
          [
            72.925389,
            6.832928
          ],
          [
            72.920419,
            6.81892
          ],
          [
            72.914991,
            6.804639
          ],
          [
            72.914575,
            6.803262
          ],
          [
            72.905981,
            6.779827
          ],
          [
            72.901002,
            6.766348
          ],
          [
            72.897019,
            6.75551
          ],
          [
            72.890339,
            6.737337
          ],
          [
            72.893892,
            6.746169
          ],
          [
            72.799283,
            6.487463
          ],
          [
            72.798726,
            6.486153
          ],
          [
            72.788108,
            6.456906
          ],
          [
            72.770913,
            6.409482
          ],
          [
            72.757205,
            6.372697
          ],
          [
            72.752561,
            6.360157
          ],
          [
            72.734021,
            6.309846
          ],
          [
            72.721361,
            6.274362
          ],
          [
            72.714762,
            6.256341
          ],
          [
            72.698996,
            6.213084
          ],
          [
            72.696152,
            6.205799
          ],
          [
            72.681571,
            6.165388
          ],
          [
            72.668505,
            6.129555
          ],
          [
            72.670482,
            6.135409
          ],
          [
            72.656926,
            6.097903
          ],
          [
            72.651013,
            6.081865
          ],
          [
            72.63656,
            6.04272
          ],
          [
            72.627709,
            6.017899
          ],
          [
            72.622057,
            6.003229
          ],
          [
            72.593249,
            5.924274
          ],
          [
            72.589647,
            5.915069
          ],
          [
            72.586865,
            5.90719
          ],
          [
            72.565633,
            5.848799
          ],
          [
            72.559571,
            5.83255
          ],
          [
            72.540049,
            5.779067
          ],
          [
            72.548089,
            5.801165
          ],
          [
            72.523792,
            5.734883
          ],
          [
            72.524217,
            5.735344
          ],
          [
            72.48677,
            5.633446
          ],
          [
            72.507209,
            5.689265
          ],
          [
            72.494022,
            5.652798
          ],
          [
            72.479981,
            5.614766
          ],
          [
            72.453206,
            5.54087
          ],
          [
            72.450342,
            5.533659
          ],
          [
            72.440323,
            5.506517
          ],
          [
            72.446966,
            5.524559
          ],
          [
            72.404008,
            5.407321
          ],
          [
            72.401299,
            5.399692
          ],
          [
            72.393705,
            5.378104
          ],
          [
            72.402609,
            5.40306
          ],
          [
            72.361556,
            5.290679
          ],
          [
            72.366486,
            5.303877
          ],
          [
            72.330203,
            5.204872
          ],
          [
            72.337475,
            5.224572
          ]
        ]
      },
      "properties": {
        "mmsi": 419002002,
        "name": "INDUS GLORY",
        "ship_type": "Product Tanker",
        "closest_distance_km": 7.79,
        "passes_all_default_filters": true
      }
    },
    {
      "type": "Feature",
      "geometry": {
        "type": "LineString",
        "coordinates": [
          [
            70.404412,
            5.441515
          ],
          [
            70.453116,
            5.46962
          ],
          [
            70.514216,
            5.50472
          ],
          [
            70.523414,
            5.509891
          ],
          [
            70.519885,
            5.507957
          ],
          [
            70.539298,
            5.51926
          ],
          [
            70.612219,
            5.561265
          ],
          [
            70.668697,
            5.593492
          ],
          [
            70.68255,
            5.601392
          ],
          [
            70.779988,
            5.657559
          ],
          [
            70.825023,
            5.683159
          ],
          [
            70.82775,
            5.685096
          ],
          [
            70.891215,
            5.721324
          ],
          [
            70.940567,
            5.74973
          ],
          [
            71.015284,
            5.792784
          ],
          [
            71.014811,
            5.792471
          ],
          [
            71.049648,
            5.812436
          ],
          [
            71.086647,
            5.833636
          ],
          [
            71.117473,
            5.851248
          ],
          [
            71.184324,
            5.889898
          ],
          [
            71.250813,
            5.927907
          ],
          [
            71.255186,
            5.930413
          ],
          [
            71.341636,
            5.980306
          ],
          [
            71.365682,
            5.994042
          ],
          [
            71.425119,
            6.02838
          ],
          [
            71.45544,
            6.045751
          ],
          [
            71.496961,
            6.069487
          ],
          [
            71.552139,
            6.10123
          ],
          [
            71.571058,
            6.111897
          ],
          [
            71.60534,
            6.131655
          ],
          [
            71.695336,
            6.183602
          ],
          [
            71.731584,
            6.204117
          ],
          [
            71.75836,
            6.219376
          ],
          [
            71.783583,
            6.234217
          ],
          [
            71.832092,
            6.261967
          ],
          [
            71.891132,
            6.295775
          ],
          [
            71.914036,
            6.308989
          ],
          [
            71.983227,
            6.349028
          ],
          [
            72.006975,
            6.362704
          ],
          [
            72.054871,
            6.389894
          ],
          [
            72.108569,
            6.421061
          ],
          [
            72.159202,
            6.449897
          ],
          [
            72.196265,
            6.471124
          ],
          [
            72.243835,
            6.498618
          ],
          [
            72.283984,
            6.521677
          ],
          [
            72.321615,
            6.54339
          ],
          [
            72.364055,
            6.567448
          ],
          [
            72.409392,
            6.593888
          ],
          [
            72.454304,
            6.619561
          ],
          [
            72.500536,
            6.645923
          ],
          [
            72.542941,
            6.670537
          ],
          [
            72.588105,
            6.696446
          ],
          [
            72.629103,
            6.719913
          ],
          [
            72.676924,
            6.747342
          ],
          [
            72.718748,
            6.771537
          ],
          [
            72.760868,
            6.795755
          ],
          [
            72.805082,
            6.820978
          ],
          [
            72.848877,
            6.846523
          ],
          [
            72.890294,
            6.870021
          ],
          [
            72.938727,
            6.898009
          ],
          [
            72.975666,
            6.919089
          ],
          [
            73.022064,
            6.945766
          ],
          [
            73.060012,
            6.967752
          ],
          [
            73.107631,
            6.994799
          ],
          [
            73.154044,
            7.02181
          ],
          [
            73.188338,
            7.041444
          ],
          [
            73.234257,
            7.067955
          ],
          [
            73.282514,
            7.095394
          ],
          [
            73.3144,
            7.113788
          ],
          [
            73.375549,
            7.148772
          ],
          [
            73.409407,
            7.168353
          ],
          [
            73.455227,
            7.194499
          ],
          [
            73.490588,
            7.214954
          ],
          [
            73.534879,
            7.240458
          ],
          [
            73.607554,
            7.282014
          ],
          [
            73.638142,
            7.299676
          ],
          [
            73.682983,
            7.325749
          ],
          [
            73.723607,
            7.348796
          ],
          [
            73.7519,
            7.365243
          ],
          [
            73.798253,
            7.391809
          ],
          [
            73.858441,
            7.426418
          ],
          [
            73.911162,
            7.456619
          ],
          [
            73.944359,
            7.475672
          ],
          [
            73.98412,
            7.498769
          ],
          [
            74.010506,
            7.513917
          ],
          [
            74.043604,
            7.532669
          ],
          [
            74.112269,
            7.572306
          ],
          [
            74.137232,
            7.586695
          ],
          [
            74.218401,
            7.633337
          ],
          [
            74.212868,
            7.63029
          ],
          [
            74.318731,
            7.690944
          ],
          [
            74.364306,
            7.717155
          ],
          [
            74.360444,
            7.715047
          ],
          [
            74.417666,
            7.747642
          ],
          [
            74.472532,
            7.779185
          ],
          [
            74.538907,
            7.81727
          ],
          [
            74.503864,
            7.797369
          ],
          [
            74.62553,
            7.867128
          ],
          [
            74.661683,
            7.888122
          ],
          [
            74.66728,
            7.890882
          ],
          [
            74.700298,
            7.910191
          ],
          [
            74.800576,
            7.967586
          ],
          [
            74.823429,
            7.980847
          ],
          [
            74.84129,
            7.991292
          ],
          [
            74.884309,
            8.015677
          ],
          [
            74.926725,
            8.040495
          ],
          [
            74.966308,
            8.062825
          ],
          [
            75.06322,
            8.118435
          ],
          [
            75.072191,
            8.124016
          ],
          [
            75.098828,
            8.139061
          ],
          [
            75.195172,
            8.194402
          ],
          [
            75.214492,
            8.205708
          ],
          [
            75.27602,
            8.240897
          ]
        ]
      },
      "properties": {
        "mmsi": 419002003,
        "name": "LACCADIVE MONARCH",
        "ship_type": "Cargo",
        "closest_distance_km": 4.37,
        "passes_all_default_filters": false
      }
    },
    {
      "type": "Feature",
      "geometry": {
        "type": "LineString",
        "coordinates": [
          [
            74.926039,
            4.390455
          ],
          [
            74.855221,
            4.474559
          ],
          [
            74.827273,
            4.507695
          ],
          [
            74.760359,
            4.586987
          ],
          [
            74.732832,
            4.619408
          ],
          [
            74.738076,
            4.613022
          ],
          [
            74.70933,
            4.647349
          ],
          [
            74.6213,
            4.751884
          ],
          [
            74.609969,
            4.765475
          ],
          [
            74.58988,
            4.789035
          ],
          [
            74.530025,
            4.860169
          ],
          [
            74.511491,
            4.882348
          ],
          [
            74.448732,
            4.956606
          ],
          [
            74.411486,
            5.000854
          ],
          [
            74.373023,
            5.046387
          ],
          [
            74.306913,
            5.124674
          ],
          [
            74.281309,
            5.155282
          ],
          [
            74.245807,
            5.197527
          ],
          [
            74.214785,
            5.233961
          ],
          [
            74.190882,
            5.262673
          ],
          [
            74.155269,
            5.304653
          ],
          [
            74.097932,
            5.372522
          ],
          [
            74.059002,
            5.418656
          ],
          [
            74.018747,
            5.466633
          ],
          [
            73.965563,
            5.529672
          ],
          [
            73.961108,
            5.534637
          ],
          [
            73.917236,
            5.587179
          ],
          [
            73.870611,
            5.642273
          ],
          [
            73.810602,
            5.713525
          ],
          [
            73.799595,
            5.726812
          ],
          [
            73.769182,
            5.762603
          ],
          [
            73.713769,
            5.828316
          ],
          [
            73.660998,
            5.890955
          ],
          [
            73.627639,
            5.930654
          ],
          [
            73.604612,
            5.958189
          ],
          [
            73.565346,
            6.004512
          ],
          [
            73.50031,
            6.081865
          ],
          [
            73.469406,
            6.11816
          ],
          [
            73.431693,
            6.162625
          ],
          [
            73.408536,
            6.190368
          ],
          [
            73.349968,
            6.259686
          ],
          [
            73.326318,
            6.287754
          ],
          [
            73.277865,
            6.345429
          ],
          [
            73.248,
            6.380629
          ],
          [
            73.194718,
            6.443915
          ],
          [
            73.167476,
            6.476293
          ],
          [
            73.124982,
            6.526578
          ],
          [
            73.089963,
            6.568056
          ],
          [
            73.044465,
            6.622274
          ],
          [
            73.010099,
            6.662737
          ],
          [
            72.970118,
            6.710099
          ],
          [
            72.927789,
            6.760334
          ],
          [
            72.89019,
            6.805112
          ],
          [
            72.850695,
            6.852085
          ],
          [
            72.81329,
            6.89668
          ],
          [
            72.773276,
            6.94379
          ],
          [
            72.735277,
            6.989272
          ],
          [
            72.696077,
            7.035555
          ],
          [
            72.657172,
            7.081189
          ],
          [
            72.618977,
            7.12705
          ],
          [
            72.576755,
            7.176925
          ],
          [
            72.537301,
            7.223687
          ],
          [
            72.500721,
            7.267003
          ],
          [
            72.463693,
            7.310829
          ],
          [
            72.422863,
            7.359331
          ],
          [
            72.37817,
            7.412538
          ],
          [
            72.339706,
            7.458114
          ],
          [
            72.312263,
            7.490589
          ],
          [
            72.261756,
            7.550477
          ],
          [
            72.222284,
            7.597503
          ],
          [
            72.183187,
            7.643937
          ],
          [
            72.148363,
            7.685175
          ],
          [
            72.101309,
            7.740757
          ],
          [
            72.083611,
            7.761747
          ],
          [
            72.039374,
            7.814157
          ],
          [
            71.999445,
            7.861462
          ],
          [
            71.944224,
            7.927191
          ],
          [
            71.903728,
            7.975268
          ],
          [
            71.878196,
            8.005663
          ],
          [
            71.823161,
            8.070906
          ],
          [
            71.792827,
            8.106674
          ],
          [
            71.773636,
            8.129156
          ],
          [
            71.704017,
            8.212132
          ],
          [
            71.681369,
            8.238705
          ],
          [
            71.645474,
            8.281517
          ],
          [
            71.619525,
            8.312154
          ],
          [
            71.569075,
            8.372128
          ],
          [
            71.510951,
            8.44094
          ],
          [
            71.507446,
            8.445213
          ],
          [
            71.435808,
            8.530468
          ],
          [
            71.388091,
            8.586781
          ],
          [
            71.38998,
            8.58473
          ],
          [
            71.319016,
            8.668739
          ],
          [
            71.265283,
            8.732335
          ],
          [
            71.234654,
            8.769004
          ],
          [
            71.192823,
            8.818596
          ],
          [
            71.17271,
            8.842291
          ],
          [
            71.144446,
            8.875585
          ],
          [
            71.115786,
            8.909958
          ],
          [
            71.076209,
            8.956382
          ],
          [
            70.994017,
            9.054182
          ],
          [
            70.954827,
            9.100631
          ],
          [
            70.952318,
            9.103604
          ],
          [
            70.910812,
            9.152924
          ],
          [
            70.841165,
            9.235474
          ],
          [
            70.828292,
            9.250826
          ],
          [
            70.805375,
            9.277834
          ],
          [
            70.724806,
            9.373517
          ],
          [
            70.722223,
            9.376694
          ],
          [
            70.638726,
            9.475779
          ],
          [
            70.585883,
            9.538177
          ],
          [
            70.599864,
            9.521945
          ],
          [
            70.521375,
            9.614756
          ]
        ]
      },
      "properties": {
        "mmsi": 419002004,
        "name": "MALABAR NAVIGATOR",
        "ship_type": "Cargo",
        "closest_distance_km": 6.81,
        "passes_all_default_filters": false
      }
    },
    {
      "type": "Feature",
      "geometry": {
        "type": "LineString",
        "coordinates": [
          [
            72.063549,
            6.934671
          ],
          [
            72.037978,
            6.93894
          ],
          [
            72.01495,
            6.943049
          ],
          [
            72.107887,
            6.926944
          ],
          [
            72.102663,
            6.927883
          ],
          [
            72.117198,
            6.92508
          ],
          [
            72.182859,
            6.913633
          ],
          [
            72.084075,
            6.930903
          ],
          [
            72.1096,
            6.926652
          ],
          [
            72.143223,
            6.920446
          ],
          [
            72.156008,
            6.918415
          ],
          [
            72.187088,
            6.912853
          ],
          [
            72.272584,
            6.89783
          ],
          [
            72.237965,
            6.904073
          ],
          [
            72.29995,
            6.893003
          ],
          [
            72.322109,
            6.889202
          ],
          [
            72.297022,
            6.893489
          ],
          [
            72.299781,
            6.89294
          ],
          [
            72.349825,
            6.884202
          ],
          [
            72.331547,
            6.887448
          ],
          [
            72.344131,
            6.885216
          ],
          [
            72.412499,
            6.873362
          ],
          [
            72.350446,
            6.884255
          ],
          [
            72.410679,
            6.873758
          ],
          [
            72.444155,
            6.867623
          ],
          [
            72.452982,
            6.866349
          ],
          [
            72.437306,
            6.86908
          ],
          [
            72.506823,
            6.856839
          ],
          [
            72.51299,
            6.855825
          ],
          [
            72.494067,
            6.859111
          ],
          [
            72.551563,
            6.849054
          ],
          [
            72.552626,
            6.848557
          ],
          [
            72.583664,
            6.843488
          ],
          [
            72.545028,
            6.850094
          ],
          [
            72.575603,
            6.844595
          ],
          [
            72.591279,
            6.842112
          ],
          [
            72.641158,
            6.833199
          ],
          [
            72.627435,
            6.835782
          ],
          [
            72.634312,
            6.834424
          ],
          [
            72.654174,
            6.830969
          ],
          [
            72.67944,
            6.826345
          ],
          [
            72.692845,
            6.824159
          ],
          [
            72.735832,
            6.816661
          ],
          [
            72.734634,
            6.816804
          ],
          [
            72.808374,
            6.803723
          ],
          [
            72.820109,
            6.802004
          ],
          [
            72.816511,
            6.802601
          ],
          [
            72.837982,
            6.79865
          ],
          [
            72.849597,
            6.796801
          ],
          [
            72.86361,
            6.794266
          ],
          [
            72.884396,
            6.790641
          ],
          [
            72.891885,
            6.789259
          ],
          [
            72.900939,
            6.787806
          ],
          [
            72.913189,
            6.785517
          ],
          [
            72.927902,
            6.782946
          ],
          [
            72.940821,
            6.780731
          ],
          [
            72.952138,
            6.778659
          ],
          [
            72.964207,
            6.776546
          ],
          [
            72.975905,
            6.774646
          ],
          [
            72.986517,
            6.772755
          ],
          [
            73.005484,
            6.769238
          ],
          [
            73.01625,
            6.767525
          ],
          [
            73.024193,
            6.765835
          ],
          [
            73.045669,
            6.762393
          ],
          [
            73.059749,
            6.759842
          ],
          [
            73.063619,
            6.758915
          ],
          [
            73.066789,
            6.758614
          ],
          [
            73.089871,
            6.754449
          ],
          [
            73.102014,
            6.752365
          ],
          [
            73.160564,
            6.74229
          ],
          [
            73.184118,
            6.738071
          ],
          [
            73.183831,
            6.73819
          ],
          [
            73.214038,
            6.732752
          ],
          [
            73.24852,
            6.726761
          ],
          [
            73.234874,
            6.729216
          ],
          [
            73.284703,
            6.720085
          ],
          [
            73.264805,
            6.723635
          ],
          [
            73.309582,
            6.715893
          ],
          [
            73.336414,
            6.711336
          ],
          [
            73.339047,
            6.710747
          ],
          [
            73.336299,
            6.711249
          ],
          [
            73.343864,
            6.71006
          ],
          [
            73.391235,
            6.70169
          ],
          [
            73.420481,
            6.69651
          ],
          [
            73.381357,
            6.703156
          ],
          [
            73.436069,
            6.693806
          ],
          [
            73.440755,
            6.69296
          ],
          [
            73.47337,
            6.687129
          ],
          [
            73.478651,
            6.686389
          ],
          [
            73.479706,
            6.685867
          ],
          [
            73.50771,
            6.681127
          ],
          [
            73.538719,
            6.675653
          ],
          [
            73.566934,
            6.670939
          ],
          [
            73.528611,
            6.677439
          ],
          [
            73.561774,
            6.671637
          ],
          [
            73.570958,
            6.669879
          ],
          [
            73.600287,
            6.664937
          ],
          [
            73.66532,
            6.653348
          ],
          [
            73.653007,
            6.6556
          ],
          [
            73.661136,
            6.654236
          ],
          [
            73.657152,
            6.65477
          ],
          [
            73.694794,
            6.64849
          ],
          [
            73.694052,
            6.648273
          ],
          [
            73.771721,
            6.634883
          ],
          [
            73.748102,
            6.639102
          ],
          [
            73.806725,
            6.62879
          ],
          [
            73.760202,
            6.63681
          ],
          [
            73.754554,
            6.637827
          ],
          [
            73.810194,
            6.628162
          ],
          [
            73.890192,
            6.614079
          ],
          [
            73.906292,
            6.611186
          ],
          [
            73.837417,
            6.623488
          ],
          [
            73.834011,
            6.623896
          ]
        ]
      },
      "properties": {
        "mmsi": 419002005,
        "name": "BLUE FIN 3",
        "ship_type": "Fishing",
        "closest_distance_km": 12.65,
        "passes_all_default_filters": false
      }
    },
    {
      "type": "Feature",
      "geometry": {
        "type": "LineString",
        "coordinates": [
          [
            73.282716,
            10.520672
          ],
          [
            73.281671,
            10.514282
          ],
          [
            73.271038,
            10.454198
          ],
          [
            73.25129,
            10.342719
          ],
          [
            73.242943,
            10.295144
          ],
          [
            73.236374,
            10.259406
          ],
          [
            73.231059,
            10.228427
          ],
          [
            73.222848,
            10.181889
          ],
          [
            73.20537,
            10.085019
          ],
          [
            73.188804,
            9.989917
          ],
          [
            73.18321,
            9.958327
          ],
          [
            73.167641,
            9.870495
          ],
          [
            73.156476,
            9.808833
          ],
          [
            73.146257,
            9.749022
          ],
          [
            73.123837,
            9.623903
          ],
          [
            73.113157,
            9.563677
          ],
          [
            73.112742,
            9.56038
          ],
          [
            73.100032,
            9.489954
          ],
          [
            73.079748,
            9.374391
          ],
          [
            73.073184,
            9.338437
          ],
          [
            73.067685,
            9.307004
          ],
          [
            73.053851,
            9.228419
          ],
          [
            73.040754,
            9.155472
          ],
          [
            73.022621,
            9.05303
          ],
          [
            73.021265,
            9.045125
          ],
          [
            72.999087,
            8.920046
          ],
          [
            72.989627,
            8.865662
          ],
          [
            72.977062,
            8.794683
          ],
          [
            72.966884,
            8.737259
          ],
          [
            72.961865,
            8.71005
          ],
          [
            72.942494,
            8.600556
          ],
          [
            72.932697,
            8.544772
          ],
          [
            72.918757,
            8.46518
          ],
          [
            72.912086,
            8.428082
          ],
          [
            72.899342,
            8.356071
          ],
          [
            72.886915,
            8.287484
          ],
          [
            72.874263,
            8.215994
          ],
          [
            72.865812,
            8.166995
          ],
          [
            72.85546,
            8.107857
          ],
          [
            72.842972,
            8.039059
          ],
          [
            72.831952,
            7.975786
          ],
          [
            72.819724,
            7.906836
          ],
          [
            72.805783,
            7.827589
          ],
          [
            72.796259,
            7.773735
          ],
          [
            72.780635,
            7.685582
          ],
          [
            72.770182,
            7.626553
          ],
          [
            72.761037,
            7.575244
          ],
          [
            72.745157,
            7.487203
          ],
          [
            72.73749,
            7.441827
          ],
          [
            72.724286,
            7.367496
          ],
          [
            72.713143,
            7.306277
          ],
          [
            72.699856,
            7.230554
          ],
          [
            72.688757,
            7.167293
          ],
          [
            72.677938,
            7.106335
          ],
          [
            72.6657,
            7.037058
          ],
          [
            72.654171,
            6.973676
          ],
          [
            72.642419,
            6.907091
          ],
          [
            72.630913,
            6.841903
          ],
          [
            72.619713,
            6.777325
          ],
          [
            72.607734,
            6.711825
          ],
          [
            72.595596,
            6.643189
          ],
          [
            72.585203,
            6.583599
          ],
          [
            72.572852,
            6.51345
          ],
          [
            72.56189,
            6.450786
          ],
          [
            72.550119,
            6.386116
          ],
          [
            72.539423,
            6.324366
          ],
          [
            72.525813,
            6.248101
          ],
          [
            72.514829,
            6.185895
          ],
          [
            72.504568,
            6.127659
          ],
          [
            72.489225,
            6.041685
          ],
          [
            72.478512,
            5.980954
          ],
          [
            72.47097,
            5.9387
          ],
          [
            72.455893,
            5.853846
          ],
          [
            72.44457,
            5.790197
          ],
          [
            72.432559,
            5.721706
          ],
          [
            72.419024,
            5.645449
          ],
          [
            72.410308,
            5.596208
          ],
          [
            72.395463,
            5.512833
          ],
          [
            72.383679,
            5.445922
          ],
          [
            72.379441,
            5.422998
          ],
          [
            72.358078,
            5.302646
          ],
          [
            72.347026,
            5.239134
          ],
          [
            72.337302,
            5.183261
          ],
          [
            72.32701,
            5.124994
          ],
          [
            72.318497,
            5.077323
          ],
          [
            72.306906,
            5.012378
          ],
          [
            72.293063,
            4.934938
          ],
          [
            72.286366,
            4.896683
          ],
          [
            72.266997,
            4.788422
          ],
          [
            72.265684,
            4.779527
          ],
          [
            72.246585,
            4.67148
          ],
          [
            72.239248,
            4.631233
          ],
          [
            72.21683,
            4.505216
          ],
          [
            72.207334,
            4.450022
          ],
          [
            72.194113,
            4.376502
          ],
          [
            72.195788,
            4.385079
          ],
          [
            72.173879,
            4.261101
          ],
          [
            72.167333,
            4.22541
          ],
          [
            72.147406,
            4.112218
          ],
          [
            72.146482,
            4.10679
          ],
          [
            72.134351,
            4.038363
          ],
          [
            72.122553,
            3.972847
          ],
          [
            72.10425,
            3.869157
          ],
          [
            72.105066,
            3.872742
          ],
          [
            72.075637,
            3.707532
          ],
          [
            72.072922,
            3.691185
          ],
          [
            72.057212,
            3.603844
          ],
          [
            72.051202,
            3.569537
          ],
          [
            72.032129,
            3.460945
          ],
          [
            72.030857,
            3.453958
          ],
          [
            72.004917,
            3.307119
          ],
          [
            72.00139,
            3.288677
          ],
          [
            71.998651,
            3.271889
          ]
        ]
      },
      "properties": {
        "mmsi": 419002006,
        "name": "ORIENT RUNNER",
        "ship_type": "Cargo",
        "closest_distance_km": 25.75,
        "passes_all_default_filters": false
      }
    },
    {
      "type": "Feature",
      "geometry": {
        "type": "LineString",
        "coordinates": [
          [
            72.143963,
            5.560836
          ],
          [
            72.20334,
            5.663296
          ],
          [
            72.188392,
            5.638106
          ],
          [
            72.191707,
            5.643504
          ],
          [
            72.223986,
            5.699361
          ],
          [
            72.207215,
            5.669694
          ],
          [
            72.221102,
            5.693629
          ],
          [
            72.264861,
            5.769385
          ],
          [
            72.294961,
            5.821576
          ],
          [
            72.274484,
            5.786076
          ],
          [
            72.312474,
            5.85153
          ],
          [
            72.318289,
            5.861167
          ],
          [
            72.3334,
            5.887557
          ],
          [
            72.352161,
            5.91997
          ],
          [
            72.373365,
            5.956622
          ],
          [
            72.349945,
            5.916316
          ],
          [
            72.403382,
            6.008358
          ],
          [
            72.383308,
            5.973633
          ],
          [
            72.404486,
            6.009928
          ],
          [
            72.405103,
            6.011374
          ],
          [
            72.455257,
            6.098112
          ],
          [
            72.444477,
            6.078892
          ],
          [
            72.465624,
            6.115998
          ],
          [
            72.500703,
            6.175938
          ],
          [
            72.488015,
            6.154401
          ],
          [
            72.495162,
            6.166305
          ],
          [
            72.540463,
            6.244735
          ],
          [
            72.531381,
            6.228975
          ],
          [
            72.549624,
            6.260773
          ],
          [
            72.561097,
            6.279998
          ],
          [
            72.583603,
            6.319535
          ],
          [
            72.580337,
            6.313239
          ],
          [
            72.591139,
            6.332123
          ],
          [
            72.627409,
            6.394382
          ],
          [
            72.622111,
            6.38537
          ],
          [
            72.647841,
            6.429662
          ],
          [
            72.645832,
            6.426046
          ],
          [
            72.66352,
            6.456587
          ],
          [
            72.679366,
            6.484009
          ],
          [
            72.697566,
            6.515622
          ],
          [
            72.719069,
            6.552575
          ],
          [
            72.720884,
            6.555437
          ],
          [
            72.746634,
            6.600373
          ],
          [
            72.758175,
            6.619819
          ],
          [
            72.857534,
            6.791329
          ],
          [
            72.857552,
            6.791362
          ],
          [
            72.875267,
            6.822084
          ],
          [
            72.87043,
            6.813308
          ],
          [
            72.879309,
            6.829003
          ],
          [
            72.890787,
            6.848203
          ],
          [
            72.894523,
            6.855253
          ],
          [
            72.898416,
            6.861208
          ],
          [
            72.904959,
            6.872641
          ],
          [
            72.913782,
            6.887919
          ],
          [
            72.918618,
            6.896307
          ],
          [
            72.924047,
            6.906306
          ],
          [
            72.930172,
            6.916633
          ],
          [
            72.936037,
            6.926764
          ],
          [
            72.942601,
            6.938206
          ],
          [
            72.948917,
            6.948716
          ],
          [
            72.95244,
            6.954533
          ],
          [
            72.961293,
            6.970299
          ],
          [
            72.963554,
            6.973909
          ],
          [
            72.971287,
            6.987466
          ],
          [
            72.975616,
            6.99471
          ],
          [
            72.983707,
            7.008627
          ],
          [
            72.985694,
            7.012301
          ],
          [
            72.995315,
            7.028719
          ],
          [
            72.996919,
            7.03137
          ],
          [
            73.114717,
            7.234808
          ],
          [
            73.118471,
            7.241015
          ],
          [
            73.134097,
            7.267829
          ],
          [
            73.146103,
            7.288941
          ],
          [
            73.156212,
            7.305893
          ],
          [
            73.177032,
            7.342119
          ],
          [
            73.183945,
            7.354183
          ],
          [
            73.205229,
            7.390817
          ],
          [
            73.211669,
            7.401557
          ],
          [
            73.242519,
            7.454837
          ],
          [
            73.255939,
            7.478001
          ],
          [
            73.270618,
            7.503627
          ],
          [
            73.276456,
            7.513303
          ],
          [
            73.275626,
            7.51166
          ],
          [
            73.29391,
            7.543248
          ],
          [
            73.314436,
            7.578722
          ],
          [
            73.326534,
            7.599892
          ],
          [
            73.346097,
            7.633526
          ],
          [
            73.359561,
            7.65654
          ],
          [
            73.361942,
            7.660629
          ],
          [
            73.36854,
            7.67201
          ],
          [
            73.40529,
            7.734937
          ],
          [
            73.405446,
            7.735669
          ],
          [
            73.438985,
            7.793575
          ],
          [
            73.447233,
            7.807418
          ],
          [
            73.448767,
            7.810732
          ],
          [
            73.473892,
            7.853864
          ],
          [
            73.48196,
            7.867093
          ],
          [
            73.497226,
            7.893711
          ],
          [
            73.525961,
            7.943769
          ],
          [
            73.502176,
            7.90245
          ],
          [
            73.53323,
            7.956057
          ],
          [
            73.536291,
            7.961313
          ],
          [
            73.555849,
            7.995247
          ],
          [
            73.546461,
            7.978445
          ],
          [
            73.559936,
            8.002448
          ],
          [
            73.585135,
            8.045648
          ],
          [
            73.609336,
            8.087216
          ],
          [
            73.636561,
            8.134178
          ],
          [
            73.65804,
            8.170743
          ],
          [
            73.660964,
            8.17648
          ],
          [
            73.69754,
            8.239351
          ],
          [
            73.655167,
            8.165894
          ],
          [
            73.67308,
            8.197244
          ]
        ]
      },
      "properties": {
        "mmsi": 419002007,
        "name": "PETRO CHEVRON",
        "ship_type": "Oil Tanker",
        "closest_distance_km": 4.53,
        "passes_all_default_filters": true
      }
    },
    {
      "type": "Feature",
      "geometry": {
        "type": "LineString",
        "coordinates": [
          [
            76.835349,
            7.794945
          ],
          [
            76.759493,
            7.781499
          ],
          [
            76.656821,
            7.763712
          ],
          [
            76.632546,
            7.759503
          ],
          [
            76.476146,
            7.732074
          ],
          [
            76.433303,
            7.724384
          ],
          [
            76.42811,
            7.723474
          ],
          [
            76.322847,
            7.705039
          ],
          [
            76.220904,
            7.687241
          ],
          [
            76.203161,
            7.684094
          ],
          [
            76.107502,
            7.66707
          ],
          [
            75.979814,
            7.644747
          ],
          [
            75.971351,
            7.643327
          ],
          [
            75.839542,
            7.620162
          ],
          [
            75.820175,
            7.616855
          ],
          [
            75.784588,
            7.610565
          ],
          [
            75.626139,
            7.582666
          ],
          [
            75.546344,
            7.568712
          ],
          [
            75.483479,
            7.557795
          ],
          [
            75.445883,
            7.551089
          ],
          [
            75.365648,
            7.53716
          ],
          [
            75.264995,
            7.519154
          ],
          [
            75.211404,
            7.509863
          ],
          [
            75.129743,
            7.495591
          ],
          [
            75.105477,
            7.491414
          ],
          [
            74.982984,
            7.469958
          ],
          [
            74.930229,
            7.460774
          ],
          [
            74.884051,
            7.452493
          ],
          [
            74.768565,
            7.432357
          ],
          [
            74.710325,
            7.422225
          ],
          [
            74.641947,
            7.410153
          ],
          [
            74.610005,
            7.404546
          ],
          [
            74.525804,
            7.389686
          ],
          [
            74.44713,
            7.375911
          ],
          [
            74.343378,
            7.35753
          ],
          [
            74.268005,
            7.344356
          ],
          [
            74.220836,
            7.336038
          ],
          [
            74.136933,
            7.32128
          ],
          [
            74.095999,
            7.314315
          ],
          [
            74.022027,
            7.301319
          ],
          [
            73.949596,
            7.288696
          ],
          [
            73.871776,
            7.274751
          ],
          [
            73.797409,
            7.261908
          ],
          [
            73.713386,
            7.247118
          ],
          [
            73.639179,
            7.23402
          ],
          [
            73.579875,
            7.223477
          ],
          [
            73.491842,
            7.208376
          ],
          [
            73.435059,
            7.198194
          ],
          [
            73.358606,
            7.184888
          ],
          [
            73.280167,
            7.171122
          ],
          [
            73.202204,
            7.157398
          ],
          [
            73.13569,
            7.145593
          ],
          [
            73.067787,
            7.133705
          ],
          [
            72.99279,
            7.12062
          ],
          [
            72.920959,
            7.107857
          ],
          [
            72.848622,
            7.095325
          ],
          [
            72.775725,
            7.082534
          ],
          [
            72.702721,
            7.069579
          ],
          [
            72.633318,
            7.057615
          ],
          [
            72.556338,
            7.043921
          ],
          [
            72.489973,
            7.032297
          ],
          [
            72.419255,
            7.019938
          ],
          [
            72.340153,
            7.005967
          ],
          [
            72.267369,
            6.993114
          ],
          [
            72.2061,
            6.982438
          ],
          [
            72.137665,
            6.970606
          ],
          [
            72.042246,
            6.9538
          ],
          [
            71.994093,
            6.945292
          ],
          [
            71.922131,
            6.932625
          ],
          [
            71.849801,
            6.920125
          ],
          [
            71.778447,
            6.907734
          ],
          [
            71.692668,
            6.892251
          ],
          [
            71.624017,
            6.880491
          ],
          [
            71.564184,
            6.869863
          ],
          [
            71.461117,
            6.851687
          ],
          [
            71.393247,
            6.839958
          ],
          [
            71.309951,
            6.825247
          ],
          [
            71.272474,
            6.818549
          ],
          [
            71.183391,
            6.80311
          ],
          [
            71.105802,
            6.789599
          ],
          [
            71.056209,
            6.780774
          ],
          [
            70.95678,
            6.763268
          ],
          [
            70.874546,
            6.74907
          ],
          [
            70.853894,
            6.745257
          ],
          [
            70.754083,
            6.727905
          ],
          [
            70.65272,
            6.709787
          ],
          [
            70.606555,
            6.701792
          ],
          [
            70.519373,
            6.686722
          ],
          [
            70.505426,
            6.683955
          ],
          [
            70.432798,
            6.67117
          ],
          [
            70.322419,
            6.652047
          ],
          [
            70.257983,
            6.640798
          ],
          [
            70.175338,
            6.626247
          ],
          [
            70.123816,
            6.617169
          ],
          [
            70.005392,
            6.596384
          ],
          [
            69.949363,
            6.58665
          ],
          [
            69.933122,
            6.583742
          ],
          [
            69.782652,
            6.557125
          ],
          [
            69.752659,
            6.551983
          ],
          [
            69.694044,
            6.541803
          ],
          [
            69.643017,
            6.532838
          ],
          [
            69.566801,
            6.519573
          ],
          [
            69.424894,
            6.494603
          ],
          [
            69.428361,
            6.495228
          ],
          [
            69.266868,
            6.466901
          ],
          [
            69.203393,
            6.455559
          ],
          [
            69.142216,
            6.444944
          ],
          [
            69.102151,
            6.437797
          ],
          [
            69.015652,
            6.422638
          ],
          [
            69.004355,
            6.420705
          ],
          [
            68.916157,
            6.405249
          ],
          [
            68.75853,
            6.377452
          ],
          [
            68.752153,
            6.376262
          ]
        ]
      },
      "properties": {
        "mmsi": 419002008,
        "name": "ISLAND QUEEN",
        "ship_type": "Passenger",
        "closest_distance_km": 21.16,
        "passes_all_default_filters": false
      }
    }
  ]
}