{
  "type": "FeatureCollection",
  "features": [
    {
      "type": "Feature",
      "geometry": {
        "type": "LineString",
        "coordinates": [
          [
            75.638748,
            11.003073
          ],
          [
            75.687688,
            10.955283
          ],
          [
            75.629774,
            11.012001
          ],
          [
            75.719957,
            10.923204
          ],
          [
            75.726949,
            10.916363
          ],
          [
            75.686131,
            10.956577
          ],
          [
            75.670053,
            10.972422
          ],
          [
            75.687601,
            10.955004
          ],
          [
            75.673101,
            10.969269
          ],
          [
            75.754133,
            10.889812
          ],
          [
            75.702246,
            10.940876
          ],
          [
            75.69688,
            10.946031
          ],
          [
            75.716666,
            10.926749
          ],
          [
            75.743842,
            10.899678
          ],
          [
            75.77779,
            10.866067
          ],
          [
            75.784495,
            10.859462
          ],
          [
            75.762622,
            10.881161
          ],
          [
            75.800374,
            10.844138
          ],
          [
            75.777133,
            10.866879
          ],
          [
            75.779573,
            10.864377
          ],
          [
            75.770715,
            10.873368
          ],
          [
            75.798294,
            10.846355
          ],
          [
            75.833693,
            10.81096
          ],
          [
            75.838641,
            10.806403
          ],
          [
            75.810652,
            10.833916
          ],
          [
            75.84545,
            10.799783
          ],
          [
            75.859812,
            10.785402
          ],
          [
            75.867109,
            10.778478
          ],
          [
            75.867333,
            10.77815
          ],
          [
            75.868913,
            10.776167
          ],
          [
            75.895347,
            10.750622
          ],
          [
            75.887944,
            10.757532
          ],
          [
            75.870807,
            10.774839
          ],
          [
            75.884653,
            10.760888
          ],
          [
            75.899657,
            10.746132
          ],
          [
            75.909057,
            10.736763
          ],
          [
            75.923676,
            10.722867
          ],
          [
            75.937273,
            10.70901
          ],
          [
            75.92341,
            10.722868
          ],
          [
            75.939909,
            10.706445
          ],
          [
            75.944336,
            10.702301
          ],
          [
            75.958343,
            10.688101
          ],
          [
            75.97892,
            10.668411
          ],
          [
            75.966266,
            10.68031
          ],
          [
            75.991282,
            10.655921
          ],
          [
            76.005943,
            10.641388
          ],
          [
            76.006763,
            10.640491
          ],
          [
            76.016864,
            10.630747
          ],
          [
            76.024615,
            10.622954
          ],
          [
            76.026513,
            10.62099
          ],
          [
            76.0301,
            10.617684
          ],
          [
            76.041164,
            10.606484
          ],
          [
            76.048464,
            10.599479
          ],
          [
            76.054946,
            10.593041
          ],
          [
            76.060483,
            10.588008
          ],
          [
            76.066182,
            10.582049
          ],
          [
            76.071498,
            10.576873
          ],
          [
            76.077543,
            10.570992
          ],
          [
            76.084222,
            10.564025
          ],
          [
            76.088874,
            10.559679
          ],
          [
            76.097074,
            10.551902
          ],
          [
            76.09755,
            10.55107
          ],
          [
            76.110961,
            10.537732
          ],
          [
            76.112438,
            10.536381
          ],
          [
            76.115537,
            10.533591
          ],
          [
            76.130781,
            10.518264
          ],
          [
            76.140249,
            10.509409
          ],
          [
            76.145363,
            10.504057
          ],
          [
            76.142715,
            10.506506
          ],
          [
            76.158375,
            10.491369
          ],
          [
            76.17003,
            10.479834
          ],
          [
            76.181544,
            10.468769
          ],
          [
            76.192352,
            10.45769
          ],
          [
            76.192196,
            10.458111
          ],
          [
            76.207021,
            10.443206
          ],
          [
            76.216318,
            10.434259
          ],
          [
            76.208326,
            10.442014
          ],
          [
            76.216491,
            10.434055
          ],
          [
            76.225435,
            10.425135
          ],
          [
            76.232779,
            10.41798
          ],
          [
            76.247205,
            10.40372
          ],
          [
            76.277723,
            10.373566
          ],
          [
            76.253502,
            10.397497
          ],
          [
            76.263507,
            10.387636
          ],
          [
            76.259298,
            10.391939
          ],
          [
            76.313725,
            10.337833
          ],
          [
            76.283029,
            10.368694
          ],
          [
            76.323933,
            10.32787
          ],
          [
            76.329655,
            10.322543
          ],
          [
            76.346569,
            10.305615
          ],
          [
            76.344804,
            10.307471
          ],
          [
            76.360274,
            10.291943
          ],
          [
            76.314885,
            10.336906
          ],
          [
            76.354659,
            10.297745
          ],
          [
            76.364438,
            10.288038
          ],
          [
            76.390955,
            10.26198
          ],
          [
            76.364558,
            10.287733
          ],
          [
            76.397553,
            10.25546
          ],
          [
            76.403327,
            10.249801
          ],
          [
            76.354997,
            10.297423
          ],
          [
            76.43214,
            10.221562
          ],
          [
            76.414114,
            10.23889
          ],
          [
            76.399376,
            10.253979
          ],
          [
            76.452839,
            10.201057
          ],
          [
            76.408572,
            10.244591
          ],
          [
            76.471302,
            10.182825
          ],
          [
            76.414136,
            10.239471
          ],
          [
            76.496152,
            10.158599
          ],
          [
            76.415528,
            10.237813
          ],
          [
            76.508484,
            10.146434
          ],
          [
            76.505071,
            10.149554
          ],
          [
            76.443818,
            10.210193
          ],
          [
            76.461912,
            10.19218
          ]
        ]
      },
      "properties": {
        "mmsi": 419001001,
        "name": "DESERT STAR",
        "ship_type": "Oil Tanker",
        "closest_distance_km": 3.1,
        "passes_all_default_filters": true
      }
    },
    {
      "type": "Feature",
      "geometry": {
        "type": "LineString",
        "coordinates": [
          [
            77.323363,
            11.922888
          ],
          [
            77.276739,
            11.867837
          ],
          [
            77.329771,
            11.930459
          ],
          [
            77.288462,
            11.881382
          ],
          [
            77.257222,
            11.845312
          ],
          [
            77.271866,
            11.86181
          ],
          [
            77.191685,
            11.767853
          ],
          [
            77.207392,
            11.786303
          ],
          [
            77.168278,
            11.740404
          ],
          [
            77.126621,
            11.691876
          ],
          [
            77.155882,
            11.725838
          ],
          [
            77.119836,
            11.68372
          ],
          [
            77.049485,
            11.601103
          ],
          [
            77.045705,
            11.596554
          ],
          [
            77.023215,
            11.570069
          ],
          [
            77.008514,
            11.552928
          ],
          [
            76.988332,
            11.529223
          ],
          [
            76.997243,
            11.539736
          ],
          [
            76.952857,
            11.487364
          ],
          [
            76.924067,
            11.453607
          ],
          [
            76.904327,
            11.430573
          ],
          [
            76.883347,
            11.405841
          ],
          [
            76.844717,
            11.360273
          ],
          [
            76.848562,
            11.364748
          ],
          [
            76.832536,
            11.346338
          ],
          [
            76.782497,
            11.287297
          ],
          [
            76.774681,
            11.278527
          ],
          [
            76.750162,
            11.249583
          ],
          [
            76.741453,
            11.239276
          ],
          [
            76.717823,
            11.211088
          ],
          [
            76.700532,
            11.190973
          ],
          [
            76.654174,
            11.136819
          ],
          [
            76.628179,
            11.105848
          ],
          [
            76.622335,
            11.09929
          ],
          [
            76.619843,
            11.096147
          ],
          [
            76.593914,
            11.065808
          ],
          [
            76.558862,
            11.024805
          ],
          [
            76.549243,
            11.013507
          ],
          [
            76.508199,
            10.965023
          ],
          [
            76.50089,
            10.956554
          ],
          [
            76.465769,
            10.915285
          ],
          [
            76.44443,
            10.890198
          ],
          [
            76.420082,
            10.861492
          ],
          [
            76.410858,
            10.850727
          ],
          [
            76.248548,
            10.66032
          ],
          [
            76.236108,
            10.645727
          ],
          [
            76.230475,
            10.639006
          ],
          [
            76.215041,
            10.620732
          ],
          [
            76.210017,
            10.614888
          ],
          [
            76.195298,
            10.597749
          ],
          [
            76.186776,
            10.587682
          ],
          [
            76.174964,
            10.573676
          ],
          [
            76.166261,
            10.563685
          ],
          [
            76.154791,
            10.549887
          ],
          [
            76.143059,
            10.536241
          ],
          [
            76.133334,
            10.525119
          ],
          [
            76.123876,
            10.51366
          ],
          [
            76.114174,
            10.502194
          ],
          [
            76.103801,
            10.490147
          ],
          [
            76.093967,
            10.478712
          ],
          [
            76.082305,
            10.465226
          ],
          [
            76.071134,
            10.451875
          ],
          [
            76.059364,
            10.438331
          ],
          [
            76.05697,
            10.435234
          ],
          [
            76.038997,
            10.414245
          ],
          [
            76.027935,
            10.401357
          ],
          [
            76.018766,
            10.390605
          ],
          [
            76.00446,
            10.373892
          ],
          [
            76.009368,
            10.379128
          ],
          [
            75.831705,
            10.17047
          ],
          [
            75.82932,
            10.167828
          ],
          [
            75.807729,
            10.142396
          ],
          [
            75.773689,
            10.102091
          ],
          [
            75.746515,
            10.070525
          ],
          [
            75.736374,
            10.058718
          ],
          [
            75.699914,
            10.016132
          ],
          [
            75.674269,
            9.985596
          ],
          [
            75.660421,
            9.969294
          ],
          [
            75.629114,
            9.932422
          ],
          [
            75.622491,
            9.924904
          ],
          [
            75.593311,
            9.890349
          ],
          [
            75.567145,
            9.859528
          ],
          [
            75.569636,
            9.862733
          ],
          [
            75.542463,
            9.83053
          ],
          [
            75.529901,
            9.815873
          ],
          [
            75.501149,
            9.782415
          ],
          [
            75.482904,
            9.760521
          ],
          [
            75.470983,
            9.747019
          ],
          [
            75.414895,
            9.681055
          ],
          [
            75.406899,
            9.671964
          ],
          [
            75.400184,
            9.663937
          ],
          [
            75.35845,
            9.614725
          ],
          [
            75.345658,
            9.599903
          ],
          [
            75.307279,
            9.554672
          ],
          [
            75.321227,
            9.571085
          ],
          [
            75.273733,
            9.515498
          ],
          [
            75.272987,
            9.514257
          ],
          [
            75.200717,
            9.429597
          ],
          [
            75.23817,
            9.47348
          ],
          [
            75.211673,
            9.442142
          ],
          [
            75.18366,
            9.409614
          ],
          [
            75.131374,
            9.347715
          ],
          [
            75.124686,
            9.340296
          ],
          [
            75.104453,
            9.316542
          ],
          [
            75.115595,
            9.329691
          ],
          [
            75.032855,
            9.232482
          ],
          [
            75.026327,
            9.224641
          ],
          [
            75.010254,
            9.205466
          ],
          [
            75.025933,
            9.224248
          ],
          [
            74.946692,
            9.130999
          ],
          [
            74.954568,
            9.140178
          ],
          [
            74.884437,
            9.057862
          ],
          [
            74.896761,
            9.072358
          ]
        ]
      },
      "properties": {
        "mmsi": 419001002,
        "name": "ARABIAN PEARL",
        "ship_type": "Product Tanker",
        "closest_distance_km": 8.38,
        "passes_all_default_filters": true
      }
    },
    {
      "type": "Feature",
      "geometry": {
        "type": "LineString",
        "coordinates": [
          [
            74.097197,
            8.574559
          ],
          [
            74.135819,
            8.612839
          ],
          [
            74.184738,
            8.660958
          ],
          [
            74.190835,
            8.666835
          ],
          [
            74.18643,
            8.66259
          ],
          [
            74.200937,
            8.677046
          ],
          [
            74.259553,
            8.734953
          ],
          [
            74.304659,
            8.779103
          ],
          [
            74.314535,
            8.788899
          ],
          [
            74.393408,
            8.866745
          ],
          [
            74.429053,
            8.901579
          ],
          [
            74.429794,
            8.90271
          ],
          [
            74.480594,
            8.952614
          ],
          [
            74.519806,
            8.991274
          ],
          [
            74.579958,
            9.050582
          ],
          [
            74.578085,
            9.048668
          ],
          [
            74.605247,
            9.075543
          ],
          [
            74.634301,
            9.104017
          ],
          [
            74.658218,
            9.1275
          ],
          [
            74.711808,
            9.180635
          ],
          [
            74.765176,
            9.232941
          ],
          [
            74.767288,
            9.235012
          ],
          [
            74.837082,
            9.303997
          ],
          [
            74.855378,
            9.32203
          ],
          [
            74.902897,
            9.369034
          ],
          [
            74.926419,
            9.392124
          ],
          [
            74.959127,
            9.424314
          ],
          [
            75.003158,
            9.467675
          ],
          [
            75.017257,
            9.48138
          ],
          [
            75.044039,
            9.50781
          ],
          [
            75.116741,
            9.579712
          ],
          [
            75.145129,
            9.607387
          ],
          [
            75.165743,
            9.627503
          ],
          [
            75.184984,
            9.646959
          ],
          [
            75.223527,
            9.684724
          ],
          [
            75.270721,
            9.7311
          ],
          [
            75.288091,
            9.748319
          ],
          [
            75.343642,
            9.803357
          ],
          [
            75.361712,
            9.821234
          ],
          [
            75.399754,
            9.858288
          ],
          [
            75.442489,
            9.900825
          ],
          [
            75.482792,
            9.940171
          ],
          [
            75.511824,
            9.96879
          ],
          [
            75.549552,
            10.006133
          ],
          [
            75.581136,
            10.037308
          ],
          [
            75.610672,
            10.0665
          ],
          [
            75.644206,
            10.099138
          ],
          [
            75.680067,
            10.13493
          ],
          [
            75.715644,
            10.169763
          ],
          [
            75.752235,
            10.205701
          ],
          [
            75.78573,
            10.238899
          ],
          [
            75.821445,
            10.274125
          ],
          [
            75.853768,
            10.305857
          ],
          [
            75.891725,
            10.343166
          ],
          [
            75.924692,
            10.375872
          ],
          [
            75.957941,
            10.408622
          ],
          [
            75.992891,
            10.442909
          ],
          [
            76.027458,
            10.477469
          ],
          [
            76.060174,
            10.509267
          ],
          [
            76.098579,
            10.547356
          ],
          [
            76.127573,
            10.575713
          ],
          [
            76.164336,
            10.611958
          ],
          [
            76.194087,
            10.641561
          ],
          [
            76.231872,
            10.678446
          ],
          [
            76.26862,
            10.715065
          ],
          [
            76.295433,
            10.741345
          ],
          [
            76.331766,
            10.777358
          ],
          [
            76.370068,
            10.814799
          ],
          [
            76.394909,
            10.839248
          ],
          [
            76.4438,
            10.887356
          ],
          [
            76.470236,
            10.913504
          ],
          [
            76.506535,
            10.949063
          ],
          [
            76.534171,
            10.976496
          ],
          [
            76.569201,
            11.01106
          ],
          [
            76.627656,
            11.068401
          ],
          [
            76.651353,
            11.09191
          ],
          [
            76.686794,
            11.127232
          ],
          [
            76.718854,
            11.158393
          ],
          [
            76.740667,
            11.180129
          ],
          [
            76.777392,
            11.216254
          ],
          [
            76.825526,
            11.263712
          ],
          [
            76.867518,
            11.304964
          ],
          [
            76.893362,
            11.330489
          ],
          [
            76.924626,
            11.36161
          ],
          [
            76.944894,
            11.381557
          ],
          [
            76.970745,
            11.406638
          ],
          [
            77.025855,
            11.461158
          ],
          [
            77.044919,
            11.480049
          ],
          [
            77.110339,
            11.54455
          ],
          [
            77.104269,
            11.538732
          ],
          [
            77.190101,
            11.623054
          ],
          [
            77.226189,
            11.658632
          ],
          [
            77.221454,
            11.654207
          ],
          [
            77.267186,
            11.698885
          ],
          [
            77.31094,
            11.742
          ],
          [
            77.364131,
            11.794465
          ],
          [
            77.333766,
            11.764719
          ],
          [
            77.432552,
            11.86201
          ],
          [
            77.460883,
            11.890113
          ],
          [
            77.464049,
            11.892672
          ],
          [
            77.489718,
            11.918447
          ],
          [
            77.570929,
            11.998202
          ],
          [
            77.588312,
            12.015383
          ],
          [
            77.601488,
            12.028681
          ],
          [
            77.635487,
            12.0618
          ],
          [
            77.668933,
            12.095283
          ],
          [
            77.70014,
            12.125475
          ],
          [
            77.778532,
            12.202702
          ],
          [
            77.784411,
            12.208976
          ],
          [
            77.804862,
            12.228911
          ],
          [
            77.882843,
            12.305658
          ],
          [
            77.897233,
            12.320151
          ],
          [
            77.946477,
            12.368501
          ]
        ]
      },
      "properties": {
        "mmsi": 419001003,
        "name": "GULF EXPRESS",
        "ship_type": "Cargo",
        "closest_distance_km": 4.61,
        "passes_all_default_filters": false
      }
    },
    {
      "type": "Feature",
      "geometry": {
        "type": "LineString",
        "coordinates": [
          [
            78.658132,
            8.420622
          ],
          [
            78.571278,
            8.492542
          ],
          [
            78.536023,
            8.521681
          ],
          [
            78.453937,
            8.5896
          ],
          [
            78.419187,
            8.618104
          ],
          [
            78.423892,
            8.61407
          ],
          [
            78.387653,
            8.644226
          ],
          [
            78.28006,
            8.733268
          ],
          [
            78.264826,
            8.746056
          ],
          [
            78.23906,
            8.76715
          ],
          [
            78.165414,
            8.828205
          ],
          [
            78.141451,
            8.848149
          ],
          [
            78.064342,
            8.911804
          ],
          [
            78.017848,
            8.950236
          ],
          [
            77.96999,
            8.989814
          ],
          [
            77.888812,
            9.056825
          ],
          [
            77.85634,
            9.083848
          ],
          [
            77.811997,
            9.120658
          ],
          [
            77.773079,
            9.152544
          ],
          [
            77.742648,
            9.177991
          ],
          [
            77.698207,
            9.214547
          ],
          [
            77.627574,
            9.272804
          ],
          [
            77.579124,
            9.312865
          ],
          [
            77.529038,
            9.354478
          ],
          [
            77.463439,
            9.40873
          ],
          [
            77.456457,
            9.414181
          ],
          [
            77.402002,
            9.459654
          ],
          [
            77.344289,
            9.507207
          ],
          [
            77.270425,
            9.56832
          ],
          [
            77.255554,
            9.580842
          ],
          [
            77.217364,
            9.612195
          ],
          [
            77.149034,
            9.668649
          ],
          [
            77.083891,
            9.722542
          ],
          [
            77.042149,
            9.757235
          ],
          [
            77.012785,
            9.781683
          ],
          [
            76.963938,
            9.821877
          ],
          [
            76.884036,
            9.888143
          ],
          [
            76.845235,
            9.919889
          ],
          [
            76.798286,
            9.958549
          ],
          [
            76.768767,
            9.983182
          ],
          [
            76.696694,
            10.04269
          ],
          [
            76.666582,
            10.067554
          ],
          [
            76.606627,
            10.117298
          ],
          [
            76.569118,
            10.148186
          ],
          [
            76.503333,
            10.202601
          ],
          [
            76.468925,
            10.231116
          ],
          [
            76.416198,
            10.27466
          ],
          [
            76.372423,
            10.310782
          ],
          [
            76.316044,
            10.357652
          ],
          [
            76.273075,
            10.392903
          ],
          [
            76.223348,
            10.433981
          ],
          [
            76.170792,
            10.477481
          ],
          [
            76.123883,
            10.516385
          ],
          [
            76.074737,
            10.557163
          ],
          [
            76.028094,
            10.59595
          ],
          [
            75.978382,
            10.636821
          ],
          [
            75.930967,
            10.676328
          ],
          [
            75.882184,
            10.716481
          ],
          [
            75.833801,
            10.756082
          ],
          [
            75.786167,
            10.795947
          ],
          [
            75.733778,
            10.839144
          ],
          [
            75.684638,
            10.879677
          ],
          [
            75.639019,
            10.917372
          ],
          [
            75.592849,
            10.955482
          ],
          [
            75.542066,
            10.997504
          ],
          [
            75.486643,
            11.043505
          ],
          [
            75.438773,
            11.083116
          ],
          [
            75.404098,
            11.111666
          ],
          [
            75.34173,
            11.163286
          ],
          [
            75.292562,
            11.204074
          ],
          [
            75.243878,
            11.244373
          ],
          [
            75.200373,
            11.280327
          ],
          [
            75.142165,
            11.328304
          ],
          [
            75.119234,
            11.347244
          ],
          [
            75.064362,
            11.392536
          ],
          [
            75.014726,
            11.433593
          ],
          [
            74.946586,
            11.490062
          ],
          [
            74.896261,
            11.531777
          ],
          [
            74.863891,
            11.558616
          ],
          [
            74.796039,
            11.614693
          ],
          [
            74.757941,
            11.646038
          ],
          [
            74.733257,
            11.666224
          ],
          [
            74.647805,
            11.737207
          ],
          [
            74.618968,
            11.760832
          ],
          [
            74.574128,
            11.798112
          ],
          [
            74.5413,
            11.825154
          ],
          [
            74.47894,
            11.876815
          ],
          [
            74.407414,
            11.935914
          ],
          [
            74.40156,
            11.94084
          ],
          [
            74.313677,
            12.013715
          ],
          [
            74.254659,
            12.062286
          ],
          [
            74.255282,
            12.061905
          ],
          [
            74.168291,
            12.133739
          ],
          [
            74.102024,
            12.188436
          ],
          [
            74.06352,
            12.220576
          ],
          [
            74.011559,
            12.263523
          ],
          [
            73.985756,
            12.284738
          ],
          [
            73.950142,
            12.313996
          ],
          [
            73.914006,
            12.344216
          ],
          [
            73.864791,
            12.384456
          ],
          [
            73.764202,
            12.467858
          ],
          [
            73.715479,
            12.508222
          ],
          [
            73.710832,
            12.512048
          ],
          [
            73.659206,
            12.554733
          ],
          [
            73.573823,
            12.625381
          ],
          [
            73.55667,
            12.639576
          ],
          [
            73.527504,
            12.66358
          ],
          [
            73.428902,
            12.745207
          ],
          [
            73.42418,
            12.749234
          ],
          [
            73.322037,
            12.833687
          ],
          [
            73.256878,
            12.887391
          ],
          [
            73.272029,
            12.875114
          ],
          [
            73.176019,
            12.954348
          ]
        ]
      },
      "properties": {
        "mmsi": 419001004,
        "name": "OCEAN PIONEER",
        "ship_type": "Cargo",
        "closest_distance_km": 2.05,
        "passes_all_default_filters": false
      }
    },
    {
      "type": "Feature",
      "geometry": {
        "type": "LineString",
        "coordinates": [
          [
            75.083301,
            10.399935
          ],
          [
            75.059195,
            10.39972
          ],
          [
            75.037696,
            10.399793
          ],
          [
            75.135113,
            10.400041
          ],
          [
            75.131869,
            10.400057
          ],
          [
            75.148889,
            10.399819
          ],
          [
            75.218329,
            10.399879
          ],
          [
            75.119153,
            10.399829
          ],
          [
            75.147434,
            10.400014
          ],
          [
            75.184027,
            10.399734
          ],
          [
            75.199252,
            10.399957
          ],
          [
            75.233237,
            10.399858
          ],
          [
            75.32301,
            10.399781
          ],
          [
            75.289628,
            10.39997
          ],
          [
            75.355303,
            10.399794
          ],
          [
            75.380133,
            10.399847
          ],
          [
            75.356522,
            10.399723
          ],
          [
            75.361468,
            10.399685
          ],
          [
            75.414899,
            10.399736
          ],
          [
            75.398269,
            10.399775
          ],
          [
            75.413281,
            10.399713
          ],
          [
            75.485504,
            10.399889
          ],
          [
            75.42399,
            10.3999
          ],
          [
            75.487861,
            10.399933
          ],
          [
            75.524302,
            10.399685
          ],
          [
            75.535469,
            10.399972
          ],
          [
            75.521511,
            10.399973
          ],
          [
            75.594902,
            10.399897
          ],
          [
            75.603344,
            10.39999
          ],
          [
            75.58605,
            10.399931
          ],
          [
            75.647124,
            10.399989
          ],
          [
            75.650329,
            10.399696
          ],
          [
            75.684267,
            10.400052
          ],
          [
            75.646765,
            10.399896
          ],
          [
            75.68023,
            10.399755
          ],
          [
            75.698417,
            10.400025
          ],
          [
            75.751672,
            10.399826
          ],
          [
            75.739719,
            10.400037
          ],
          [
            75.748883,
            10.399877
          ],
          [
            75.77136,
            10.399886
          ],
          [
            75.799383,
            10.39971
          ],
          [
            75.815246,
            10.399897
          ],
          [
            75.861438,
            10.399943
          ],
          [
            75.862319,
            10.399849
          ],
          [
            75.940044,
            10.399696
          ],
          [
            75.954196,
            10.400078
          ],
          [
            75.952623,
            10.400058
          ],
          [
            75.976745,
            10.399824
          ],
          [
            75.990776,
            10.40006
          ],
          [
            76.007259,
            10.399991
          ],
          [
            76.030683,
            10.39999
          ],
          [
            76.040474,
            10.399906
          ],
          [
            76.051874,
            10.400058
          ],
          [
            76.066547,
            10.399908
          ],
          [
            76.08375,
            10.399938
          ],
          [
            76.099109,
            10.399973
          ],
          [
            76.112829,
            10.399903
          ],
          [
            76.12731,
            10.399857
          ],
          [
            76.141424,
            10.400045
          ],
          [
            76.15442,
            10.40002
          ],
          [
            76.175986,
            10.399857
          ],
          [
            76.189137,
            10.400017
          ],
          [
            76.199393,
            10.399705
          ],
          [
            76.223526,
            10.400019
          ],
          [
            76.240077,
            10.399934
          ],
          [
            76.246165,
            10.399727
          ],
          [
            76.251531,
            10.399995
          ],
          [
            76.277304,
            10.399826
          ],
          [
            76.291878,
            10.399923
          ],
          [
            76.354021,
            10.400079
          ],
          [
            76.380286,
            10.399986
          ],
          [
            76.382108,
            10.400068
          ],
          [
            76.415198,
            10.399951
          ],
          [
            76.452666,
            10.399991
          ],
          [
            76.440789,
            10.400065
          ],
          [
            76.494002,
            10.399701
          ],
          [
            76.475709,
            10.399745
          ],
          [
            76.523731,
            10.399817
          ],
          [
            76.553365,
            10.400017
          ],
          [
            76.55818,
            10.399899
          ],
          [
            76.557472,
            10.399892
          ],
          [
            76.567346,
            10.400055
          ],
          [
            76.618029,
            10.399967
          ],
          [
            76.65013,
            10.399904
          ],
          [
            76.612127,
            10.399697
          ],
          [
            76.670342,
            10.399939
          ],
          [
            76.677263,
            10.399934
          ],
          [
            76.712815,
            10.399795
          ],
          [
            76.720346,
            10.400001
          ],
          [
            76.723549,
            10.399708
          ],
          [
            76.754376,
            10.399872
          ],
          [
            76.788281,
            10.399804
          ],
          [
            76.819323,
            10.400023
          ],
          [
            76.782145,
            10.399827
          ],
          [
            76.818267,
            10.399865
          ],
          [
            76.829797,
            10.399717
          ],
          [
            76.861986,
            10.399925
          ],
          [
            76.930783,
            10.399743
          ],
          [
            76.920267,
            10.399804
          ],
          [
            76.930719,
            10.399885
          ],
          [
            76.928742,
            10.399688
          ],
          [
            76.969462,
            10.400065
          ],
          [
            76.970812,
            10.399699
          ],
          [
            77.052567,
            10.39994
          ],
          [
            77.030462,
            10.400018
          ],
          [
            77.092684,
            10.39997
          ],
          [
            77.047095,
            10.399839
          ],
          [
            77.043423,
            10.3999
          ],
          [
            77.102588,
            10.399984
          ],
          [
            77.186733,
            10.399951
          ],
          [
            77.205348,
            10.399836
          ],
          [
            77.136837,
            10.400054
          ],
          [
            77.135461,
            10.399882
          ]
        ]
      },
      "properties": {
        "mmsi": 419001005,
        "name": "AL-AMAL 7",
        "ship_type": "Fishing",
        "closest_distance_km": 16.91,
        "passes_all_default_filters": false
      }
    },
    {
      "type": "Feature",
      "geometry": {
        "type": "LineString",
        "coordinates": [
          [
            75.809381,
            14.38091
          ],
          [
            75.80949,
            14.372336
          ],
          [
            75.809493,
            14.309244
          ],
          [
            75.809543,
            14.193958
          ],
          [
            75.809579,
            14.143569
          ],
          [
            75.809367,
            14.105195
          ],
          [
            75.809517,
            14.071657
          ],
          [
            75.809566,
            14.022316
          ],
          [
            75.809258,
            13.921868
          ],
          [
            75.809561,
            13.823214
          ],
          [
            75.809536,
            13.789056
          ],
          [
            75.809499,
            13.697789
          ],
          [
            75.809307,
            13.633088
          ],
          [
            75.809627,
            13.570277
          ],
          [
            75.809373,
            13.441144
          ],
          [
            75.809412,
            13.377901
          ],
          [
            75.809597,
            13.372469
          ],
          [
            75.809303,
            13.298879
          ],
          [
            75.809512,
            13.179449
          ],
          [
            75.809317,
            13.140857
          ],
          [
            75.809389,
            13.106856
          ],
          [
            75.809505,
            13.024972
          ],
          [
            75.809324,
            12.948817
          ],
          [
            75.809337,
            12.842712
          ],
          [
            75.809363,
            12.832604
          ],
          [
            75.809374,
            12.70351
          ],
          [
            75.809566,
            12.646203
          ],
          [
            75.809518,
            12.57205
          ],
          [
            75.809575,
            12.511652
          ],
          [
            75.809364,
            12.481942
          ],
          [
            75.809386,
            12.368676
          ],
          [
            75.809439,
            12.30995
          ],
          [
            75.809621,
            12.227046
          ],
          [
            75.809494,
            12.187295
          ],
          [
            75.809515,
            12.11209
          ],
          [
            75.809268,
            12.040358
          ],
          [
            75.809288,
            11.965682
          ],
          [
            75.809468,
            11.913848
          ],
          [
            75.809621,
            11.851713
          ],
          [
            75.809327,
            11.77977
          ],
          [
            75.809506,
            11.713438
          ],
          [
            75.809477,
            11.641343
          ],
          [
            75.809622,
            11.558786
          ],
          [
            75.8096,
            11.502022
          ],
          [
            75.809646,
            11.410422
          ],
          [
            75.809622,
            11.348401
          ],
          [
            75.809598,
            11.294214
          ],
          [
            75.80929,
            11.202735
          ],
          [
            75.809643,
            11.154577
          ],
          [
            75.809623,
            11.077016
          ],
          [
            75.809325,
            11.012769
          ],
          [
            75.809431,
            10.933796
          ],
          [
            75.809542,
            10.867476
          ],
          [
            75.80955,
            10.803493
          ],
          [
            75.809606,
            10.731061
          ],
          [
            75.809282,
            10.664621
          ],
          [
            75.809304,
            10.594928
          ],
          [
            75.809352,
            10.52665
          ],
          [
            75.809629,
            10.45899
          ],
          [
            75.809252,
            10.390397
          ],
          [
            75.809272,
            10.318619
          ],
          [
            75.80941,
            10.256029
          ],
          [
            75.809529,
            10.182711
          ],
          [
            75.809614,
            10.117001
          ],
          [
            75.809335,
            10.049248
          ],
          [
            75.809546,
            9.984465
          ],
          [
            75.809467,
            9.904939
          ],
          [
            75.809513,
            9.839689
          ],
          [
            75.809549,
            9.778474
          ],
          [
            75.809426,
            9.689091
          ],
          [
            75.809473,
            9.62534
          ],
          [
            75.80945,
            9.580348
          ],
          [
            75.809379,
            9.492105
          ],
          [
            75.80933,
            9.425391
          ],
          [
            75.809452,
            9.35376
          ],
          [
            75.809453,
            9.274241
          ],
          [
            75.809432,
            9.22216
          ],
          [
            75.809406,
            9.135411
          ],
          [
            75.809479,
            9.065385
          ],
          [
            75.809273,
            9.040027
          ],
          [
            75.809275,
            8.915731
          ],
          [
            75.809411,
            8.849162
          ],
          [
            75.809639,
            8.790339
          ],
          [
            75.809645,
            8.729093
          ],
          [
            75.80961,
            8.6786
          ],
          [
            75.809512,
            8.610571
          ],
          [
            75.809387,
            8.529853
          ],
          [
            75.809459,
            8.488926
          ],
          [
            75.809249,
            8.376914
          ],
          [
            75.809517,
            8.365798
          ],
          [
            75.809577,
            8.253999
          ],
          [
            75.809358,
            8.211049
          ],
          [
            75.809293,
            8.081003
          ],
          [
            75.809554,
            8.022876
          ],
          [
            75.80933,
            7.946141
          ],
          [
            75.809487,
            7.952767
          ],
          [
            75.809544,
            7.824794
          ],
          [
            75.809334,
            7.786468
          ],
          [
            75.809449,
            7.669448
          ],
          [
            75.80954,
            7.661848
          ],
          [
            75.809516,
            7.590284
          ],
          [
            75.809305,
            7.521676
          ],
          [
            75.809368,
            7.414304
          ],
          [
            75.809599,
            7.415857
          ],
          [
            75.809418,
            7.246016
          ],
          [
            75.809624,
            7.227332
          ],
          [
            75.809375,
            7.136561
          ],
          [
            75.809398,
            7.099646
          ],
          [
            75.809587,
            6.987294
          ],
          [
            75.80957,
            6.978115
          ],
          [
            75.809635,
            6.826928
          ],
          [
            75.809345,
            6.806121
          ],
          [
            75.809616,
            6.786988
          ]
        ]
      },
      "properties": {
        "mmsi": 419001006,
        "name": "ASIAN CLIPPER",
        "ship_type": "Cargo",
        "closest_distance_km": 27.19,
        "passes_all_default_filters": false
      }
    },
    {
      "type": "Feature",
      "geometry": {
        "type": "LineString",
        "coordinates": [
          [
            75.671596,
            8.94235
          ],
          [
            75.703171,
            9.058634
          ],
          [
            75.695811,
            9.032522
          ],
          [
            75.698162,
            9.040562
          ],
          [
            75.715539,
            9.104868
          ],
          [
            75.707435,
            9.07383
          ],
          [
            75.715253,
            9.102534
          ],
          [
            75.738598,
            9.189035
          ],
          [
            75.754869,
            9.249227
          ],
          [
            75.744709,
            9.21167
          ],
          [
            75.76511,
            9.286691
          ],
          [
            75.768786,
            9.29946
          ],
          [
            75.777219,
            9.330872
          ],
          [
            75.787506,
            9.369055
          ],
          [
            75.799079,
            9.411961
          ],
          [
            75.787414,
            9.368997
          ],
          [
            75.815886,
            9.47368
          ],
          [
            75.805993,
            9.436954
          ],
          [
            75.817642,
            9.479459
          ],
          [
            75.818449,
            9.483066
          ],
          [
            75.845151,
            9.581815
          ],
          [
            75.840206,
            9.562404
          ],
          [
            75.851643,
            9.605796
          ],
          [
            75.870696,
            9.674653
          ],
          [
            75.864509,
            9.652647
          ],
          [
            75.868848,
            9.667961
          ],
          [
            75.893011,
            9.757438
          ],
          [
            75.888857,
            9.741865
          ],
          [
            75.898824,
            9.779351
          ],
          [
            75.905468,
            9.802828
          ],
          [
            75.917681,
            9.848893
          ],
          [
            75.916672,
            9.843897
          ],
          [
            75.92273,
            9.866998
          ],
          [
            75.942318,
            9.938447
          ],
          [
            75.940071,
            9.930404
          ],
          [
            75.9541,
            9.981812
          ],
          [
            75.95362,
            9.979798
          ],
          [
            75.963446,
            10.015855
          ],
          [
            75.972184,
            10.048478
          ],
          [
            75.982174,
            10.085752
          ],
          [
            75.994043,
            10.128959
          ],
          [
            75.995619,
            10.13416
          ],
          [
            76.009471,
            10.186294
          ],
          [
            76.016212,
            10.20998
          ],
          [
            76.071167,
            10.412983
          ],
          [
            76.071597,
            10.414188
          ],
          [
            76.081138,
            10.44966
          ],
          [
            76.079022,
            10.441094
          ],
          [
            76.083862,
            10.459816
          ],
          [
            76.090335,
            10.482445
          ],
          [
            76.09252,
            10.491486
          ],
          [
            76.095008,
            10.499369
          ],
          [
            76.098754,
            10.513312
          ],
          [
            76.103669,
            10.531563
          ],
          [
            76.106547,
            10.54211
          ],
          [
            76.109536,
            10.554469
          ],
          [
            76.113154,
            10.567185
          ],
          [
            76.116537,
            10.579695
          ],
          [
            76.12023,
            10.593676
          ],
          [
            76.12398,
            10.6066
          ],
          [
            76.126149,
            10.614325
          ],
          [
            76.131029,
            10.63309
          ],
          [
            76.132538,
            10.638358
          ],
          [
            76.136875,
            10.654674
          ],
          [
            76.139547,
            10.663952
          ],
          [
            76.144066,
            10.680701
          ],
          [
            76.145427,
            10.68598
          ],
          [
            76.150797,
            10.705513
          ],
          [
            76.152062,
            10.70965
          ],
          [
            76.21667,
            10.948241
          ],
          [
            76.219204,
            10.957196
          ],
          [
            76.227945,
            10.989119
          ],
          [
            76.2347,
            11.014659
          ],
          [
            76.240635,
            11.03559
          ],
          [
            76.251966,
            11.078009
          ],
          [
            76.25617,
            11.093442
          ],
          [
            76.267843,
            11.13632
          ],
          [
            76.271857,
            11.150311
          ],
          [
            76.288427,
            11.211781
          ],
          [
            76.295988,
            11.239626
          ],
          [
            76.304204,
            11.270185
          ],
          [
            76.307856,
            11.283011
          ],
          [
            76.308016,
            11.283196
          ],
          [
            76.318072,
            11.320452
          ],
          [
            76.329371,
            11.36201
          ],
          [
            76.3362,
            11.387616
          ],
          [
            76.34694,
            11.427167
          ],
          [
            76.354622,
            11.45483
          ],
          [
            76.356382,
            11.461417
          ],
          [
            76.360394,
            11.476116
          ],
          [
            76.380204,
            11.54834
          ],
          [
            76.38074,
            11.551154
          ],
          [
            76.398825,
            11.617739
          ],
          [
            76.403751,
            11.635206
          ],
          [
            76.404945,
            11.640901
          ],
          [
            76.418677,
            11.69102
          ],
          [
            76.423561,
            11.707816
          ],
          [
            76.432044,
            11.7395
          ],
          [
            76.44747,
            11.797343
          ],
          [
            76.435681,
            11.753266
          ],
          [
            76.452447,
            11.815066
          ],
          [
            76.454621,
            11.822932
          ],
          [
            76.465284,
            11.862812
          ],
          [
            76.461103,
            11.846081
          ],
          [
            76.468537,
            11.874841
          ],
          [
            76.482269,
            11.925059
          ],
          [
            76.49551,
            11.973433
          ],
          [
            76.510262,
            12.027832
          ],
          [
            76.522141,
            12.070637
          ],
          [
            76.524086,
            12.079022
          ],
          [
            76.543754,
            12.151177
          ],
          [
            76.522302,
            12.071244
          ],
          [
            76.532064,
            12.10823
          ]
        ]
      },
      "properties": {
        "mmsi": 419001007,
        "name": "MARITIMA ONE",
        "ship_type": "Oil Tanker",
        "closest_distance_km": 5.56,
        "passes_all_default_filters": true
      }
    },
    {
      "type": "Feature",
      "geometry": {
        "type": "LineString",
        "coordinates": [
          [
            80.262662,
            10.754995
          ],
          [
            80.182761,
            10.754901
          ],
          [
            80.075371,
            10.755104
          ],
          [
            80.048367,
            10.755146
          ],
          [
            79.88588,
            10.755171
          ],
          [
            79.839835,
            10.755005
          ],
          [
            79.832393,
            10.755033
          ],
          [
            79.722343,
            10.755067
          ],
          [
            79.615697,
            10.75516
          ],
          [
            79.595393,
            10.755105
          ],
          [
            79.495193,
            10.754856
          ],
          [
            79.362147,
            10.754944
          ],
          [
            79.351354,
            10.755026
          ],
          [
            79.214085,
            10.754976
          ],
          [
            79.192108,
            10.755099
          ],
          [
            79.153505,
            10.755044
          ],
          [
            78.988919,
            10.754948
          ],
          [
            78.904988,
            10.754966
          ],
          [
            78.838403,
            10.755148
          ],
          [
            78.797742,
            10.75502
          ],
          [
            78.713358,
            10.755158
          ],
          [
            78.608031,
            10.754834
          ],
          [
            78.550968,
            10.754932
          ],
          [
            78.465117,
            10.755005
          ],
          [
            78.438128,
            10.755042
          ],
          [
            78.310403,
            10.755132
          ],
          [
            78.254203,
            10.755151
          ],
          [
            78.204728,
            10.755041
          ],
          [
            78.084198,
            10.755154
          ],
          [
            78.022368,
            10.755222
          ],
          [
            77.95014,
            10.755149
          ],
          [
            77.915275,
            10.755132
          ],
          [
            77.826821,
            10.755057
          ],
          [
            77.744037,
            10.755075
          ],
          [
            77.635536,
            10.754905
          ],
          [
            77.556134,
            10.754962
          ],
          [
            77.505649,
            10.754952
          ],
          [
            77.4175,
            10.754929
          ],
          [
            77.373421,
            10.755094
          ],
          [
            77.295448,
            10.755136
          ],
          [
            77.219071,
            10.755169
          ],
          [
            77.137155,
            10.754922
          ],
          [
            77.058786,
            10.755127
          ],
          [
            76.97052,
            10.755053
          ],
          [
            76.892311,
            10.755003
          ],
          [
            76.829389,
            10.754859
          ],
          [
            76.737008,
            10.755197
          ],
          [
            76.676673,
            10.754953
          ],
          [
            76.596157,
            10.755115
          ],
          [
            76.513616,
            10.755088
          ],
          [
            76.431561,
            10.755036
          ],
          [
            76.361242,
            10.754907
          ],
          [
            76.289498,
            10.754957
          ],
          [
            76.210485,
            10.755016
          ],
          [
            76.134718,
            10.754841
          ],
          [
            76.058431,
            10.755006
          ],
          [
            75.98157,
            10.754999
          ],
          [
            75.904592,
            10.754903
          ],
          [
            75.831317,
            10.755082
          ],
          [
            75.750264,
            10.754932
          ],
          [
            75.680097,
            10.754971
          ],
          [
            75.605476,
            10.754981
          ],
          [
            75.522247,
            10.754916
          ],
          [
            75.445503,
            10.754823
          ],
          [
            75.380562,
            10.754913
          ],
          [
            75.308274,
            10.7551
          ],
          [
            75.208325,
            10.754991
          ],
          [
            75.156828,
            10.754975
          ],
          [
            75.080924,
            10.754947
          ],
          [
            75.004645,
            10.755131
          ],
          [
            74.929371,
            10.755219
          ],
          [
            74.839295,
            10.754825
          ],
          [
            74.766786,
            10.755111
          ],
          [
            74.70332,
            10.754987
          ],
          [
            74.595527,
            10.754857
          ],
          [
            74.523817,
            10.755058
          ],
          [
            74.436294,
            10.754948
          ],
          [
            74.395747,
            10.754856
          ],
          [
            74.302286,
            10.755065
          ],
          [
            74.220615,
            10.755161
          ],
          [
            74.16765,
            10.755029
          ],
          [
            74.063586,
            10.75494
          ],
          [
            73.977146,
            10.755204
          ],
          [
            73.953855,
            10.755022
          ],
          [
            73.849391,
            10.755213
          ],
          [
            73.743341,
            10.754875
          ],
          [
            73.693892,
            10.754968
          ],
          [
            73.602381,
            10.755204
          ],
          [
            73.585972,
            10.754849
          ],
          [
            73.50938,
            10.754846
          ],
          [
            73.394086,
            10.755074
          ],
          [
            73.325905,
            10.755103
          ],
          [
            73.239045,
            10.755069
          ],
          [
            73.184102,
            10.755027
          ],
          [
            73.060554,
            10.755037
          ],
          [
            73.000986,
            10.755156
          ],
          [
            72.982219,
            10.755102
          ],
          [
            72.82582,
            10.754845
          ],
          [
            72.792946,
            10.755003
          ],
          [
            72.730728,
            10.755119
          ],
          [
            72.676291,
            10.755105
          ],
          [
            72.596027,
            10.755203
          ],
          [
            72.448407,
            10.75511
          ],
          [
            72.449847,
            10.755135
          ],
          [
            72.282141,
            10.755131
          ],
          [
            72.21494,
            10.754931
          ],
          [
            72.150095,
            10.755053
          ],
          [
            72.106895,
            10.754966
          ],
          [
            72.016088,
            10.754969
          ],
          [
            72.002386,
            10.755052
          ],
          [
            71.909841,
            10.755026
          ],
          [
            71.746093,
            10.75492
          ],
          [
            71.737435,
            10.754882
          ]
        ]
      },
      "properties": {
        "mmsi": 419001008,
        "name": "ROYAL PRINCESS",
        "ship_type": "Passenger",
        "closest_distance_km": 22.56,
        "passes_all_default_filters": false
      }
    }
  ]
}