{
  "type": "FeatureCollection",
  "properties": {
    "case_id": "CASE a3",
    "metocean_source": "COPERNICUS_GLOBAL_FALLBACK (Production: INCOIS OOSA API)",
    "generated_at": "2026-09-11T17:05:48.434040+00:00",
    "notes": "Production version will use INCOIS OOSA API / ODBB instead of Copernicus fallback"
  },
  "features": [
    {
      "type": "Feature",
      "properties": {
        "case_id": "CASE a3",
        "horizon_hours": 24,
        "confidence": "90% Outer Envelope",
        "forecast_time": "2026-08-03T00:57:00+00:00",
        "centroid": [
          73.141079,
          7.04774
        ],
        "area_km2": 7655.95,
        "stroke": "#1976D2",
        "stroke-width": 2,
        "fill": "#64B5F6",
        "fill-opacity": 0.25
      },
      "geometry": {
        "type": "Polygon",
        "coordinates": [
          [
            [
              73.066243,
              7.84149
            ],
            [
              73.035145,
              7.831443
            ],
            [
              73.005938,
              7.807411
            ],
            [
              72.979142,
              7.769823
            ],
            [
              72.955235,
              7.719349
            ],
            [
              72.934645,
              7.65689
            ],
            [
              72.917739,
              7.58356
            ],
            [
              72.904819,
              7.500669
            ],
            [
              72.896114,
              7.409696
            ],
            [
              72.891781,
              7.312263
            ],
            [
              72.891897,
              7.21011
            ],
            [
              72.896459,
              7.105059
            ],
            [
              72.905387,
              6.998986
            ],
            [
              72.918521,
              6.893782
            ],
            [
              72.935626,
              6.791326
            ],
            [
              72.956397,
              6.693446
            ],
            [
              72.980464,
              6.601888
            ],
            [
              73.007397,
              6.518286
            ],
            [
              73.036716,
              6.444132
            ],
            [
              73.067897,
              6.38075
            ],
            [
              73.100385,
              6.32927
            ],
            [
              73.133598,
              6.290612
            ],
            [
              73.166945,
              6.265464
            ],
            [
              73.19983,
              6.254276
            ],
            [
              73.231667,
              6.257247
            ],
            [
              73.261887,
              6.274325
            ],
            [
              73.289952,
              6.305204
            ],
            [
              73.31536,
              6.349334
            ],
            [
              73.337658,
              6.405927
            ],
            [
              73.356447,
              6.473973
            ],
            [
              73.371394,
              6.552258
            ],
            [
              73.382231,
              6.639385
            ],
            [
              73.388764,
              6.733799
            ],
            [
              73.390878,
              6.833815
            ],
            [
              73.388533,
              6.937649
            ],
            [
              73.381773,
              7.043447
            ],
            [
              73.370718,
              7.149322
            ],
            [
              73.355565,
              7.253384
            ],
            [
              73.336584,
              7.353777
            ],
            [
              73.314115,
              7.448708
            ],
            [
              73.288558,
              7.536484
            ],
            [
              73.260369,
              7.615538
            ],
            [
              73.230051,
              7.68446
            ],
            [
              73.198145,
              7.74202
            ],
            [
              73.165222,
              7.78719
            ],
            [
              73.131867,
              7.819164
            ],
            [
              73.098677,
              7.837373
            ],
            [
              73.066243,
              7.84149
            ],
            [
              73.066243,
              7.84149
            ]
          ]
        ]
      }
    },
    {
      "type": "Feature",
      "properties": {
        "case_id": "CASE a3",
        "horizon_hours": 24,
        "confidence": "50% Core Slick",
        "forecast_time": "2026-08-03T00:57:00+00:00",
        "centroid": [
          73.141079,
          7.04774
        ],
        "area_km2": 3445.18,
        "stroke": "#D32F2F",
        "stroke-width": 2,
        "fill": "#E57373",
        "fill-opacity": 0.5
      },
      "geometry": {
        "type": "Polygon",
        "coordinates": [
          [
            [
              73.10002,
              7.483241
            ],
            [
              73.082957,
              7.477728
            ],
            [
              73.066932,
              7.464543
            ],
            [
              73.05223,
              7.443919
            ],
            [
              73.039114,
              7.416226
            ],
            [
              73.027817,
              7.381957
            ],
            [
              73.018541,
              7.341724
            ],
            [
              73.011452,
              7.296245
            ],
            [
              73.006676,
              7.246331
            ],
            [
              73.004299,
              7.192874
            ],
            [
              73.004363,
              7.136826
            ],
            [
              73.006866,
              7.079189
            ],
            [
              73.011764,
              7.02099
            ],
            [
              73.01897,
              6.963269
            ],
            [
              73.028355,
              6.907055
            ],
            [
              73.039751,
              6.853352
            ],
            [
              73.052956,
              6.803118
            ],
            [
              73.067733,
              6.757249
            ],
            [
              73.083819,
              6.716563
            ],
            [
              73.100927,
              6.681788
            ],
            [
              73.118752,
              6.653543
            ],
            [
              73.136975,
              6.632332
            ],
            [
              73.155271,
              6.618535
            ],
            [
              73.173314,
              6.612396
            ],
            [
              73.190781,
              6.614026
            ],
            [
              73.207362,
              6.623396
            ],
            [
              73.22276,
              6.640339
            ],
            [
              73.2367,
              6.664551
            ],
            [
              73.248934,
              6.695601
            ],
            [
              73.259244,
              6.732936
            ],
            [
              73.267444,
              6.775888
            ],
            [
              73.27339,
              6.823691
            ],
            [
              73.276975,
              6.875492
            ],
            [
              73.278134,
              6.930367
            ],
            [
              73.276848,
              6.987337
            ],
            [
              73.273139,
              7.045385
            ],
            [
              73.267073,
              7.103474
            ],
            [
              73.258759,
              7.160569
            ],
            [
              73.248346,
              7.215651
            ],
            [
              73.236017,
              7.267736
            ],
            [
              73.221995,
              7.315895
            ],
            [
              73.206529,
              7.359269
            ],
            [
              73.189895,
              7.397084
            ],
            [
              73.172389,
              7.428665
            ],
            [
              73.154325,
              7.453448
            ],
            [
              73.136025,
              7.470991
            ],
            [
              73.117815,
              7.480981
            ],
            [
              73.10002,
              7.483241
            ],
            [
              73.10002,
              7.483241
            ]
          ]
        ]
      }
    },
    {
      "type": "Feature",
      "properties": {
        "case_id": "CASE a3",
        "horizon_hours": 72,
        "confidence": "90% Outer Envelope",
        "forecast_time": "2026-08-05T00:57:00+00:00",
        "centroid": [
          73.286156,
          6.977408
        ],
        "area_km2": 14230.13,
        "stroke": "#1976D2",
        "stroke-width": 2,
        "fill": "#64B5F6",
        "fill-opacity": 0.25
      },
      "geometry": {
        "type": "Polygon",
        "coordinates": [
          [
            [
              73.00635,
              7.666275
            ],
            [
              72.950656,
              7.636724
            ],
            [
              72.900949,
              7.595407
            ],
            [
              72.858116,
              7.543063
            ],
            [
              72.822922,
              7.480624
            ],
            [
              72.795994,
              7.409205
            ],
            [
              72.777813,
              7.330081
            ],
            [
              72.768704,
              7.244663
            ],
            [
              72.768828,
              7.154476
            ],
            [
              72.778184,
              7.061129
            ],
            [
              72.796605,
              6.966289
            ],
            [
              72.823762,
              6.871646
            ],
            [
              72.85917,
              6.778892
            ],
            [
              72.902198,
              6.689679
            ],
            [
              72.952078,
              6.605601
            ],
            [
              73.007919,
              6.528158
            ],
            [
              73.068726,
              6.458732
            ],
            [
              73.133412,
              6.398562
            ],
            [
              73.200825,
              6.348721
            ],
            [
              73.26976,
              6.310099
            ],
            [
              73.338987,
              6.283385
            ],
            [
              73.407272,
              6.269056
            ],
            [
              73.473395,
              6.267368
            ],
            [
              73.536178,
              6.27835
            ],
            [
              73.594498,
              6.301807
            ],
            [
              73.647317,
              6.337321
            ],
            [
              73.69369,
              6.384256
            ],
            [
              73.732791,
              6.441776
            ],
            [
              73.763921,
              6.508855
            ],
            [
              73.786526,
              6.584295
            ],
            [
              73.800202,
              6.66675
            ],
            [
              73.804705,
              6.754749
            ],
            [
              73.799954,
              6.846721
            ],
            [
              73.786034,
              6.941025
            ],
            [
              73.763194,
              7.035979
            ],
            [
              73.731842,
              7.129887
            ],
            [
              73.692536,
              7.221074
            ],
            [
              73.645978,
              7.307913
            ],
            [
              73.592999,
              7.388855
            ],
            [
              73.534545,
              7.462453
            ],
            [
              73.471658,
              7.527397
            ],
            [
              73.405461,
              7.582525
            ],
            [
              73.337134,
              7.626856
            ],
            [
              73.267898,
              7.659597
            ],
            [
              73.198988,
              7.680164
            ],
            [
              73.131634,
              7.688191
            ],
            [
              73.067037,
              7.683533
            ],
            [
              73.00635,
              7.666275
            ],
            [
              73.00635,
              7.666275
            ]
          ]
        ]
      }
    },
    {
      "type": "Feature",
      "properties": {
        "case_id": "CASE a3",
        "horizon_hours": 72,
        "confidence": "50% Core Slick",
        "forecast_time": "2026-08-05T00:57:00+00:00",
        "centroid": [
          73.286156,
          6.977408
        ],
        "area_km2": 6403.56,
        "stroke": "#D32F2F",
        "stroke-width": 2,
        "fill": "#E57373",
        "fill-opacity": 0.5
      },
      "geometry": {
        "type": "Polygon",
        "coordinates": [
          [
            [
              73.132637,
              7.355363
            ],
            [
              73.10208,
              7.339149
            ],
            [
              73.074808,
              7.316481
            ],
            [
              73.051307,
              7.287761
            ],
            [
              73.031997,
              7.253503
            ],
            [
              73.017223,
              7.214318
            ],
            [
              73.007248,
              7.170906
            ],
            [
              73.00225,
              7.124041
            ],
            [
              73.002318,
              7.074558
            ],
            [
              73.007451,
              7.023343
            ],
            [
              73.017558,
              6.971307
            ],
            [
              73.032458,
              6.919381
            ],
            [
              73.051885,
              6.868489
            ],
            [
              73.075493,
              6.819542
            ],
            [
              73.10286,
              6.773412
            ],
            [
              73.133498,
              6.730922
            ],
            [
              73.16686,
              6.69283
            ],
            [
              73.202351,
              6.659817
            ],
            [
              73.239338,
              6.632471
            ],
            [
              73.27716,
              6.611281
            ],
            [
              73.315143,
              6.596624
            ],
            [
              73.352608,
              6.588762
            ],
            [
              73.388887,
              6.587836
            ],
            [
              73.423334,
              6.593862
            ],
            [
              73.455332,
              6.606732
            ],
            [
              73.484311,
              6.626216
            ],
            [
              73.509754,
              6.651968
            ],
            [
              73.531208,
              6.683527
            ],
            [
              73.548288,
              6.720331
            ],
            [
              73.56069,
              6.761722
            ],
            [
              73.568194,
              6.806962
            ],
            [
              73.570664,
              6.855243
            ],
            [
              73.568057,
              6.905705
            ],
            [
              73.56042,
              6.957446
            ],
            [
              73.547889,
              7.009543
            ],
            [
              73.530687,
              7.061067
            ],
            [
              73.509121,
              7.111098
            ],
            [
              73.483577,
              7.158744
            ],
            [
              73.454509,
              7.203153
            ],
            [
              73.422438,
              7.243534
            ],
            [
              73.387934,
              7.279166
            ],
            [
              73.351614,
              7.309413
            ],
            [
              73.314126,
              7.333735
            ],
            [
              73.276139,
              7.351699
            ],
            [
              73.238331,
              7.362983
            ],
            [
              73.201376,
              7.367387
            ],
            [
              73.165934,
              7.364832
            ],
            [
              73.132637,
              7.355363
            ],
            [
              73.132637,
              7.355363
            ]
          ]
        ]
      }
    },
    {
      "type": "Feature",
      "properties": {
        "case_id": "CASE a3",
        "horizon_hours": 96,
        "confidence": "90% Outer Envelope",
        "forecast_time": "2026-08-06T00:57:00+00:00",
        "centroid": [
          73.359454,
          6.905333
        ],
        "area_km2": 21573.44,
        "stroke": "#1976D2",
        "stroke-width": 2,
        "fill": "#64B5F6",
        "fill-opacity": 0.25
      },
      "geometry": {
        "type": "Polygon",
        "coordinates": [
          [
            [
              72.739257,
              7.592903
            ],
            [
              72.693944,
              7.541338
            ],
            [
              72.660506,
              7.478424
            ],
            [
              72.639541,
              7.405282
            ],
            [
              72.631423,
              7.32322
            ],
            [
              72.636297,
              7.2337
            ],
            [
              72.654075,
              7.13832
            ],
            [
              72.684441,
              7.038783
            ],
            [
              72.726853,
              6.936864
            ],
            [
              72.780553,
              6.834383
            ],
            [
              72.844584,
              6.733167
            ],
            [
              72.917803,
              6.635025
            ],
            [
              72.998903,
              6.541705
            ],
            [
              73.086437,
              6.454875
            ],
            [
              73.178843,
              6.376083
            ],
            [
              73.274472,
              6.306736
            ],
            [
              73.371617,
              6.24807
            ],
            [
              73.468546,
              6.201134
            ],
            [
              73.563527,
              6.166764
            ],
            [
              73.654867,
              6.145573
            ],
            [
              73.740936,
              6.137941
            ],
            [
              73.820197,
              6.144003
            ],
            [
              73.891235,
              6.163651
            ],
            [
              73.952784,
              6.196534
            ],
            [
              74.003746,
              6.242065
            ],
            [
              74.043209,
              6.299433
            ],
            [
              74.070472,
              6.367613
            ],
            [
              74.085046,
              6.445389
            ],
            [
              74.086671,
              6.531372
            ],
            [
              74.07532,
              6.624029
            ],
            [
              74.051194,
              6.721705
            ],
            [
              74.014724,
              6.822659
            ],
            [
              73.96656,
              6.925088
            ],
            [
              73.907563,
              7.027164
            ],
            [
              73.838784,
              7.127066
            ],
            [
              73.761452,
              7.223011
            ],
            [
              73.676947,
              7.313288
            ],
            [
              73.586775,
              7.396284
            ],
            [
              73.492547,
              7.47052
            ],
            [
              73.395944,
              7.534669
            ],
            [
              73.29869,
              7.587588
            ],
            [
              73.20252,
              7.628333
            ],
            [
              73.109151,
              7.656175
            ],
            [
              73.020248,
              7.670619
            ],
            [
              72.937399,
              7.671406
            ],
            [
              72.862081,
              7.658522
            ],
            [
              72.795638,
              7.632198
            ],
            [
              72.739257,
              7.592903
            ],
            [
              72.739257,
              7.592903
            ]
          ]
        ]
      }
    },
    {
      "type": "Feature",
      "properties": {
        "case_id": "CASE a3",
        "horizon_hours": 96,
        "confidence": "50% Core Slick",
        "forecast_time": "2026-08-06T00:57:00+00:00",
        "centroid": [
          73.359454,
          6.905333
        ],
        "area_km2": 9708.05,
        "stroke": "#D32F2F",
        "stroke-width": 2,
        "fill": "#E57373",
        "fill-opacity": 0.5
      },
      "geometry": {
        "type": "Polygon",
        "coordinates": [
          [
            [
              73.019175,
              7.282577
            ],
            [
              72.994314,
              7.254285
            ],
            [
              72.975968,
              7.219766
            ],
            [
              72.964465,
              7.179636
            ],
            [
              72.960011,
              7.134612
            ],
            [
              72.962685,
              7.085496
            ],
            [
              72.972439,
              7.033164
            ],
            [
              72.9891,
              6.978552
            ],
            [
              73.01237,
              6.922633
            ],
            [
              73.041833,
              6.866405
            ],
            [
              73.076964,
              6.810873
            ],
            [
              73.117137,
              6.757025
            ],
            [
              73.161633,
              6.705824
            ],
            [
              73.20966,
              6.658184
            ],
            [
              73.260359,
              6.614954
            ],
            [
              73.312827,
              6.576906
            ],
            [
              73.366127,
              6.544718
            ],
            [
              73.419308,
              6.518966
            ],
            [
              73.471421,
              6.500108
            ],
            [
              73.521536,
              6.488482
            ],
            [
              73.568758,
              6.484294
            ],
            [
              73.612246,
              6.48762
            ],
            [
              73.651222,
              6.4984
            ],
            [
              73.684992,
              6.516442
            ],
            [
              73.712952,
              6.541423
            ],
            [
              73.734604,
              6.572899
            ],
            [
              73.749562,
              6.610307
            ],
            [
              73.757558,
              6.652979
            ],
            [
              73.75845,
              6.700155
            ],
            [
              73.752222,
              6.750992
            ],
            [
              73.738985,
              6.804584
            ],
            [
              73.718975,
              6.859973
            ],
            [
              73.69255,
              6.916172
            ],
            [
              73.66018,
              6.972177
            ],
            [
              73.622444,
              7.02699
            ],
            [
              73.580015,
              7.079631
            ],
            [
              73.53365,
              7.129162
            ],
            [
              73.484176,
              7.174699
            ],
            [
              73.432477,
              7.21543
            ],
            [
              73.379475,
              7.250626
            ],
            [
              73.326115,
              7.279661
            ],
            [
              73.27335,
              7.302016
            ],
            [
              73.222122,
              7.317292
            ],
            [
              73.173345,
              7.325216
            ],
            [
              73.127888,
              7.325648
            ],
            [
              73.086564,
              7.318579
            ],
            [
              73.05011,
              7.304136
            ],
            [
              73.019175,
              7.282577
            ],
            [
              73.019175,
              7.282577
            ]
          ]
        ]
      }
    }
  ]
}